{"type":"FeatureCollection","features":[{"type":"Feature","geometry":{"type":"Point","coordinates":[-82.92694,38.63056]},"properties":{"id":"bennetts-mill","name":"Bennett's Mill Covered Bridge","title":"Bennett's Mill Covered Bridge","city":"Greenup","county":"Greenup","history":"Authentic covered bridge over Tygarts Creek in Greenup County, built about 1855 and heavily restored in 2004. One of Kentucky's remaining historic timber-truss covered bridges.","description":"Authentic covered bridge over Tygarts Creek in Greenup County, built about 1855 and heavily restored in 2004. One of Kentucky's remaining historic timber-truss covered bridges.","website":"https://en.wikipedia.org/wiki/List_of_covered_bridges_in_Kentucky","built_year":1855,"yearStart":1855,"yearEnd":1855,"crosses":"Tygarts Creek","truss":"Modified Wheeler or Warren","status":"extant","length_ft":145,"layer":"bridges"}},{"type":"Feature","geometry":{"type":"Point","coordinates":[-83.62111,38.62028]},"properties":{"id":"cabin-creek","name":"Cabin Creek Covered Bridge","title":"Cabin Creek Covered Bridge","city":"Tollesboro","county":"Lewis","history":"Also known as Mackey or Hughes Farm Covered Bridge. Spans Cabin Creek near Tollesboro; multiple kingpost truss from about 1867, now state-owned.","description":"Also known as Mackey or Hughes Farm Covered Bridge. Spans Cabin Creek near Tollesboro; multiple kingpost truss from about 1867, now state-owned.","website":"https://en.wikipedia.org/wiki/List_of_covered_bridges_in_Kentucky","built_year":1867,"yearStart":1867,"yearEnd":1867,"crosses":"Cabin Creek","truss":"Multiple king","status":"extant","length_ft":114,"layer":"bridges"}},{"type":"Feature","geometry":{"type":"Point","coordinates":[-84.20333,38.32472]},"properties":{"id":"colville","name":"Colville Covered Bridge","title":"Colville Covered Bridge","city":"Millersburg","county":"Bourbon","history":"Bourbon County's covered bridge over Hinkston Creek near Millersburg, built 1877 and restored in 2002.","description":"Bourbon County's covered bridge over Hinkston Creek near Millersburg, built 1877 and restored in 2002.","website":"https://en.wikipedia.org/wiki/List_of_covered_bridges_in_Kentucky","built_year":1877,"yearStart":1877,"yearEnd":1877,"crosses":"Hinkston Creek","truss":"Multiple king","status":"extant","length_ft":120,"layer":"bridges"}},{"type":"Feature","geometry":{"type":"Point","coordinates":[-83.61556,38.36222]},"properties":{"id":"goddard","name":"Goddard Covered Bridge","title":"Goddard Covered Bridge","city":"Goddard","county":"Fleming","history":"Also called White Bridge. Compact Town-lattice covered bridge over Sand Lick Creek at Goddard; rebuilt elements date to 1933.","description":"Also called White Bridge. Compact Town-lattice covered bridge over Sand Lick Creek at Goddard; rebuilt elements date to 1933.","website":"https://en.wikipedia.org/wiki/List_of_covered_bridges_in_Kentucky","built_year":1864,"yearStart":1864,"yearEnd":1864,"crosses":"Sand Lick Creek","truss":"Town","status":"extant","length_ft":60,"layer":"bridges"}},{"type":"Feature","geometry":{"type":"Point","coordinates":[-83.65306,38.25472]},"properties":{"id":"hillsboro","name":"Hillsboro Covered Bridge","title":"Hillsboro Covered Bridge","city":"Hillsboro","county":"Fleming","history":"Also known as Grange City Covered Bridge. Spans Fox Creek in Fleming County; multiple kingpost from about 1865.","description":"Also known as Grange City Covered Bridge. Spans Fox Creek in Fleming County; multiple kingpost from about 1865.","website":"https://en.wikipedia.org/wiki/List_of_covered_bridges_in_Kentucky","built_year":1865,"yearStart":1865,"yearEnd":1865,"crosses":"Fox Creek","truss":"Multiple king","status":"extant","length_ft":80,"layer":"bridges"}},{"type":"Feature","geometry":{"type":"Point","coordinates":[-83.97694,38.48111]},"properties":{"id":"johnson-creek","name":"Johnson Creek Covered Bridge","title":"Johnson Creek Covered Bridge","city":"Mount Olivet","county":"Robertson","history":"Robertson County Smith-truss covered bridge near Mount Olivet, built 1874 over Blue Lick Springs / Johnson Creek.","description":"Robertson County Smith-truss covered bridge near Mount Olivet, built 1874 over Blue Lick Springs / Johnson Creek.","website":"https://en.wikipedia.org/wiki/List_of_covered_bridges_in_Kentucky","built_year":1874,"yearStart":1874,"yearEnd":1874,"crosses":"Blue Lick Springs","truss":"Smith","status":"extant","length_ft":110,"layer":"bridges"}},{"type":"Feature","geometry":{"type":"Point","coordinates":[-83.87889,38.74972]},"properties":{"id":"lees-creek","name":"Lee's Creek Covered Bridge","title":"Lee's Creek Covered Bridge","city":"Dover","county":"Mason","history":"Also called Dover Covered Bridge. One of Kentucky's oldest surviving covered bridges (1835), queenpost over Lee's Creek at Dover.","description":"Also called Dover Covered Bridge. One of Kentucky's oldest surviving covered bridges (1835), queenpost over Lee's Creek at Dover.","website":"https://en.wikipedia.org/wiki/List_of_covered_bridges_in_Kentucky","built_year":1835,"yearStart":1835,"yearEnd":1835,"crosses":"Lee's Creek","truss":"Queen","status":"extant","length_ft":60,"layer":"bridges"}},{"type":"Feature","geometry":{"type":"Point","coordinates":[-82.895,38.43139]},"properties":{"id":"oldtown","name":"Oldtown Covered Bridge","title":"Oldtown Covered Bridge","city":"Oldtown","county":"Greenup","history":"Long Greenup County covered bridge at Oldtown; mid-19th century origins with major restoration in 1999.","description":"Long Greenup County covered bridge at Oldtown; mid-19th century origins with major restoration in 1999.","website":"https://en.wikipedia.org/wiki/List_of_covered_bridges_in_Kentucky","built_year":1850,"yearStart":1850,"yearEnd":1850,"crosses":"Frazer Branch / Little Sandy Creek","truss":"Warren or Multiple king","status":"extant","length_ft":190,"layer":"bridges"}},{"type":"Feature","geometry":{"type":"Point","coordinates":[-83.61056,38.26833]},"properties":{"id":"ringos-mill","name":"Ringos Mill Covered Bridge","title":"Ringos Mill Covered Bridge","city":"Flemingsburg","county":"Fleming","history":"Fleming County covered bridge on Fox Creek near Flemingsburg, multiple kingpost, built 1867.","description":"Fleming County covered bridge on Fox Creek near Flemingsburg, multiple kingpost, built 1867.","website":"https://en.wikipedia.org/wiki/List_of_covered_bridges_in_Kentucky","built_year":1867,"yearStart":1867,"yearEnd":1867,"crosses":"Fox Creek","truss":"Multiple king","status":"extant","length_ft":86,"layer":"bridges"}},{"type":"Feature","geometry":{"type":"Point","coordinates":[-84.75222,38.25389]},"properties":{"id":"switzer","name":"Switzer Covered Bridge","title":"Switzer Covered Bridge","city":"Switzer","county":"Franklin","history":"Franklin County's Howe-truss covered bridge at Switzer (c. 1855), restored 1998. Closest historic covered bridge to Frankfort / Shelby drives.","description":"Franklin County's Howe-truss covered bridge at Switzer (c. 1855), restored 1998. Closest historic covered bridge to Frankfort / Shelby drives.","website":"https://en.wikipedia.org/wiki/Switzer_Covered_Bridge","built_year":1855,"yearStart":1855,"yearEnd":1855,"crosses":"North Fork Elkhorn Creek","truss":"Howe","status":"extant","length_ft":120,"layer":"bridges"}},{"type":"Feature","geometry":{"type":"Point","coordinates":[-84.10056,38.73333]},"properties":{"id":"walcott","name":"Walcott Covered Bridge","title":"Walcott Covered Bridge","city":"Brooksville","county":"Bracken","history":"Privately owned Bracken County covered bridge over Locust Creek near Brooksville; rebuilt 2001 after earlier damage.","description":"Privately owned Bracken County covered bridge over Locust Creek near Brooksville; rebuilt 2001 after earlier damage.","website":"https://en.wikipedia.org/wiki/List_of_covered_bridges_in_Kentucky","built_year":1880,"yearStart":1880,"yearEnd":1880,"crosses":"Locust Creek","truss":"Queen and multiple king","status":"extant","length_ft":76,"layer":"bridges"}}]}