{"type": "FeatureCollection", "features": [{"type": "Feature", "geometry": {"type": "Point", "coordinates": [-86.1012763, 37.1870238]}, "properties": {"id": "mammoth-cave", "name": "Mammoth Cave National Park", "county": "Edmonson", "category": "Public cave", "description": "Mammoth Cave is the longest known cave system in the world; the National Park Service reports 426 miles surveyed. The park lies mainly in Edmonson County, with small areas in Hart and Barren counties. Saltpeter was mined here for gunpowder during the War of 1812, and Salts Cave inside the park was mined by Indigenous people. The pin marks the NPS visitor center, where cave tours start.", "sourcesMarkdown": "- [NPS: Mammoth Cave statistics](https://www.nps.gov/maca/learn/management/statistics.htm)\n- [Wikipedia: Mammoth Cave National Park](https://en.wikipedia.org/wiki/Mammoth_Cave_National_Park)\n- [Story: Mammoth Cave saltpeter](https://kyhistorydrive.com/#stories/mammoth-cave-saltpeter)\n- [Story: Salts Cave (15Ht4)](https://kyhistorydrive.com/#stories/salts-cave-15ht4)", "website": "https://www.nps.gov/maca/", "photo": {"image_url": "/content/photos/caves/mammoth-cave.jpg", "title": "Rotunda, Mammoth Cave", "source_url": "https://commons.wikimedia.org/wiki/File:Mammoth_Cave_Rotunda_(USGS_Lwt02830).jpg", "attribution": "Willis Thomas Lee \u00b7 Wikimedia Commons \u00b7 Public domain"}}}, {"type": "Feature", "geometry": {"type": "Point", "coordinates": [-86.07888889, 37.21861111]}, "properties": {"id": "great-onyx-cave", "name": "Great Onyx Cave", "county": "Edmonson", "category": "Public cave", "description": "Great Onyx Cave is inside Mammoth Cave National Park. The National Park Service offers a lantern tour of the cave.", "sourcesMarkdown": "- [Wikipedia: Great Onyx Cave](https://en.wikipedia.org/wiki/Great_Onyx_Cave)", "website": "https://www.nps.gov/maca/planyourvisit/great-onyx-lantern-tour.htm", "photo": {"image_url": "/content/photos/caves/great-onyx-cave.jpg", "title": "Great Onyx Cave", "source_url": "https://commons.wikimedia.org/wiki/File:Great_Onyx_Cave_Kentucky.jpg", "attribution": "United States Geological Survey \u00b7 Wikimedia Commons \u00b7 Public domain"}}}, {"type": "Feature", "geometry": {"type": "Point", "coordinates": [-85.9057251, 37.1792847]}, "properties": {"id": "hidden-river-cave", "name": "Hidden River Cave", "county": "Hart", "category": "Public cave", "description": "Hidden River Cave lies under the town of Horse Cave. It has underground rivers and the remains of an old hydroelectric plant, and is home to the American Cave Museum. Address: 119 East Main Street, Horse Cave.", "sourcesMarkdown": "- [Story: Hidden River Cave](https://kyhistorydrive.com/#stories/hidden-river-cave-under-horse-cave)", "website": "https://hiddenrivercave.com/", "photo": {"image_url": "/content/photos/caves/hidden-river-cave.jpg", "title": "Hidden River Cave entrance", "source_url": "https://commons.wikimedia.org/wiki/File:Hidden_River_Cave_entrance_2025e.jpg", "attribution": "Antony-22 \u00b7 Wikimedia Commons \u00b7 CC0"}}}, {"type": "Feature", "geometry": {"type": "Point", "coordinates": [-86.0619199, 37.1162627]}, "properties": {"id": "diamond-caverns", "name": "Diamond Caverns", "county": "Barren", "category": "Public cave", "description": "Diamond Caverns in Park City was discovered on July 14, 1859, and is a show cave open for tours. Address: 1900 Mammoth Cave Parkway, Park City.", "sourcesMarkdown": "- [Wikipedia: Diamond Caverns](https://en.wikipedia.org/wiki/Diamond_Caverns)\n- [Story: Diamond Caverns](https://kyhistorydrive.com/#stories/diamond-caverns-decorated-limestone)", "website": "https://www.diamondcaverns.com/", "photo": {"image_url": "/content/photos/caves/diamond-caverns.jpg", "title": "Travertine drapery, Diamond Caverns", "source_url": "https://commons.wikimedia.org/wiki/File:Travertine_drapery_(Diamond_Caverns,_Kentucky,_USA)_5.jpg", "attribution": "James St. John \u00b7 Wikimedia Commons \u00b7 CC BY 2.0"}}}, {"type": "Feature", "geometry": {"type": "Point", "coordinates": [-85.9816774, 37.1366442]}, "properties": {"id": "onyx-cave", "name": "Onyx Cave", "county": "Barren", "category": "Public cave", "description": "Onyx Cave in Cave City is a show cave offering 30-minute tours, known for its cave coral. Address: 93 Huckleberry Knob Road, Cave City.", "sourcesMarkdown": "", "website": "https://onyxcave.com/", "photo": {"image_url": "/content/photos/caves/onyx-cave.jpg", "title": "Flowstone, Onyx Cave", "source_url": "https://commons.wikimedia.org/wiki/File:Flowstone_(Onyx_Cave,_Cave_City,_Kentucky,_USA)_2.jpg", "attribution": "James St. John \u00b7 Wikimedia Commons \u00b7 CC BY 2.0"}}}, {"type": "Feature", "geometry": {"type": "Point", "coordinates": [-86.4740312, 36.9532338]}, "properties": {"id": "lost-river-cave", "name": "Lost River Cave", "county": "Warren", "category": "Public cave", "description": "Lost River Cave in Bowling Green is a seven-mile cave system with one of the largest natural entrances in the eastern United States. Boat tours run year-round. Address: 2818 Nashville Road, Bowling Green.", "sourcesMarkdown": "- [Wikipedia: Lost River Cave](https://en.wikipedia.org/wiki/Lost_River_Cave)\n- [Story: Lost River Cave](https://kyhistorydrive.com/#stories/lost-river-cave)", "website": "https://www.lostrivercave.org/", "photo": {"image_url": "/content/photos/caves/lost-river-cave.jpg", "title": "Lost River Cave entrance", "source_url": "https://commons.wikimedia.org/wiki/File:Lost_River_Cave_entrance.jpg", "attribution": "Nyttend \u00b7 Wikimedia Commons \u00b7 Public domain"}}}, {"type": "Feature", "geometry": {"type": "Point", "coordinates": [-83.1252, 38.371422]}, "properties": {"id": "carter-caves", "name": "Carter Caves State Resort Park", "county": "Carter", "category": "Public cave", "description": "Carter Caves State Resort Park along Tygarts Creek offers guided cave tours. Its caves include Saltpeter Cave (NRHP 2001, mined for niter by the early 1800s) and Cascade Caverns. Bat Cave and Cascade Caverns have been state nature preserves since 1981; Bat Cave protects wintering Indiana bats (about 28,000). The pin marks the park, not a cave entrance.", "sourcesMarkdown": "- [Wikipedia: Carter Caves State Resort Park](https://en.wikipedia.org/wiki/Carter_Caves_State_Resort_Park)\n- [Wikipedia: Bat Cave and Cascade Caverns preserves](https://en.wikipedia.org/wiki/Bat_Cave_and_Cascade_Caverns_State_Nature_Preserves)\n- [Story: Saltpeter Cave at Carter Caves](https://kyhistorydrive.com/#stories/saltpeter-cave-at-carter-caves)\n- [Story: Carter Caves / Cascade Falls](https://kyhistorydrive.com/#stories/carter-caves-cascade-falls)", "website": "https://parks.ky.gov/", "photo": {"image_url": "/content/photos/caves/carter-caves.jpg", "title": "Carter Caves visitor center", "source_url": "https://commons.wikimedia.org/wiki/File:Carter_Caves_Visitor_Center.JPG", "attribution": "C. Bedford Crenshaw \u00b7 Wikimedia Commons \u00b7 Attribution"}}}, {"type": "Feature", "geometry": {"type": "Point", "coordinates": [-84.2036474, 37.3677334]}, "properties": {"id": "great-saltpetre-cave", "name": "Great Saltpetre Cave", "county": "Rockcastle", "category": "Public cave", "description": "Great Saltpetre Cave was an important source of saltpeter for gunpowder during the War of 1812. It was listed on the National Register of Historic Places in 2013 and lies within the Daniel Boone National Forest.", "sourcesMarkdown": "- [Wikipedia: Great Saltpetre Cave](https://en.wikipedia.org/wiki/Great_Saltpetre_Cave)\n- [Story: Great Saltpetre Cave](https://kyhistorydrive.com/#stories/great-saltpetre-cave)", "website": "https://rockcastlecountyky.com/great-saltpetre-cave/", "photo": {"image_url": "/content/photos/caves/great-saltpetre-cave.jpg", "title": "Great Saltpetre Cave entrance", "source_url": "https://commons.wikimedia.org/wiki/File:Great_Saltpetre_Cave,_entrance.jpg", "attribution": "Grorp \u00b7 Wikimedia Commons \u00b7 CC0"}}}, {"type": "Feature", "geometry": {"type": "Point", "coordinates": [-85.92479, 37.03703]}, "properties": {"id": "county-barren", "name": "Barren County caves", "county": "Barren", "category": "County (caves documented)", "kind": "county", "description": "Caves are documented in Barren County. This marker sits at the county centre and is not a cave location. Exact cave locations are protected and held by the Kentucky Speleological Survey (KSS); researchers can request access through the KSS Data Request Form.", "sourcesMarkdown": "- [KSS Data Request Form](https://kss.caves.org/database-request/)\n- [Source: caves in Barren County](https://en.wikipedia.org/wiki/Diamond_Caverns)", "website": null}}, {"type": "Feature", "geometry": {"type": "Point", "coordinates": [-82.99096, 38.31235]}, "properties": {"id": "county-carter", "name": "Carter County caves", "county": "Carter", "category": "County (caves documented)", "kind": "county", "description": "Caves are documented in Carter County. This marker sits at the county centre and is not a cave location. Exact cave locations are protected and held by the Kentucky Speleological Survey (KSS); researchers can request access through the KSS Data Request Form.", "sourcesMarkdown": "- [KSS Data Request Form](https://kss.caves.org/database-request/)\n- [Source: caves in Carter County](https://en.wikipedia.org/wiki/Carter_Caves_State_Resort_Park)", "website": null}}, {"type": "Feature", "geometry": {"type": "Point", "coordinates": [-87.51327, 36.84766]}, "properties": {"id": "county-christian", "name": "Christian County caves", "county": "Christian", "category": "County (caves documented)", "kind": "county", "description": "Caves are documented in Christian County. This marker sits at the county centre and is not a cave location. Exact cave locations are protected and held by the Kentucky Speleological Survey (KSS); researchers can request access through the KSS Data Request Form.", "sourcesMarkdown": "- [KSS Data Request Form](https://kss.caves.org/database-request/)\n- [Source: caves in Christian County](https://en.wikipedia.org/wiki/Glover%27s_Cave)", "website": null}}, {"type": "Feature", "geometry": {"type": "Point", "coordinates": [-86.22311, 37.20972]}, "properties": {"id": "county-edmonson", "name": "Edmonson County caves", "county": "Edmonson", "category": "County (caves documented)", "kind": "county", "description": "Caves are documented in Edmonson County. This marker sits at the county centre and is not a cave location. Exact cave locations are protected and held by the Kentucky Speleological Survey (KSS); researchers can request access through the KSS Data Request Form.", "sourcesMarkdown": "- [KSS Data Request Form](https://kss.caves.org/database-request/)\n- [Source: caves in Edmonson County](https://en.wikipedia.org/wiki/Mammoth_Cave_National_Park)", "website": null}}, {"type": "Feature", "geometry": {"type": "Point", "coordinates": [-85.86115, 37.28719]}, "properties": {"id": "county-hart", "name": "Hart County caves", "county": "Hart", "category": "County (caves documented)", "kind": "county", "description": "Caves are documented in Hart County. This marker sits at the county centre and is not a cave location. Exact cave locations are protected and held by the Kentucky Speleological Survey (KSS); researchers can request access through the KSS Data Request Form.", "sourcesMarkdown": "- [KSS Data Request Form](https://kss.caves.org/database-request/)\n- [Source: caves in Hart County](https://en.wikipedia.org/wiki/Fisher_Ridge_Cave_System)", "website": null}}, {"type": "Feature", "geometry": {"type": "Point", "coordinates": [-83.96762, 37.41171]}, "properties": {"id": "county-jackson", "name": "Jackson County caves", "county": "Jackson", "category": "County (caves documented)", "kind": "county", "description": "Caves are documented in Jackson County. This marker sits at the county centre and is not a cave location. Exact cave locations are protected and held by the Kentucky Speleological Survey (KSS); researchers can request access through the KSS Data Request Form.", "sourcesMarkdown": "- [KSS Data Request Form](https://kss.caves.org/database-request/)\n- [Source: caves in Jackson County](https://www.uky.edu/KGS/news/speleologist-discover-5000th-cave.php)", "website": null}}, {"type": "Feature", "geometry": {"type": "Point", "coordinates": [-85.72027, 38.23133]}, "properties": {"id": "county-jefferson", "name": "Jefferson County caves", "county": "Jefferson", "category": "County (caves documented)", "kind": "county", "description": "Caves are documented in Jefferson County. This marker sits at the county centre and is not a cave location. Exact cave locations are protected and held by the Kentucky Speleological Survey (KSS); researchers can request access through the KSS Data Request Form.", "sourcesMarkdown": "- [KSS Data Request Form](https://kss.caves.org/database-request/)\n- [Source: caves in Jefferson County](https://en.wikipedia.org/wiki/Eleven_Jones_Cave)", "website": null}}, {"type": "Feature", "geometry": {"type": "Point", "coordinates": [-84.29722, 37.34733]}, "properties": {"id": "county-rockcastle", "name": "Rockcastle County caves", "county": "Rockcastle", "category": "County (caves documented)", "kind": "county", "description": "Caves are documented in Rockcastle County. This marker sits at the county centre and is not a cave location. Exact cave locations are protected and held by the Kentucky Speleological Survey (KSS); researchers can request access through the KSS Data Request Form.", "sourcesMarkdown": "- [KSS Data Request Form](https://kss.caves.org/database-request/)\n- [Source: caves in Rockcastle County](https://en.wikipedia.org/wiki/Goochland_Cave)", "website": null}}, {"type": "Feature", "geometry": {"type": "Point", "coordinates": [-87.19183, 36.76007]}, "properties": {"id": "county-todd", "name": "Todd County caves", "county": "Todd", "category": "County (caves documented)", "kind": "county", "description": "Caves are documented in Todd County. This marker sits at the county centre and is not a cave location. Exact cave locations are protected and held by the Kentucky Speleological Survey (KSS); researchers can request access through the KSS Data Request Form.", "sourcesMarkdown": "- [KSS Data Request Form](https://kss.caves.org/database-request/)\n- [Source: caves in Todd County](https://en.wikipedia.org/wiki/Glover%27s_Cave)", "website": null}}, {"type": "Feature", "geometry": {"type": "Point", "coordinates": [-86.44073, 36.9849]}, "properties": {"id": "county-warren", "name": "Warren County caves", "county": "Warren", "category": "County (caves documented)", "kind": "county", "description": "Caves are documented in Warren County. This marker sits at the county centre and is not a cave location. Exact cave locations are protected and held by the Kentucky Speleological Survey (KSS); researchers can request access through the KSS Data Request Form.", "sourcesMarkdown": "- [KSS Data Request Form](https://kss.caves.org/database-request/)\n- [Source: caves in Warren County](https://en.wikipedia.org/wiki/Lost_River_Cave)", "website": null}}]}