{"type":"FeatureCollection","features":[{"type":"Feature","geometry":{"type":"Point","coordinates":[-85.9236779,36.9978752]},"properties":{"id":"glasgow-cemetery","name":"Glasgow Municipal Cemetery","title":"Glasgow Municipal Cemetery","city":"Glasgow","county":"Barren","history":"Municipal cemetery in Glasgow holding the grave of Confederate Brig. Gen. Joseph H. Lewis, commander of the First Kentucky (Orphan) Brigade. Lewis later served in Congress and as chief justice of the Kentucky Court of Appeals.","description":"Municipal cemetery in Glasgow holding the grave of Confederate Brig. Gen. Joseph H. Lewis, commander of the First Kentucky (Orphan) Brigade. Lewis later served in Congress and as chief justice of the Kentucky Court of Appeals.","website":"https://en.wikipedia.org/wiki/Joseph_H._Lewis","cemetery_type":"municipal","layer":"cemeteries"}},{"type":"Feature","geometry":{"type":"Point","coordinates":[-84.26527778,38.2025]},"properties":{"id":"paris-cemetery","name":"Paris Cemetery","title":"Paris Cemetery","city":"Paris","county":"Bourbon","history":"Incorporated in 1847 and NRHP-listed, Paris Cemetery is Bourbon County's principal historic burial ground with a notable gatehouse. It holds Bluegrass civic leaders and Civil War-era burials along South Main Street.","description":"Incorporated in 1847 and NRHP-listed, Paris Cemetery is Bourbon County's principal historic burial ground with a notable gatehouse. It holds Bluegrass civic leaders and Civil War-era burials along South Main Street.","website":"https://en.wikipedia.org/wiki/Paris_Cemetery","established_year":1847,"yearStart":1847,"yearEnd":1847,"cemetery_type":"municipal","nrhp":true,"layer":"cemeteries"}},{"type":"Feature","geometry":{"type":"Point","coordinates":[-84.7687828,37.6518867]},"properties":{"id":"bellevue-cemetery-danville","name":"Bellevue Cemetery","title":"Bellevue Cemetery","city":"Danville","county":"Boyle","history":"Historic Danville cemetery adjacent to Danville National Cemetery. It holds Boyle County civic leaders and is part of the town's nineteenth-century burial landscape near Centre College.","description":"Historic Danville cemetery adjacent to Danville National Cemetery. It holds Boyle County civic leaders and is part of the town's nineteenth-century burial landscape near Centre College.","website":"https://en.wikipedia.org/wiki/List_of_cemeteries_in_Kentucky","established_year":1848,"yearStart":1848,"yearEnd":1848,"cemetery_type":"municipal","layer":"cemeteries"}},{"type":"Feature","geometry":{"type":"Point","coordinates":[-84.77055556,37.65277778]},"properties":{"id":"danville-national-cemetery","name":"Danville National Cemetery","title":"Danville National Cemetery","city":"Danville","county":"Boyle","history":"Small Civil War national cemetery in Danville for Union soldiers who died in local hospitals. Administered by the VA and listed on the National Register, it is one of Kentucky's seven national cemeteries.","description":"Small Civil War national cemetery in Danville for Union soldiers who died in local hospitals. Administered by the VA and listed on the National Register, it is one of Kentucky's seven national cemeteries.","website":"https://www.cem.va.gov/cems/nchp/danville.asp","established_year":1862,"yearStart":1862,"yearEnd":1862,"cemetery_type":"national","nrhp":true,"layer":"cemeteries"}},{"type":"Feature","geometry":{"type":"Point","coordinates":[-85.5989833,37.9183]},"properties":{"id":"mystery-cemetery-bullitt","name":"Mystery Cemetery","title":"Mystery Cemetery","city":"Shepherdsville","county":"Bullitt","history":"Small historic cemetery interpreted by a Kentucky Historical Society marker as the Mystery Cemetery, reflecting local research into poorly documented pioneer burials in Bullitt County. It is a visitor stop on the Shepherdsville heritage route.","description":"Small historic cemetery interpreted by a Kentucky Historical Society marker as the Mystery Cemetery, reflecting local research into poorly documented pioneer burials in Bullitt County. It is a visitor stop on the Shepherdsville heritage route.","website":"https://history.ky.gov/markers/mystery-cemetery","cemetery_type":"other","layer":"cemeteries"}},{"type":"Feature","geometry":{"type":"Point","coordinates":[-84.4739127,39.0659949]},"properties":{"id":"evergreen-cemetery-southgate","name":"Evergreen Cemetery","title":"Evergreen Cemetery","city":"Southgate","county":"Campbell","history":"Major Northern Kentucky municipal cemetery serving Newport and Campbell County since the mid-nineteenth century. It is a well-known local historic landscape with Civil War and civic burials overlooking the Ohio River corridor.","description":"Major Northern Kentucky municipal cemetery serving Newport and Campbell County since the mid-nineteenth century. It is a well-known local historic landscape with Civil War and civic burials overlooking the Ohio River corridor.","website":"https://www.evergreen-cemetery.com/","established_year":1850,"yearStart":1850,"yearEnd":1850,"cemetery_type":"municipal","layer":"cemeteries"}},{"type":"Feature","geometry":{"type":"Point","coordinates":[-84.1693,37.9911]},"properties":{"id":"east-broadway-cemetery","name":"East Broadway Cemetery","title":"East Broadway Cemetery","city":"Winchester","county":"Clark","history":"Public burial ground purchased by Winchester trustees in 1833 during the first cholera epidemic in the United States to reach the town. Seventy-five cholera victims were buried here that year, including trustee John Ward and his wife.","description":"Public burial ground purchased by Winchester trustees in 1833 during the first cholera epidemic in the United States to reach the town. Seventy-five cholera victims were buried here that year, including trustee John Ward and his wife.","website":"https://history.ky.gov/markers/east-broadway-cemetery","established_year":1833,"yearStart":1833,"yearEnd":1833,"cemetery_type":"municipal","layer":"cemeteries"}},{"type":"Feature","geometry":{"type":"Point","coordinates":[-86.9545387,37.8392377]},"properties":{"id":"hawes-family-cemetery","name":"Hawes Family Cemetery","title":"Hawes Family Cemetery","city":"Yelvington","county":"Daviess","history":"Family cemetery of Richard and Clary Walker Hawes, who settled here from Virginia in 1810. Their son Richard Hawes became Confederate governor of Kentucky; Clary later operated the Hawesville-Cannelton ferry.","description":"Family cemetery of Richard and Clary Walker Hawes, who settled here from Virginia in 1810. Their son Richard Hawes became Confederate governor of Kentucky; Clary later operated the Hawesville-Cannelton ferry.","website":"https://history.ky.gov/markers/hawes-family-cemetery","established_year":1810,"yearStart":1810,"yearEnd":1810,"cemetery_type":"family","layer":"cemeteries"}},{"type":"Feature","geometry":{"type":"Point","coordinates":[-86.1014,37.1875]},"properties":{"id":"good-spring-baptist-cemetery","name":"Good Spring Baptist Church and Cemetery","title":"Good Spring Baptist Church and Cemetery","city":"Mammoth Cave","county":"Edmonson","history":"NRHP-listed church and cemetery within Mammoth Cave National Park, representing nineteenth-century cave-country Baptist congregations. Visitors reach the quiet historic site on park roads near the Green River.","description":"NRHP-listed church and cemetery within Mammoth Cave National Park, representing nineteenth-century cave-country Baptist congregations. Visitors reach the quiet historic site on park roads near the Green River.","website":"https://www.nps.gov/maca/","established_year":1842,"yearStart":1842,"yearEnd":1842,"cemetery_type":"church","nrhp":true,"layer":"cemeteries"}},{"type":"Feature","geometry":{"type":"Point","coordinates":[-86.1231,37.1828]},"properties":{"id":"joppa-baptist-cemetery","name":"Joppa Baptist Church and Cemetery","title":"Joppa Baptist Church and Cemetery","city":"Mammoth Cave","county":"Edmonson","history":"Third of the NRHP-listed Baptist church-and-cemetery complexes preserved in Mammoth Cave National Park. Together with Good Spring and Mammoth Cave Baptist, it documents rural congregations of the cave region.","description":"Third of the NRHP-listed Baptist church-and-cemetery complexes preserved in Mammoth Cave National Park. Together with Good Spring and Mammoth Cave Baptist, it documents rural congregations of the cave region.","website":"https://www.nps.gov/maca/","established_year":1860,"yearStart":1860,"yearEnd":1860,"cemetery_type":"church","nrhp":true,"layer":"cemeteries"}},{"type":"Feature","geometry":{"type":"Point","coordinates":[-86.0738283,37.1979062]},"properties":{"id":"mammoth-cave-baptist-cemetery","name":"Mammoth Cave Baptist Church and Cemetery","title":"Mammoth Cave Baptist Church and Cemetery","city":"Mammoth Cave","county":"Edmonson","history":"Historic Baptist church and cemetery inside Mammoth Cave National Park, NRHP-listed with other park churchyards. It preserves the religious and burial landscape of the cave-country communities that predated the national park.","description":"Historic Baptist church and cemetery inside Mammoth Cave National Park, NRHP-listed with other park churchyards. It preserves the religious and burial landscape of the cave-country communities that predated the national park.","website":"https://www.nps.gov/maca/","established_year":1827,"yearStart":1827,"yearEnd":1827,"cemetery_type":"church","nrhp":true,"layer":"cemeteries"}},{"type":"Feature","geometry":{"type":"Point","coordinates":[-84.4779548,38.0504239]},"properties":{"id":"african-cemetery-no-2","name":"African Cemetery No. 2","title":"African Cemetery No. 2","city":"Lexington","county":"Fayette","history":"Lexington's earliest recorded cemetery organized, owned, and managed by African Americans, founded by the Union Benevolent Society No. 2 in 1869. Leaders of Black fraternal, educational, and racing communities—and U.S. Colored Troops veterans—are buried here.","description":"Lexington's earliest recorded cemetery organized, owned, and managed by African Americans, founded by the Union Benevolent Society No. 2 in 1869. Leaders of Black fraternal, educational, and racing communities—and U.S. Colored Troops veterans—are buried here.","website":"https://africancemeteryno2.org/","established_year":1869,"yearStart":1869,"yearEnd":1869,"cemetery_type":"other","nrhp":true,"layer":"cemeteries"}},{"type":"Feature","geometry":{"type":"Point","coordinates":[-84.4897,38.0472]},"properties":{"id":"episcopal-burying-ground-lexington","name":"Episcopal Burying Ground and Chapel","title":"Episcopal Burying Ground and Chapel","city":"Lexington","county":"Fayette","history":"Early Lexington Episcopal cemetery and Gothic chapel listed on the National Register. It is among the city's oldest surviving church burial grounds from the antebellum period; constitutional leader George Nicholas is associated with this historic burying ground.","description":"Early Lexington Episcopal cemetery and Gothic chapel listed on the National Register. It is among the city's oldest surviving church burial grounds from the antebellum period; constitutional leader George Nicholas is associated with this historic burying ground.","website":"https://en.wikipedia.org/wiki/Episcopal_Burying_Ground_and_Chapel","established_year":1832,"yearStart":1832,"yearEnd":1832,"cemetery_type":"church","nrhp":true,"layer":"cemeteries"}},{"type":"Feature","geometry":{"type":"Point","coordinates":[-84.5084333,38.0559833]},"properties":{"id":"lexington-cemetery","name":"Lexington Cemetery","title":"Lexington Cemetery","city":"Lexington","county":"Fayette","history":"Incorporated in 1849 as a naturalistic landscape park and arboretum, and NRHP-listed with the Henry Clay Monument. Notable Bluegrass burials include Henry Clay, Vice President John C. Breckinridge, Confederate cavalryman John Hunt Morgan, and author James Lane Allen.","description":"Incorporated in 1849 as a naturalistic landscape park and arboretum, and NRHP-listed with the Henry Clay Monument. Notable Bluegrass burials include Henry Clay, Vice President John C. Breckinridge, Confederate cavalryman John Hunt Morgan, and author James Lane Allen.","website":"https://www.lexcem.org/","established_year":1849,"yearStart":1849,"yearEnd":1849,"cemetery_type":"municipal","nrhp":"76000873","layer":"cemeteries"}},{"type":"Feature","geometry":{"type":"Point","coordinates":[-84.51111111,38.05777778]},"properties":{"id":"lexington-national-cemetery","name":"Lexington National Cemetery","title":"Lexington National Cemetery","city":"Lexington","county":"Fayette","history":"Civil War national cemetery established in 1861 within Lexington Cemetery grounds for Union dead. It remains a VA-administered national cemetery and a quiet companion to the larger Victorian landscape park.","description":"Civil War national cemetery established in 1861 within Lexington Cemetery grounds for Union dead. It remains a VA-administered national cemetery and a quiet companion to the larger Victorian landscape park.","website":"https://www.cem.va.gov/cems/nchp/lexington.asp","established_year":1861,"yearStart":1861,"yearEnd":1861,"cemetery_type":"national","nrhp":true,"layer":"cemeteries"}},{"type":"Feature","geometry":{"type":"Point","coordinates":[-83.8268167,38.4157833]},"properties":{"id":"elizaville-cemetery","name":"Elizaville Cemetery","title":"Elizaville Cemetery","city":"Elizaville","county":"Fleming","history":"Fleming County cemetery interpreted by KHS markers for World War II Marine hero Pfc. Franklin Sousley, one of the Iwo Jima flag raisers, who was later reinterred in Fleming County. It is a well-known eastern Kentucky memorial landscape.","description":"Fleming County cemetery interpreted by KHS markers for World War II Marine hero Pfc. Franklin Sousley, one of the Iwo Jima flag raisers, who was later reinterred in Fleming County. It is a well-known eastern Kentucky memorial landscape.","website":"https://en.wikipedia.org/wiki/Franklin_Sousley","cemetery_type":"municipal","layer":"cemeteries"}},{"type":"Feature","geometry":{"type":"Point","coordinates":[-84.867167,38.197833]},"properties":{"id":"frankfort-cemetery","name":"Frankfort Cemetery","title":"Frankfort Cemetery","city":"Frankfort","county":"Franklin","history":"Hilltop rural cemetery overlooking the capital, incorporated in 1844 and NRHP-listed (74000872). Daniel and Rebecca Boone were reinterred here in 1845; nineteen Kentucky governors including William Goebel, Vice President Richard Mentor Johnson, and Marine hero Presley O'Bannon also rest on the bluff.","description":"Hilltop rural cemetery overlooking the capital, incorporated in 1844 and NRHP-listed (74000872). Daniel and Rebecca Boone were reinterred here in 1845; nineteen Kentucky governors including William Goebel, Vice President Richard Mentor Johnson, and Marine hero Presley O'Bannon also rest on the bluff.","website":"https://www.frankfortcemetery.org/","established_year":1844,"yearStart":1844,"yearEnd":1844,"cemetery_type":"municipal","nrhp":"74000872","layer":"cemeteries"}},{"type":"Feature","geometry":{"type":"Point","coordinates":[-84.8632833,38.1935167]},"properties":{"id":"frankfort-state-hospital-cemetery","name":"Frankfort State Hospital and School Cemetery","title":"Frankfort State Hospital and School Cemetery","city":"Frankfort","county":"Franklin","history":"Burial ground associated with the Kentucky Institution for the Education and Training of Feeble-Minded Children (later Frankfort State Hospital and School). It documents institutionalized care and the anonymous dead of Kentucky's long-running state school hospital.","description":"Burial ground associated with the Kentucky Institution for the Education and Training of Feeble-Minded Children (later Frankfort State Hospital and School). It documents institutionalized care and the anonymous dead of Kentucky's long-running state school hospital.","website":"https://history.ky.gov/markers/frankfort-state-hospital-and-school-cemetery","established_year":1860,"yearStart":1860,"yearEnd":1860,"cemetery_type":"other","layer":"cemeteries"}},{"type":"Feature","geometry":{"type":"Point","coordinates":[-84.83875,38.2052167]},"properties":{"id":"greenhill-cemetery-frankfort","name":"Greenhill Cemetery","title":"Greenhill Cemetery","city":"Frankfort","county":"Franklin","history":"Historic African American cemetery in Frankfort's Green Hill community, established after the Civil War. It holds the Kentucky African American Civil War Memorial (1924), the state's only monument honoring nearly 25,000 Kentuckians who served in the U.S. Colored Troops.","description":"Historic African American cemetery in Frankfort's Green Hill community, established after the Civil War. It holds the Kentucky African American Civil War Memorial (1924), the state's only monument honoring nearly 25,000 Kentuckians who served in the U.S. Colored Troops.","website":"https://history.ky.gov/markers/ky-african-american-civil-war-memorial","established_year":1865,"yearStart":1865,"yearEnd":1865,"cemetery_type":"other","layer":"cemeteries"}},{"type":"Feature","geometry":{"type":"Point","coordinates":[-84.5884212,37.6152353]},"properties":{"id":"lancaster-cemetery","name":"Lancaster Cemetery","title":"Lancaster Cemetery","city":"Lancaster","county":"Garrard","history":"NRHP-listed municipal cemetery in Lancaster with significant nineteenth-century funerary architecture and Civil War-era burials. It is Garrard County's principal historic burial ground.","description":"NRHP-listed municipal cemetery in Lancaster with significant nineteenth-century funerary architecture and Civil War-era burials. It is Garrard County's principal historic burial ground.","website":"https://en.wikipedia.org/wiki/List_of_cemeteries_in_Kentucky","established_year":1861,"yearStart":1861,"yearEnd":1861,"cemetery_type":"municipal","nrhp":true,"layer":"cemeteries"}},{"type":"Feature","geometry":{"type":"Point","coordinates":[-85.8733833,37.7081167]},"properties":{"id":"helm-cemetery","name":"Helm Cemetery","title":"Helm Cemetery","city":"Elizabethtown","county":"Hardin","history":"Pioneer family cemetery with the graves of Governor John LaRue Helm and his son, Confederate Gen. Ben Hardin Helm, killed at Chickamauga. Ben Hardin Helm married Emilie Todd, half-sister of Mary Todd Lincoln, linking the plot to both Confederate and Lincoln family history.","description":"Pioneer family cemetery with the graves of Governor John LaRue Helm and his son, Confederate Gen. Ben Hardin Helm, killed at Chickamauga. Ben Hardin Helm married Emilie Todd, half-sister of Mary Todd Lincoln, linking the plot to both Confederate and Lincoln family history.","website":"https://history.ky.gov/markers/helm-cemetery","cemetery_type":"family","layer":"cemeteries"}},{"type":"Feature","geometry":{"type":"Point","coordinates":[-84.2966667,38.39445]},"properties":{"id":"old-cemetery-cynthiana","name":"The Old Cemetery (Cynthiana)","title":"The Old Cemetery (Cynthiana)","city":"Cynthiana","county":"Harrison","history":"Only burial ground in Cynthiana from 1793 to 1868, on land deeded by town founder Robert Harrison. First mayor Samuel January and other early citizens are buried here; Harrison Academy once stood nearby.","description":"Only burial ground in Cynthiana from 1793 to 1868, on land deeded by town founder Robert Harrison. First mayor Samuel January and other early citizens are buried here; Harrison Academy once stood nearby.","website":"https://history.ky.gov/markers/the-old-cemetery","established_year":1793,"yearStart":1793,"yearEnd":1793,"cemetery_type":"municipal","layer":"cemeteries"}},{"type":"Feature","geometry":{"type":"Point","coordinates":[-87.5908,37.8257]},"properties":{"id":"fernwood-cemetery","name":"Fernwood Cemetery","title":"Fernwood Cemetery","city":"Henderson","county":"Henderson","history":"Established in 1849; graves of Governor Lazarus W. Powell and Governor John Y. Brown, among other noted Kentuckians. Powell began the state's first geological survey to develop mineral and agricultural resources.","description":"Established in 1849; graves of Governor Lazarus W. Powell and Governor John Y. Brown, among other noted Kentuckians. Powell began the state's first geological survey to develop mineral and agricultural resources.","website":"https://history.ky.gov/markers/fernwood-cemetery","established_year":1849,"yearStart":1849,"yearEnd":1849,"cemetery_type":"municipal","layer":"cemeteries"}},{"type":"Feature","geometry":{"type":"Point","coordinates":[-85.5206667,38.2688667]},"properties":{"id":"berrytown-cemetery","name":"Berrytown Cemetery","title":"Berrytown Cemetery","city":"Berrytown","county":"Jefferson","history":"Focal cemetery for the historic African American Berrytown community, which began when Alfred Berry purchased five acres in 1874. Purchased in 1890 by United Brothers of Friendship Lodge #83, which maintained the grounds and later built a lodge hall.","description":"Focal cemetery for the historic African American Berrytown community, which began when Alfred Berry purchased five acres in 1874. Purchased in 1890 by United Brothers of Friendship Lodge #83, which maintained the grounds and later built a lodge hall.","website":"https://history.ky.gov/markers/berrytown-cemetery","established_year":1890,"yearStart":1890,"yearEnd":1890,"cemetery_type":"other","layer":"cemeteries"}},{"type":"Feature","geometry":{"type":"Point","coordinates":[-85.7161,38.2456]},"properties":{"id":"cave-hill-cemetery","name":"Cave Hill Cemetery","title":"Cave Hill Cemetery","city":"Louisville","county":"Jefferson","history":"Louisville's premier Victorian garden cemetery and arboretum, chartered in 1848 and listed on the National Register in 1979. It holds the graves of Louisville founder George Rogers Clark, Muhammad Ali, and Colonel Harland Sanders, plus Union and Confederate Civil War burials including Cave Hill National Cemetery within its grounds.","description":"Louisville's premier Victorian garden cemetery and arboretum, chartered in 1848 and listed on the National Register in 1979. It holds the graves of Louisville founder George Rogers Clark, Muhammad Ali, and Colonel Harland Sanders, plus Union and Confederate Civil War burials including Cave Hill National Cemetery within its grounds.","website":"https://cavehillcemetery.com/","established_year":1848,"yearStart":1848,"yearEnd":1848,"cemetery_type":"municipal","nrhp":"79000999","layer":"cemeteries"}},{"type":"Feature","geometry":{"type":"Point","coordinates":[-85.7150154,38.244856]},"properties":{"id":"cave-hill-national-cemetery","name":"Cave Hill National Cemetery","title":"Cave Hill National Cemetery","city":"Louisville","county":"Jefferson","history":"Civil War-era national cemetery inside Cave Hill, with Union dead from Louisville hospitals and camps and later concentrated burials including USCT soldiers. Administered by the Department of Veterans Affairs and listed on the National Register with other Civil War national cemeteries.","description":"Civil War-era national cemetery inside Cave Hill, with Union dead from Louisville hospitals and camps and later concentrated burials including USCT soldiers. Administered by the Department of Veterans Affairs and listed on the National Register with other Civil War national cemeteries.","website":"https://www.cem.va.gov/cems/nchp/cavehill.asp","established_year":1861,"yearStart":1861,"yearEnd":1861,"cemetery_type":"national","nrhp":true,"layer":"cemeteries"}},{"type":"Feature","geometry":{"type":"Point","coordinates":[-85.7277259,38.2449846]},"properties":{"id":"eastern-cemetery-louisville","name":"Eastern Cemetery","title":"Eastern Cemetery","city":"Louisville","county":"Jefferson","history":"Fifteen acres incorporated in 1854 for the Methodist Episcopal Church; later home to Kentucky's first crematorium (1935). Abandoned after overburial scandals were exposed in 1989, it is a cautionary landmark of cemetery mismanagement beside Cave Hill.","description":"Fifteen acres incorporated in 1854 for the Methodist Episcopal Church; later home to Kentucky's first crematorium (1935). Abandoned after overburial scandals were exposed in 1989, it is a cautionary landmark of cemetery mismanagement beside Cave Hill.","website":"https://history.ky.gov/markers/history-of-eastern-cemetery","established_year":1854,"yearStart":1854,"yearEnd":1854,"cemetery_type":"municipal","layer":"cemeteries"}},{"type":"Feature","geometry":{"type":"Point","coordinates":[-85.6674,38.1851333]},"properties":{"id":"forest-home-cemetery","name":"Forest Home Cemetery","title":"Forest Home Cemetery","city":"Louisville","county":"Jefferson","history":"Evolved from an old slave burial ground and is the resting place of Eliza Curtis Hundley Tevis and other early settlers of the Petersburg community. Tevis was born enslaved, gained freedom in 1833, and with her husband Henry purchased land that anchored the free Black settlement.","description":"Evolved from an old slave burial ground and is the resting place of Eliza Curtis Hundley Tevis and other early settlers of the Petersburg community. Tevis was born enslaved, gained freedom in 1833, and with her husband Henry purchased land that anchored the free Black settlement.","website":"https://history.ky.gov/markers/forest-home-cemetery","cemetery_type":"other","layer":"cemeteries"}},{"type":"Feature","geometry":{"type":"Point","coordinates":[-85.4014,38.2375]},"properties":{"id":"long-run-baptist-cemetery","name":"Long Run Baptist Church and Cemetery","title":"Long Run Baptist Church and Cemetery","city":"Eastwood","county":"Jefferson","history":"Pioneer Baptist church and cemetery associated with early Jefferson County settlement and Long Run Massacre memory. The church-and-cemetery complex is listed on the National Register as a frontier religious landscape east of Louisville.","description":"Pioneer Baptist church and cemetery associated with early Jefferson County settlement and Long Run Massacre memory. The church-and-cemetery complex is listed on the National Register as a frontier religious landscape east of Louisville.","website":"https://en.wikipedia.org/wiki/Long_Run_Massacre","established_year":1797,"yearStart":1797,"yearEnd":1797,"cemetery_type":"church","nrhp":true,"layer":"cemeteries"}},{"type":"Feature","geometry":{"type":"Point","coordinates":[-85.72915,38.2229]},"properties":{"id":"louisville-cemetery","name":"Louisville Cemetery","title":"Louisville Cemetery","city":"Louisville","county":"Jefferson","history":"African American cemetery incorporated in 1886 by prominent Black citizens including Bishop W. H. Miles. Burials include Dr. Robert B. Scott, cofounder of Louisville Red Cross Hospital, and other educators and community leaders.","description":"African American cemetery incorporated in 1886 by prominent Black citizens including Bishop W. H. Miles. Burials include Dr. Robert B. Scott, cofounder of Louisville Red Cross Hospital, and other educators and community leaders.","website":"https://history.ky.gov/markers/louisville-cemetery","established_year":1886,"yearStart":1886,"yearEnd":1886,"cemetery_type":"other","layer":"cemeteries"}},{"type":"Feature","geometry":{"type":"Point","coordinates":[-85.6292,38.1267]},"properties":{"id":"pennsylvania-run-presbyterian","name":"Pennsylvania Run Presbyterian Church and Cemetery","title":"Pennsylvania Run Presbyterian Church and Cemetery","city":"Louisville","county":"Jefferson","history":"Started by Presbyterian families who came from Pennsylvania to Kentucky in the 1780s; first log church in the 1790s and present brick church in 1840. One of the oldest surviving Presbyterian church-and-cemetery complexes in Jefferson County.","description":"Started by Presbyterian families who came from Pennsylvania to Kentucky in the 1780s; first log church in the 1790s and present brick church in 1840. One of the oldest surviving Presbyterian church-and-cemetery complexes in Jefferson County.","website":"https://history.ky.gov/markers/pennsylvania-run-presbyterian-church-and-cemetery","established_year":1790,"yearStart":1790,"yearEnd":1790,"cemetery_type":"church","layer":"cemeteries"}},{"type":"Feature","geometry":{"type":"Point","coordinates":[-85.64361,38.27806]},"properties":{"id":"zachary-taylor-national-cemetery","name":"Zachary Taylor National Cemetery","title":"Zachary Taylor National Cemetery","city":"Louisville","county":"Jefferson","history":"National cemetery on the old Taylor family burial ground at Springfield, named for the twelfth U.S. president. Zachary Taylor and Margaret Taylor rest in a limestone mausoleum; the site also holds Revolutionary War colonel Richard Taylor and later veterans of twentieth-century wars.","description":"National cemetery on the old Taylor family burial ground at Springfield, named for the twelfth U.S. president. Zachary Taylor and Margaret Taylor rest in a limestone mausoleum; the site also holds Revolutionary War colonel Richard Taylor and later veterans of twentieth-century wars.","website":"https://www.cem.va.gov/cems/nchp/zacharytaylor.asp","established_year":1926,"yearStart":1926,"yearEnd":1926,"cemetery_type":"national","nrhp":"83003733","layer":"cemeteries"}},{"type":"Feature","geometry":{"type":"Point","coordinates":[-84.6024583,37.7871555]},"properties":{"id":"camp-nelson-national-cemetery","name":"Camp Nelson National Cemetery","title":"Camp Nelson National Cemetery","city":"Nicholasville","county":"Jessamine","history":"One of the original Civil War national cemeteries, tied to Camp Nelson's Union supply depot, hospital, and major U.S. Colored Troops recruitment center. More than a thousand wartime dead were buried here by 1866; the cemetery remains an active VA national cemetery beside Camp Nelson National Monument.","description":"One of the original Civil War national cemeteries, tied to Camp Nelson's Union supply depot, hospital, and major U.S. Colored Troops recruitment center. More than a thousand wartime dead were buried here by 1866; the cemetery remains an active VA national cemetery beside Camp Nelson National Monument.","website":"https://www.cem.va.gov/cems/nchp/campnelson.asp","established_year":1866,"yearStart":1866,"yearEnd":1866,"cemetery_type":"national","nrhp":"98001134","layer":"cemeteries"}},{"type":"Feature","geometry":{"type":"Point","coordinates":[-84.5471146,39.0450572]},"properties":{"id":"highland-cemetery","name":"Highland Cemetery","title":"Highland Cemetery","city":"Fort Mitchell","county":"Kenton","history":"Premier rural garden cemetery of northern Kentucky, planned by landscape architect Adolph Strauch and NRHP-listed as a historic district (89001585). It is known for Confederate and Union veterans, civic leaders, and finely designed monuments and mausoleums; members of the Goebel family (not Governor William Goebel himself) are among those interred here.","description":"Premier rural garden cemetery of northern Kentucky, planned by landscape architect Adolph Strauch and NRHP-listed as a historic district (89001585). It is known for Confederate and Union veterans, civic leaders, and finely designed monuments and mausoleums; members of the Goebel family (not Governor William Goebel himself) are among those interred here.","website":"https://www.highlandcemetery.com/","established_year":1869,"yearStart":1869,"yearEnd":1869,"cemetery_type":"municipal","nrhp":"89001585","layer":"cemeteries"}},{"type":"Feature","geometry":{"type":"Point","coordinates":[-84.5151,39.0742]},"properties":{"id":"linden-grove-cemetery","name":"Linden Grove Cemetery","title":"Linden Grove Cemetery","city":"Covington","county":"Kenton","history":"Founded in 1843 on land of the Western Baptist Theological Institute; final resting place of veterans since the War of 1812. The cemetery and its GAR monuments are listed on the National Register and interpret Covington's nineteenth-century civic history.","description":"Founded in 1843 on land of the Western Baptist Theological Institute; final resting place of veterans since the War of 1812. The cemetery and its GAR monuments are listed on the National Register and interpret Covington's nineteenth-century civic history.","website":"https://en.wikipedia.org/wiki/Linden_Grove_Cemetery","established_year":1843,"yearStart":1843,"yearEnd":1843,"cemetery_type":"municipal","nrhp":true,"layer":"cemeteries"}},{"type":"Feature","geometry":{"type":"Point","coordinates":[-84.77916667,37.57]},"properties":{"id":"isaac-shelby-cemetery","name":"Isaac Shelby Cemetery State Historic Site","title":"Isaac Shelby Cemetery State Historic Site","city":"Junction City","county":"Lincoln","history":"Final resting place of Isaac Shelby, Kentucky's first and fifth governor and a Revolutionary War leader, at his Traveler's Rest plantation. The small Kentucky State Historic Site near Junction City interprets Shelby's frontier and early-statehood career.","description":"Final resting place of Isaac Shelby, Kentucky's first and fifth governor and a Revolutionary War leader, at his Traveler's Rest plantation. The small Kentucky State Historic Site near Junction City interprets Shelby's frontier and early-statehood career.","website":"https://parks.ky.gov/junction-city/parks/historic/isaac-shelby-cemetery-state-historic-site","established_year":1826,"yearStart":1826,"yearEnd":1826,"cemetery_type":"pioneer","layer":"cemeteries"}},{"type":"Feature","geometry":{"type":"Point","coordinates":[-86.8808,36.8497333]},"properties":{"id":"john-littlejohn-cemetery","name":"John Littlejohn Cemetery","title":"John Littlejohn Cemetery","city":"Russellville","county":"Logan","history":"Burial place associated with Methodist circuit rider John Littlejohn, a noted early Kentucky preacher. The KHS-marked cemetery interprets frontier religious life in the Logan County / Russellville area.","description":"Burial place associated with Methodist circuit rider John Littlejohn, a noted early Kentucky preacher. The KHS-marked cemetery interprets frontier religious life in the Logan County / Russellville area.","website":"https://history.ky.gov/markers/john-littlejohn-cemetery","cemetery_type":"pioneer","layer":"cemeteries"}},{"type":"Feature","geometry":{"type":"Point","coordinates":[-86.8847,36.6981]},"properties":{"id":"red-river-meetinghouse-cemetery","name":"Red River Presbyterian Meetinghouse Site and Cemetery","title":"Red River Presbyterian Meetinghouse Site and Cemetery","city":"Adairville","county":"Logan","history":"NRHP-listed site of the Red River Meeting House, cradle of the Great Revival / Second Great Awakening camp-meeting movement in Kentucky (1800). The adjacent cemetery marks the Presbyterian frontier congregation that hosted the historic meetings.","description":"NRHP-listed site of the Red River Meeting House, cradle of the Great Revival / Second Great Awakening camp-meeting movement in Kentucky (1800). The adjacent cemetery marks the Presbyterian frontier congregation that hosted the historic meetings.","website":"https://en.wikipedia.org/wiki/Red_River_Meeting_House","established_year":1800,"yearStart":1800,"yearEnd":1800,"cemetery_type":"church","nrhp":true,"layer":"cemeteries"}},{"type":"Feature","geometry":{"type":"Point","coordinates":[-88.0692833,37.0463833]},"properties":{"id":"matthew-lyon-grave","name":"Matthew Lyon Grave","title":"Matthew Lyon Grave","city":"Eddyville","county":"Lyon","history":"Grave of Matthew Lyon, Revolutionary War soldier, Vermont congressman prosecuted under the Alien and Sedition Acts, and later western Kentucky settler. Lyon County takes its name from him; the KHS marker interprets his national and Kentucky significance.","description":"Grave of Matthew Lyon, Revolutionary War soldier, Vermont congressman prosecuted under the Alien and Sedition Acts, and later western Kentucky settler. Lyon County takes its name from him; the KHS marker interprets his national and Kentucky significance.","website":"https://en.wikipedia.org/wiki/Matthew_Lyon","established_year":1822,"yearStart":1822,"yearEnd":1822,"cemetery_type":"pioneer","layer":"cemeteries"}},{"type":"Feature","geometry":{"type":"Point","coordinates":[-84.2917818,37.7416024]},"properties":{"id":"richmond-cemetery","name":"Richmond Cemetery","title":"Richmond Cemetery","city":"Richmond","county":"Madison","history":"Principal historic cemetery for Richmond and Madison County, with Civil War-era and civic burials. Emancipationist Cassius Marcellus Clay, Lincoln's minister to Russia, is buried in the Richmond area commemorative landscape interpreted by a nearby KHS marker.","description":"Principal historic cemetery for Richmond and Madison County, with Civil War-era and civic burials. Emancipationist Cassius Marcellus Clay, Lincoln's minister to Russia, is buried in the Richmond area commemorative landscape interpreted by a nearby KHS marker.","website":"https://history.ky.gov/markers/cassius-marcellus-clay","established_year":1848,"yearStart":1848,"yearEnd":1848,"cemetery_type":"municipal","layer":"cemeteries"}},{"type":"Feature","geometry":{"type":"Point","coordinates":[-85.26861111,37.55277778]},"properties":{"id":"lebanon-national-cemetery","name":"Lebanon National Cemetery","title":"Lebanon National Cemetery","city":"Lebanon","county":"Marion","history":"Civil War national cemetery outside Lebanon for Union dead from the 1862–63 campaigns in Central Kentucky. It remains a VA national cemetery and NRHP-listed Civil War burial ground.","description":"Civil War national cemetery outside Lebanon for Union dead from the 1862–63 campaigns in Central Kentucky. It remains a VA national cemetery and NRHP-listed Civil War burial ground.","website":"https://www.cem.va.gov/cems/nchp/lebanon.asp","established_year":1862,"yearStart":1862,"yearEnd":1862,"cemetery_type":"national","nrhp":true,"layer":"cemeteries"}},{"type":"Feature","geometry":{"type":"Point","coordinates":[-88.6598382,37.0433208]},"properties":{"id":"mount-kenton-cemetery","name":"Mount Kenton Cemetery","title":"Mount Kenton Cemetery","city":"Paducah","county":"McCracken","history":"Historic Paducah cemetery best known as the burial place of author and humorist Irvin S. Cobb. A KHS marker interprets Cobb's career and interment at Mount Kenton.","description":"Historic Paducah cemetery best known as the burial place of author and humorist Irvin S. Cobb. A KHS marker interprets Cobb's career and interment at Mount Kenton.","website":"https://en.wikipedia.org/wiki/Irvin_S._Cobb","established_year":1872,"yearStart":1872,"yearEnd":1872,"cemetery_type":"municipal","layer":"cemeteries"}},{"type":"Feature","geometry":{"type":"Point","coordinates":[-84.852729,37.86452]},"properties":{"id":"new-providence-presbyterian-cemetery","name":"New Providence Presbyterian Cemetery","title":"New Providence Presbyterian Cemetery","city":"McAfee","county":"Mercer","history":"Pioneer Presbyterian church cemetery near McAfee in Mercer County, noted on a KHS marker for Revolutionary War soldiers buried at New Providence. It represents early settlement faith communities in the Harrodsburg hinterland.","description":"Pioneer Presbyterian church cemetery near McAfee in Mercer County, noted on a KHS marker for Revolutionary War soldiers buried at New Providence. It represents early settlement faith communities in the Harrodsburg hinterland.","website":"https://secure2.kentucky.gov/kyhs/hmdb/MarkerSearch.aspx?mode=Number&markerNumber=1603","established_year":1785,"yearStart":1785,"yearEnd":1785,"cemetery_type":"church","layer":"cemeteries"}},{"type":"Feature","geometry":{"type":"Point","coordinates":[-84.84888889,37.76194444]},"properties":{"id":"old-fort-harrod-pioneer-cemetery","name":"Old Fort Harrod Pioneer Cemetery","title":"Old Fort Harrod Pioneer Cemetery","city":"Harrodsburg","county":"Mercer","history":"Pioneer burial ground at Old Fort Harrod State Park, interpreting Kentucky's first permanent settlement (1774). The cemetery and reconstructed fort tell the story of early Bluegrass frontier life at Harrodsburg.","description":"Pioneer burial ground at Old Fort Harrod State Park, interpreting Kentucky's first permanent settlement (1774). The cemetery and reconstructed fort tell the story of early Bluegrass frontier life at Harrodsburg.","website":"https://parks.ky.gov/harrodsburg/parks/historic/old-fort-harrod-state-park","established_year":1775,"yearStart":1775,"yearEnd":1775,"cemetery_type":"pioneer","layer":"cemeteries"}},{"type":"Feature","geometry":{"type":"Point","coordinates":[-85.7075,36.67777778]},"properties":{"id":"old-mulkey-meetinghouse","name":"Old Mulkey Meetinghouse Cemetery","title":"Old Mulkey Meetinghouse Cemetery","city":"Tompkinsville","county":"Monroe","history":"Pioneer Baptist cemetery beside the 1804 log Old Mulkey Meetinghouse, among Kentucky's oldest surviving meetinghouses. The state historic site preserves frontier graves—including Hannah Boone Pennington, sister of Daniel Boone—and early Baptist worship traditions.","description":"Pioneer Baptist cemetery beside the 1804 log Old Mulkey Meetinghouse, among Kentucky's oldest surviving meetinghouses. The state historic site preserves frontier graves—including Hannah Boone Pennington, sister of Daniel Boone—and early Baptist worship traditions.","website":"https://parks.ky.gov/tompkinsville/parks/historic/old-mulkey-meetinghouse-state-historic-site","established_year":1804,"yearStart":1804,"yearEnd":1804,"cemetery_type":"church","nrhp":true,"layer":"cemeteries"}},{"type":"Feature","geometry":{"type":"Point","coordinates":[-85.6971667,36.7032667]},"properties":{"id":"tompkinsville-national-cemetery","name":"Tompkinsville National Cemetery","title":"Tompkinsville National Cemetery","city":"Tompkinsville","county":"Monroe","history":"Civil War burial ground for Union soldiers who died in the Tompkinsville region; most remains were moved to Nashville National Cemetery in 1867, leaving a tiny remnant national cemetery. A KHS marker interprets the site's wartime role and later reduction.","description":"Civil War burial ground for Union soldiers who died in the Tompkinsville region; most remains were moved to Nashville National Cemetery in 1867, leaving a tiny remnant national cemetery. A KHS marker interprets the site's wartime role and later reduction.","website":"https://history.ky.gov/markers/tompkinsville-national-cemetery","established_year":1861,"yearStart":1861,"yearEnd":1861,"cemetery_type":"national","layer":"cemeteries"}},{"type":"Feature","geometry":{"type":"Point","coordinates":[-83.932182,38.0594435]},"properties":{"id":"machpelah-cemetery","name":"Machpelah Cemetery","title":"Machpelah Cemetery","city":"Mount Sterling","county":"Montgomery","history":"NRHP-listed cemetery in Mount Sterling known for its collection of cast-iron fences and nineteenth-century monuments. It is Montgomery County's principal historic burial landscape.","description":"NRHP-listed cemetery in Mount Sterling known for its collection of cast-iron fences and nineteenth-century monuments. It is Montgomery County's principal historic burial landscape.","website":"https://en.wikipedia.org/wiki/Machpelah_Cemetery_(Mount_Sterling,_Kentucky)","established_year":1855,"yearStart":1855,"yearEnd":1855,"cemetery_type":"municipal","nrhp":true,"layer":"cemeteries"}},{"type":"Feature","geometry":{"type":"Point","coordinates":[-87.1750833,37.2003167]},"properties":{"id":"old-greenville-cemetery","name":"Old Greenville Cemetery","title":"Old Greenville Cemetery","city":"Greenville","county":"Muhlenberg","history":"Land given to the Presbyterian Church by Charles and Nancy Wing in 1825–26; later deeded to the city. Distinguished War of 1812 rifleman Ephraim M. Brank—later celebrated in historical fiction—is among those buried here.","description":"Land given to the Presbyterian Church by Charles and Nancy Wing in 1825–26; later deeded to the city. Distinguished War of 1812 rifleman Ephraim M. Brank—later celebrated in historical fiction—is among those buried here.","website":"https://history.ky.gov/markers/old-greenville-cemetery","established_year":1825,"yearStart":1825,"yearEnd":1825,"cemetery_type":"church","layer":"cemeteries"}},{"type":"Feature","geometry":{"type":"Point","coordinates":[-85.476587,38.3029647]},"properties":{"id":"pewee-valley-confederate-cemetery","name":"Pewee Valley Confederate Cemetery","title":"Pewee Valley Confederate Cemetery","city":"Pewee Valley","county":"Oldham","history":"NRHP-listed cemetery associated with the Kentucky Confederate Home (1902–1934). A granite obelisk marks the graves of hundreds of Confederate veterans who died as residents of the home—a rare public Confederate veterans landscape in the Louisville ring counties.","description":"NRHP-listed cemetery associated with the Kentucky Confederate Home (1902–1934). A granite obelisk marks the graves of hundreds of Confederate veterans who died as residents of the home—a rare public Confederate veterans landscape in the Louisville ring counties.","website":"https://en.wikipedia.org/wiki/Pewee_Valley_Confederate_Cemetery","established_year":1904,"yearStart":1904,"yearEnd":1904,"cemetery_type":"military","nrhp":true,"layer":"cemeteries"}},{"type":"Feature","geometry":{"type":"Point","coordinates":[-82.2154167,37.6031333]},"properties":{"id":"mccoy-cemetery","name":"McCoy Cemetery","title":"McCoy Cemetery","city":"Hardy","county":"Pike","history":"Family cemetery central to Hatfield-McCoy feud memory. Among those buried here are Randolph McCoy's sons Tolbert, Pharmer, and Randolph Jr., and Alifair and Calvin McCoy, killed when the family cabin was burned—part of the Hatfield-McCoy Historic District story.","description":"Family cemetery central to Hatfield-McCoy feud memory. Among those buried here are Randolph McCoy's sons Tolbert, Pharmer, and Randolph Jr., and Alifair and Calvin McCoy, killed when the family cabin was burned—part of the Hatfield-McCoy Historic District story.","website":"https://history.ky.gov/markers/mccoy-cemetery","cemetery_type":"family","layer":"cemeteries"}},{"type":"Feature","geometry":{"type":"Point","coordinates":[-84.73722222,37.06833333]},"properties":{"id":"mill-springs-national-cemetery","name":"Mill Springs National Cemetery","title":"Mill Springs National Cemetery","city":"Nancy","county":"Pulaski","history":"National cemetery near the Mill Springs battlefield, where Union forces won a critical early Civil War victory in January 1862. It holds wartime dead from the campaign and later veterans, adjacent to Mill Springs Battlefield National Monument.","description":"National cemetery near the Mill Springs battlefield, where Union forces won a critical early Civil War victory in January 1862. It holds wartime dead from the campaign and later veterans, adjacent to Mill Springs Battlefield National Monument.","website":"https://www.cem.va.gov/cems/nchp/millsprings.asp","established_year":1862,"yearStart":1862,"yearEnd":1862,"cemetery_type":"national","nrhp":true,"layer":"cemeteries"}},{"type":"Feature","geometry":{"type":"Point","coordinates":[-84.5609167,38.19755]},"properties":{"id":"georgetown-cemetery","name":"Georgetown Cemetery","title":"Georgetown Cemetery","city":"Georgetown","county":"Scott","history":"Incorporated in 1850; older stones reflect reinterments from earlier graveyards. Governors Joseph Desha and James F. Robinson, Confederate governor George W. Johnson, and equine artist Edward Troye are among those buried here.","description":"Incorporated in 1850; older stones reflect reinterments from earlier graveyards. Governors Joseph Desha and James F. Robinson, Confederate governor George W. Johnson, and equine artist Edward Troye are among those buried here.","website":"https://history.ky.gov/markers/georgetown-cemetery","established_year":1850,"yearStart":1850,"yearEnd":1850,"cemetery_type":"municipal","layer":"cemeteries"}},{"type":"Feature","geometry":{"type":"Point","coordinates":[-85.2078019,38.2052484]},"properties":{"id":"grove-hill-cemetery","name":"Grove Hill Cemetery","title":"Grove Hill Cemetery","city":"Shelbyville","county":"Shelby","history":"Shelbyville's historic park cemetery overlooking Clear Creek, with burials from 1855 onward and a National Register-listed chapel. Revolutionary War heroes Col. John S. Hardin and Aquilla Whitaker are commemorated here, along with Civil War Union lots donated to the War Department.","description":"Shelbyville's historic park cemetery overlooking Clear Creek, with burials from 1855 onward and a National Register-listed chapel. Revolutionary War heroes Col. John S. Hardin and Aquilla Whitaker are commemorated here, along with Civil War Union lots donated to the War Department.","website":"https://www.grovehillcemetery.org/","established_year":1855,"yearStart":1855,"yearEnd":1855,"cemetery_type":"municipal","nrhp":true,"layer":"cemeteries"}},{"type":"Feature","geometry":{"type":"Point","coordinates":[-85.3694486,38.0961653]},"properties":{"id":"elk-creek-cemetery-heady","name":"Elk Creek Cemetery (James Morrison Heady)","title":"Elk Creek Cemetery (James Morrison Heady)","city":"Elk Creek","county":"Spencer","history":"Rural Spencer County cemetery at Elk Creek associated with James Morrison Heady, the Blind Bard of Kentucky, who was blind by fifteen and deaf before forty yet invented assistive devices and wrote widely. A short drive from Shelby/Bagdad for eastern Jefferson-Spencer heritage trips.","description":"Rural Spencer County cemetery at Elk Creek associated with James Morrison Heady, the Blind Bard of Kentucky, who was blind by fifteen and deaf before forty yet invented assistive devices and wrote widely. A short drive from Shelby/Bagdad for eastern Jefferson-Spencer heritage trips.","website":"https://history.ky.gov/markers/james-morrison-heady-1829-1915","cemetery_type":"church","layer":"cemeteries"}},{"type":"Feature","geometry":{"type":"Point","coordinates":[-86.4196464,36.9884596]},"properties":{"id":"fairview-cemetery-bowling-green","name":"Fairview Cemetery","title":"Fairview Cemetery","city":"Bowling Green","county":"Warren","history":"Bowling Green's main historic cemetery, resting place of Confederate operative Capt. Thomas H. Hines—called one of the most dangerous men of the Confederacy—and other Warren County leaders. A KHS marker interprets Hines's wartime career and burial here.","description":"Bowling Green's main historic cemetery, resting place of Confederate operative Capt. Thomas H. Hines—called one of the most dangerous men of the Confederacy—and other Warren County leaders. A KHS marker interprets Hines's wartime career and burial here.","website":"https://en.wikipedia.org/wiki/Thomas_Hines","established_year":1860,"yearStart":1860,"yearEnd":1860,"cemetery_type":"municipal","layer":"cemeteries"}},{"type":"Feature","geometry":{"type":"Point","coordinates":[-84.6875167,38.1509167]},"properties":{"id":"sons-daughters-of-relief-cemetery","name":"Sons & Daughters of Relief Cemetery","title":"Sons & Daughters of Relief Cemetery","city":"Midway","county":"Woodford","history":"Land bought in 1876 by members of Midway's Sons & Daughters of Relief lodge. Final resting place of veterans and formerly enslaved leaders of Midway's African American community, including famous horseman Edward Dudley Brown in an unmarked grave.","description":"Land bought in 1876 by members of Midway's Sons & Daughters of Relief lodge. Final resting place of veterans and formerly enslaved leaders of Midway's African American community, including famous horseman Edward Dudley Brown in an unmarked grave.","website":"https://history.ky.gov/markers/sons-daughters-of-relief-cemetery","established_year":1876,"yearStart":1876,"yearEnd":1876,"cemetery_type":"other","layer":"cemeteries"}}]}