{"type":"FeatureCollection","features":[{"type":"Feature","geometry":{"type":"Point","coordinates":[-85.7437291,38.2548063]},"properties":{"id":"angels-envy","name":"Angel's Envy Distillery","title":"Angel's Envy Distillery","city":"Louisville","county":"Jefferson","address":"500 E Main St, Louisville, KY","history":"Urban distillery on Whiskey Row founded by Lincoln Henderson; finished bourbon in port wine casks helped define modern craft-adjacent Louisville bourbon tourism.","description":"Urban distillery on Whiskey Row founded by Lincoln Henderson; finished bourbon in port wine casks helped define modern craft-adjacent Louisville bourbon tourism.","website":"https://www.angelsenvy.com","founded_year":2011,"yearStart":2011,"yearEnd":2011,"trail_status":"kbt","layer":"distilleries"}},{"type":"Feature","geometry":{"type":"Point","coordinates":[-85.7594787,38.2566584]},"properties":{"id":"evan-williams","name":"Evan Williams Bourbon Experience","title":"Evan Williams Bourbon Experience","city":"Louisville","county":"Jefferson","address":"528 W Main St, Louisville, KY","history":"Heaven Hill's Whiskey Row experience named for Evan Williams, often cited as Kentucky's first commercial distiller (1783 on the Ohio). Interpretive distilling and Louisville whiskey history.","description":"Heaven Hill's Whiskey Row experience named for Evan Williams, often cited as Kentucky's first commercial distiller (1783 on the Ohio). Interpretive distilling and Louisville whiskey history.","website":"https://evanwilliams.com","founded_year":2013,"yearStart":2013,"yearEnd":2013,"trail_status":"kbt","layer":"distilleries"}},{"type":"Feature","geometry":{"type":"Point","coordinates":[-85.7524478,38.2565774]},"properties":{"id":"old-forester","name":"Old Forester Distilling Co.","title":"Old Forester Distilling Co.","city":"Louisville","county":"Jefferson","address":"119 W Main St, Louisville, KY","history":"Brown-Forman's flagship brand, marketed since 1870 as the first bourbon sold exclusively in sealed bottles. Downtown Louisville distillery reopened on Whiskey Row in 2018.","description":"Brown-Forman's flagship brand, marketed since 1870 as the first bourbon sold exclusively in sealed bottles. Downtown Louisville distillery reopened on Whiskey Row in 2018.","website":"https://www.oldforester.com","founded_year":1870,"yearStart":1870,"yearEnd":1870,"trail_status":"kbt","layer":"distilleries"}},{"type":"Feature","geometry":{"type":"Point","coordinates":[-85.7632828,38.2575362]},"properties":{"id":"michters","name":"Michter's Fort Nelson Distillery","title":"Michter's Fort Nelson Distillery","city":"Louisville","county":"Jefferson","address":"435 W Main St, Louisville, KY","history":"Modern Michter's revival inside the restored Fort Nelson Building on Whiskey Row; brand traces advertising lineage to 18th-century Pennsylvania whiskey lore.","description":"Modern Michter's revival inside the restored Fort Nelson Building on Whiskey Row; brand traces advertising lineage to 18th-century Pennsylvania whiskey lore.","website":"https://michters.com","founded_year":2019,"yearStart":2019,"yearEnd":2019,"trail_status":"kbt","layer":"distilleries"}},{"type":"Feature","geometry":{"type":"Point","coordinates":[-85.739522,38.2523145]},"properties":{"id":"rabbit-hole","name":"Rabbit Hole Distillery","title":"Rabbit Hole Distillery","city":"Louisville","county":"Jefferson","address":"711 E Jefferson St, Louisville, KY","history":"Kaveh Zamanian's Louisville distillery opened to visitors in 2018 with a striking modern facility east of downtown.","description":"Kaveh Zamanian's Louisville distillery opened to visitors in 2018 with a striking modern facility east of downtown.","website":"https://www.rabbitholedistillery.com","founded_year":2018,"yearStart":2018,"yearEnd":2018,"trail_status":"kbt","layer":"distilleries"}},{"type":"Feature","geometry":{"type":"Point","coordinates":[-85.8076951,38.207406]},"properties":{"id":"stitzel-weller","name":"Stitzel-Weller Distillery (Bulleit Frontier Experience)","title":"Stitzel-Weller Distillery (Bulleit Frontier Experience)","city":"Louisville","county":"Jefferson","address":"3860 Fitzgerald Rd, Louisville, KY","history":"Built after Prohibition by Julian 'Pappy' Van Winkle and partners; later home to brands like Weller and Rebel Yell. Now hosts the Bulleit Frontier Experience.","description":"Built after Prohibition by Julian 'Pappy' Van Winkle and partners; later home to brands like Weller and Rebel Yell. Now hosts the Bulleit Frontier Experience.","website":"https://www.bulleit.com","founded_year":1935,"yearStart":1935,"yearEnd":1935,"trail_status":"kbt","layer":"distilleries"}},{"type":"Feature","geometry":{"type":"Point","coordinates":[-85.76686,38.2586159]},"properties":{"id":"peerless","name":"Kentucky Peerless Distilling Co.","title":"Kentucky Peerless Distilling Co.","city":"Louisville","county":"Jefferson","address":"120 N 10th St, Louisville, KY","history":"Original Peerless operated 1889–1917 in Henderson; family revived the name in Louisville after Prohibition's long pause, opening the modern plant in 2015.","description":"Original Peerless operated 1889–1917 in Henderson; family revived the name in Louisville after Prohibition's long pause, opening the modern plant in 2015.","website":"https://www.kentuckypeerless.com","founded_year":1889,"yearStart":1889,"yearEnd":1889,"trail_status":"kbt","layer":"distilleries"}},{"type":"Feature","geometry":{"type":"Point","coordinates":[-85.7473516,38.1952191]},"properties":{"id":"copper-kings","name":"Copper & Kings","title":"Copper & Kings","city":"Louisville","county":"Jefferson","address":"1121 E Washington St, Louisville, KY","history":"Butcher town brandy and absinthe house that also joined Bourbon Trail craft programming; American brandy pioneer in Louisville's east end.","description":"Butcher town brandy and absinthe house that also joined Bourbon Trail craft programming; American brandy pioneer in Louisville's east end.","website":"https://www.copperandkings.com","founded_year":2014,"yearStart":2014,"yearEnd":2014,"trail_status":"kbt","layer":"distilleries"}},{"type":"Feature","geometry":{"type":"Point","coordinates":[-85.137089,38.2228353]},"properties":{"id":"bulleit-shelbyville","name":"Bulleit Distilling Co.","title":"Bulleit Distilling Co.","city":"Shelbyville","county":"Shelby","address":"15389 Shelbyville Rd, Shelbyville, KY","history":"Diageo's large Shelbyville production campus for Bulleit; opened tours as a Kentucky Bourbon Trail stop near Shannon's home county.","description":"Diageo's large Shelbyville production campus for Bulleit; opened tours as a Kentucky Bourbon Trail stop near Shannon's home county.","website":"https://www.bulleit.com","founded_year":2019,"yearStart":2019,"yearEnd":2019,"trail_status":"kbt","layer":"distilleries"}},{"type":"Feature","geometry":{"type":"Point","coordinates":[-85.2644824,38.1893064]},"properties":{"id":"jeptha-creed","name":"Jeptha Creed Distillery","title":"Jeptha Creed Distillery","city":"Shelbyville","county":"Shelby","address":"500 Gordon Ln, Shelbyville, KY","history":"Corky and Autumn Taylor's farm distillery near Shelbyville, named for local Jeptha Knob lore; known for bourbon, vodka, and a family-farm visitor experience.","description":"Corky and Autumn Taylor's farm distillery near Shelbyville, named for local Jeptha Knob lore; known for bourbon, vodka, and a family-farm visitor experience.","website":"https://jepthacreed.com","founded_year":2016,"yearStart":2016,"yearEnd":2016,"trail_status":"kbt","layer":"distilleries"}},{"type":"Feature","geometry":{"type":"Point","coordinates":[-84.8690507,38.2157433]},"properties":{"id":"buffalo-trace","name":"Buffalo Trace Distillery","title":"Buffalo Trace Distillery","city":"Frankfort","county":"Franklin","address":"113 Great Buffalo Trace, Frankfort, KY","history":"Continuous distilling site on the Kentucky River often dated to the late 1700s; home of Buffalo Trace, Eagle Rare, Blanton's, and Pappy Van Winkle. Left the KDA in 2010 but remains central to bourbon history.","description":"Continuous distilling site on the Kentucky River often dated to the late 1700s; home of Buffalo Trace, Eagle Rare, Blanton's, and Pappy Van Winkle. Left the KDA in 2010 but remains central to bourbon history.","website":"https://www.buffalotracedistillery.com","founded_year":1787,"yearStart":1787,"yearEnd":1787,"trail_status":"independent","layer":"distilleries"}},{"type":"Feature","geometry":{"type":"Point","coordinates":[-84.832567,38.1466899]},"properties":{"id":"castle-key","name":"Castle & Key Distillery","title":"Castle & Key Distillery","city":"Frankfort","county":"Franklin","address":"4445 McCracken Pike, Frankfort, KY","history":"Built as Col. E.H. Taylor's Old Taylor Distillery with a castle-like limestone facade; sat abandoned for decades before Castle & Key restored the grounds and restarted production.","description":"Built as Col. E.H. Taylor's Old Taylor Distillery with a castle-like limestone facade; sat abandoned for decades before Castle & Key restored the grounds and restarted production.","website":"https://castleandkey.com","founded_year":1887,"yearStart":1887,"yearEnd":1887,"trail_status":"kbt","layer":"distilleries"}},{"type":"Feature","geometry":{"type":"Point","coordinates":[-84.8264923,38.2120067]},"properties":{"id":"whiskey-thief","name":"Whiskey Thief Distilling Co.","title":"Whiskey Thief Distilling Co.","city":"Frankfort","county":"Franklin","address":"301 Redwood Dr, Frankfort, KY","history":"Frankfort craft distillery on the Bourbon Trail Craft Tour near the capital.","description":"Frankfort craft distillery on the Bourbon Trail Craft Tour near the capital.","website":"https://www.whiskeythief.com","founded_year":2018,"yearStart":2018,"yearEnd":2018,"trail_status":"kbt","layer":"distilleries"}},{"type":"Feature","geometry":{"type":"Point","coordinates":[-84.8135359,38.1132808]},"properties":{"id":"woodford-reserve","name":"Woodford Reserve Distillery","title":"Woodford Reserve Distillery","city":"Versailles","county":"Woodford","address":"7855 McCracken Pike, Versailles, KY","history":"Labrot & Graham site with deep 19th-century roots; Brown-Forman revived it as Woodford Reserve, a National Historic Landmark along Glenn's Creek.","description":"Labrot & Graham site with deep 19th-century roots; Brown-Forman revived it as Woodford Reserve, a National Historic Landmark along Glenn's Creek.","website":"https://www.woodfordreserve.com","founded_year":1812,"yearStart":1812,"yearEnd":1812,"trail_status":"kbt","layer":"distilleries"}},{"type":"Feature","geometry":{"type":"Point","coordinates":[-84.8981012,37.9731697]},"properties":{"id":"four-roses","name":"Four Roses Distillery","title":"Four Roses Distillery","city":"Lawrenceburg","county":"Anderson","address":"1224 Bonds Mill Rd, Lawrenceburg, KY","history":"Spanish Mission-style distillery on the Salt River; known for 10 bourbon recipes and a long Seagram/Kirin ownership story after Prohibition-era survival.","description":"Spanish Mission-style distillery on the Salt River; known for 10 bourbon recipes and a long Seagram/Kirin ownership story after Prohibition-era survival.","website":"https://fourrosesbourbon.com","founded_year":1888,"yearStart":1888,"yearEnd":1888,"trail_status":"kbt","layer":"distilleries"}},{"type":"Feature","geometry":{"type":"Point","coordinates":[-84.8505486,38.0422958]},"properties":{"id":"wild-turkey","name":"Wild Turkey Distillery","title":"Wild Turkey Distillery","city":"Lawrenceburg","county":"Anderson","address":"1417 Versailles Rd, Lawrenceburg, KY","history":"Cliffside Anderson County distillery long associated with the Russell family master distillers; Austin Nichols / Campari ownership.","description":"Cliffside Anderson County distillery long associated with the Russell family master distillers; Austin Nichols / Campari ownership.","website":"https://wildturkeybourbon.com","founded_year":1869,"yearStart":1869,"yearEnd":1869,"trail_status":"kbt","layer":"distilleries"}},{"type":"Feature","geometry":{"type":"Point","coordinates":[-84.5092455,38.0494022]},"properties":{"id":"town-branch","name":"Town Branch Distillery","title":"Town Branch Distillery","city":"Lexington","county":"Fayette","address":"401 W Main St, Lexington, KY","history":"Alltech's Lexington distillery named for the buried Town Branch creek; among the first new full-scale Lexington distilleries of the 21st century.","description":"Alltech's Lexington distillery named for the buried Town Branch creek; among the first new full-scale Lexington distilleries of the 21st century.","website":"https://www.townbranch.com","founded_year":2012,"yearStart":2012,"yearEnd":2012,"trail_status":"kbt","layer":"distilleries"}},{"type":"Feature","geometry":{"type":"Point","coordinates":[-84.5197434,38.0565558]},"properties":{"id":"james-e-pepper","name":"James E. Pepper Distillery","title":"James E. Pepper Distillery","city":"Lexington","county":"Fayette","address":"1228 Manchester St, Lexington, KY","history":"Revived Pepper family brand on Manchester Street in Lexington's Distillery District; historic Pepper claims reach to the late 18th century.","description":"Revived Pepper family brand on Manchester Street in Lexington's Distillery District; historic Pepper claims reach to the late 18th century.","website":"https://jameseppepper.com","founded_year":1780,"yearStart":1780,"yearEnd":1780,"trail_status":"kbt","layer":"distilleries"}},{"type":"Feature","geometry":{"type":"Point","coordinates":[-84.5190769,38.0563662]},"properties":{"id":"barrel-house","name":"Barrel House Distilling Co.","title":"Barrel House Distilling Co.","city":"Lexington","county":"Fayette","address":"1200 Manchester St, Lexington, KY","history":"Early Lexington Distillery District craft producer in a renovated barrel house.","description":"Early Lexington Distillery District craft producer in a renovated barrel house.","website":"https://barrelhousedistillery.com","founded_year":2008,"yearStart":2008,"yearEnd":2008,"trail_status":"kbt","layer":"distilleries"}},{"type":"Feature","geometry":{"type":"Point","coordinates":[-84.4920454,38.0599039]},"properties":{"id":"bluegrass-distillers","name":"Bluegrass Distillers","title":"Bluegrass Distillers","city":"Lexington","county":"Fayette","address":"426 N Main St, Lexington, KY","history":"Lexington craft distillery later expanding farm operations; Bluegrass Craft Tour stop.","description":"Lexington craft distillery later expanding farm operations; Bluegrass Craft Tour stop.","website":"https://bluegrassdistillers.com","founded_year":2012,"yearStart":2012,"yearEnd":2012,"trail_status":"kbt","layer":"distilleries"}},{"type":"Feature","geometry":{"type":"Point","coordinates":[-84.5074286,38.0446402]},"properties":{"id":"rd1","name":"RD1 Spirits","title":"RD1 Spirits","city":"Lexington","county":"Fayette","address":"300 W Short St, Lexington, KY","history":"Lexington tasting-room brand tied to whiskey history storytelling on Short Street.","description":"Lexington tasting-room brand tied to whiskey history storytelling on Short Street.","website":"https://rd1spirits.com","founded_year":2021,"yearStart":2021,"yearEnd":2021,"trail_status":"kbt","layer":"distilleries"}},{"type":"Feature","geometry":{"type":"Point","coordinates":[-84.4990663,38.0475747]},"properties":{"id":"fresh-bourbon","name":"Fresh Bourbon Distillery","title":"Fresh Bourbon Distillery","city":"Lexington","county":"Fayette","address":"377 E Main St, Lexington, KY","history":"Black-owned Lexington distillery founded by Sean and Teri Edwards; Craft Tour member.","description":"Black-owned Lexington distillery founded by Sean and Teri Edwards; Craft Tour member.","website":"https://freshbourbon.com","founded_year":2018,"yearStart":2018,"yearEnd":2018,"trail_status":"kbt","layer":"distilleries"}},{"type":"Feature","geometry":{"type":"Point","coordinates":[-85.4656564,37.7932033]},"properties":{"id":"heaven-hill","name":"Heaven Hill Bourbon Experience","title":"Heaven Hill Bourbon Experience","city":"Bardstown","county":"Nelson","address":"1311 Gilkey Run Rd, Bardstown, KY","history":"Family-owned Heaven Hill began after Prohibition in Bardstown; one of the largest bourbon inventories in the world. Visitor center anchors Bourbon Capital tourism.","description":"Family-owned Heaven Hill began after Prohibition in Bardstown; one of the largest bourbon inventories in the world. Visitor center anchors Bourbon Capital tourism.","website":"https://www.heavenhilldistillery.com","founded_year":1935,"yearStart":1935,"yearEnd":1935,"trail_status":"kbt","layer":"distilleries"}},{"type":"Feature","geometry":{"type":"Point","coordinates":[-85.4240683,37.808135]},"properties":{"id":"lux-row","name":"Lux Row Distillers","title":"Lux Row Distillers","city":"Bardstown","county":"Nelson","address":"3050 E John Rowan Blvd, Bardstown, KY","history":"Luxco's Bardstown distillery producing Rebel, Blood Oath, and related brands on the Bourbon Trail.","description":"Luxco's Bardstown distillery producing Rebel, Blood Oath, and related brands on the Bourbon Trail.","website":"https://www.luxrowdistillers.com","founded_year":2018,"yearStart":2018,"yearEnd":2018,"trail_status":"kbt","layer":"distilleries"}},{"type":"Feature","geometry":{"type":"Point","coordinates":[-85.4099733,37.8114574]},"properties":{"id":"bardstown-bourbon","name":"Bardstown Bourbon Company","title":"Bardstown Bourbon Company","city":"Bardstown","county":"Nelson","address":"1500 Parkway Dr, Bardstown, KY","history":"Large collaborative contract and branded distillery opened in 2016 south of Bardstown.","description":"Large collaborative contract and branded distillery opened in 2016 south of Bardstown.","website":"https://www.bardstownbourbon.com","founded_year":2016,"yearStart":2016,"yearEnd":2016,"trail_status":"kbt","layer":"distilleries"}},{"type":"Feature","geometry":{"type":"Point","coordinates":[-85.4618219,37.785531]},"properties":{"id":"willett","name":"Willett Distillery","title":"Willett Distillery","city":"Bardstown","county":"Nelson","address":"1869 Loretto Rd, Bardstown, KY","history":"Family Willett/Kulsveen operation famous for Willett pot-still and family estate releases; longtime Bardstown craft destination.","description":"Family Willett/Kulsveen operation famous for Willett pot-still and family estate releases; longtime Bardstown craft destination.","website":"https://kentuckybourbonwhiskey.com","founded_year":1936,"yearStart":1936,"yearEnd":1936,"trail_status":"kbt","layer":"distilleries"}},{"type":"Feature","geometry":{"type":"Point","coordinates":[-85.4930898,37.7868806]},"properties":{"id":"preservation","name":"Preservation Distillery","title":"Preservation Distillery","city":"Bardstown","county":"Nelson","address":"100 Distillery Dr, Bardstown, KY","history":"Bardstown craft distillery emphasizing historic recipes and small-batch production.","description":"Bardstown craft distillery emphasizing historic recipes and small-batch production.","website":"https://www.preservationdistillery.com","founded_year":2018,"yearStart":2018,"yearEnd":2018,"trail_status":"kbt","layer":"distilleries"}},{"type":"Feature","geometry":{"type":"Point","coordinates":[-85.3489926,37.6468276]},"properties":{"id":"makers-mark","name":"Maker's Mark Distillery","title":"Maker's Mark Distillery","city":"Loretto","county":"Larue","address":"3350 Burks Spring Rd, Loretto, KY","history":"Bill Samuels Sr. bought the Burks' Distillery site and launched Maker's Mark with a wheat recipe and red-wax seal; National Historic Landmark campus.","description":"Bill Samuels Sr. bought the Burks' Distillery site and launched Maker's Mark with a wheat recipe and red-wax seal; National Historic Landmark campus.","website":"https://www.makersmark.com","founded_year":1953,"yearStart":1953,"yearEnd":1953,"trail_status":"kbt","layer":"distilleries"}},{"type":"Feature","geometry":{"type":"Point","coordinates":[-85.6527355,37.9297858]},"properties":{"id":"jim-beam","name":"Jim Beam American Stillhouse","title":"Jim Beam American Stillhouse","city":"Clermont","county":"Bullitt","address":"526 Happy Hollow Rd, Clermont, KY","history":"Beam family distilling tradition usually dated to Jacob Beam's late-18th-century start; Clermont plant is the flagship of today's Jim Beam / Suntory empire.","description":"Beam family distilling tradition usually dated to Jacob Beam's late-18th-century start; Clermont plant is the flagship of today's Jim Beam / Suntory empire.","website":"https://www.jimbeam.com","founded_year":1795,"yearStart":1795,"yearEnd":1795,"trail_status":"kbt","layer":"distilleries"}},{"type":"Feature","geometry":{"type":"Point","coordinates":[-85.5910728,37.6578397]},"properties":{"id":"log-still","name":"Log Still Distillery","title":"Log Still Distillery","city":"New Haven","county":"Nelson","address":"1270 New Haven Rd, New Haven, KY","history":"Revival project tied to the historic Waterfill & Frazier name near New Haven on the Craft Tour.","description":"Revival project tied to the historic Waterfill & Frazier name near New Haven on the Craft Tour.","website":"https://www.logstilldistillery.com","founded_year":2021,"yearStart":2021,"yearEnd":2021,"trail_status":"kbt","layer":"distilleries"}},{"type":"Feature","geometry":{"type":"Point","coordinates":[-84.8273892,37.621527]},"properties":{"id":"wilderness-trail","name":"Wilderness Trail Distillery","title":"Wilderness Trail Distillery","city":"Danville","county":"Boyle","address":"4095 West Main Cross St, Danville, KY","history":"Danville distillery founded by Dr. Pat Heist and Shane Baker; known for sweet-mash fermentation science on the trail.","description":"Danville distillery founded by Dr. Pat Heist and Shane Baker; known for sweet-mash fermentation science on the trail.","website":"https://www.wildernesstrailbourbon.com","founded_year":2012,"yearStart":2012,"yearEnd":2012,"trail_status":"kbt","layer":"distilleries"}},{"type":"Feature","geometry":{"type":"Point","coordinates":[-85.2717956,37.5819153]},"properties":{"id":"limestone-branch","name":"Limestone Branch Distillery","title":"Limestone Branch Distillery","city":"Lebanon","county":"Marion","address":"1280 W Main St, Lebanon, KY","history":"Steve and Paul Beam's Marion County craft distillery; family lineage connects to early Beam history.","description":"Steve and Paul Beam's Marion County craft distillery; family lineage connects to early Beam history.","website":"https://www.limestonebranch.com","founded_year":2011,"yearStart":2011,"yearEnd":2011,"trail_status":"kbt","layer":"distilleries"}},{"type":"Feature","geometry":{"type":"Point","coordinates":[-84.2488501,38.2118555]},"properties":{"id":"hartfield","name":"Hartfield & Co.","title":"Hartfield & Co.","city":"Paris","county":"Bourbon","address":"108 E 5th St, Paris, KY","history":"Paris, Bourbon County craft distillery on the Bluegrass Craft Tour.","description":"Paris, Bourbon County craft distillery on the Bluegrass Craft Tour.","website":"https://hartfieldandco.com","founded_year":2014,"yearStart":2014,"yearEnd":2014,"trail_status":"kbt","layer":"distilleries"}},{"type":"Feature","geometry":{"type":"Point","coordinates":[-84.4888444,39.1006718]},"properties":{"id":"new-riff","name":"New Riff Distillery","title":"New Riff Distillery","city":"Newport","county":"Campbell","address":"24 Distillery Way, Newport, KY","history":"Newport distillery on the Licking River founded by the Jay and Brenda Preston / Ken Lewis circle; early Northern Kentucky craft flagship.","description":"Newport distillery on the Licking River founded by the Jay and Brenda Preston / Ken Lewis circle; early Northern Kentucky craft flagship.","website":"https://www.newriffdistilling.com","founded_year":2014,"yearStart":2014,"yearEnd":2014,"trail_status":"kbt","layer":"distilleries"}},{"type":"Feature","geometry":{"type":"Point","coordinates":[-84.4921247,39.0897216]},"properties":{"id":"pensive","name":"Pensive Distilling Co.","title":"Pensive Distilling Co.","city":"Newport","county":"Campbell","address":"13 E 6th St, Newport, KY","history":"Newport craft distillery named for the 1950s racehorse Pensive; Northern Craft Tour stop.","description":"Newport craft distillery named for the 1950s racehorse Pensive; Northern Craft Tour stop.","website":"https://pensivedistilling.com","founded_year":2021,"yearStart":2021,"yearEnd":2021,"trail_status":"kbt","layer":"distilleries"}},{"type":"Feature","geometry":{"type":"Point","coordinates":[-84.5484586,39.0934864]},"properties":{"id":"second-sight","name":"Second Sight Spirits","title":"Second Sight Spirits","city":"Ludlow","county":"Kenton","address":"251 Elm St, Ludlow, KY","history":"Ludlow craft distillery on the Ohio River corridor of Northern Kentucky.","description":"Ludlow craft distillery on the Ohio River corridor of Northern Kentucky.","website":"https://www.secondsightspirits.com","founded_year":2015,"yearStart":2015,"yearEnd":2015,"trail_status":"kbt","layer":"distilleries"}},{"type":"Feature","geometry":{"type":"Point","coordinates":[-84.6137473,38.9467629]},"properties":{"id":"boone-county","name":"Boone County Distilling Co.","title":"Boone County Distilling Co.","city":"Boone County","county":"Boone","address":"1800 Wampum Way, Walton, KY","history":"Boone County craft distillery playing on frontier Boone mythology for Northern Craft Tour visitors.","description":"Boone County craft distillery playing on frontier Boone mythology for Northern Craft Tour visitors.","website":"https://boonedistilling.com","founded_year":2015,"yearStart":2015,"yearEnd":2015,"trail_status":"kbt","layer":"distilleries"}},{"type":"Feature","geometry":{"type":"Point","coordinates":[-84.0075416,38.7737422]},"properties":{"id":"augusta","name":"Augusta Distillery","title":"Augusta Distillery","city":"Augusta","county":"Bracken","address":"107 W Riverside Dr, Augusta, KY","history":"River-town Bracken County craft stop on the Ohio River.","description":"River-town Bracken County craft stop on the Ohio River.","website":"https://www.augustadistillery.com","founded_year":2019,"yearStart":2019,"yearEnd":2019,"trail_status":"kbt","layer":"distilleries"}},{"type":"Feature","geometry":{"type":"Point","coordinates":[-83.7854335,38.6823766]},"properties":{"id":"old-pogue","name":"Old Pogue Distillery","title":"Old Pogue Distillery","city":"Maysville","county":"Mason","address":"716 W 2nd St, Maysville, KY","history":"Pogue family Maysville brand with 19th-century roots; modern revival overlooking the Ohio River.","description":"Pogue family Maysville brand with 19th-century roots; modern revival overlooking the Ohio River.","website":"https://oldpogue.com","founded_year":1876,"yearStart":1876,"yearEnd":1876,"trail_status":"kbt","layer":"distilleries"}},{"type":"Feature","geometry":{"type":"Point","coordinates":[-84.9452672,38.7069442]},"properties":{"id":"neeley","name":"Neeley Family Distillery","title":"Neeley Family Distillery","city":"Sparta","county":"Gallatin","address":"2995 Highway 467, Sparta, KY","history":"Gallatin County family craft distillery near Sparta on the Northern Craft Tour.","description":"Gallatin County family craft distillery near Sparta on the Northern Craft Tour.","website":"https://www.neeleyfamilydistillery.com","founded_year":2016,"yearStart":2016,"yearEnd":2016,"trail_status":"kbt","layer":"distilleries"}},{"type":"Feature","geometry":{"type":"Point","coordinates":[-87.1381263,37.7788485]},"properties":{"id":"green-river","name":"Green River Distilling Co.","title":"Green River Distilling Co.","city":"Owensboro","county":"Daviess","address":"10 Distillery Rd, Owensboro, KY","history":"Historic Owensboro plant (formerly Medley / O.Z. Tyler) revived as Green River; Western Kentucky Bourbon Trail stop.","description":"Historic Owensboro plant (formerly Medley / O.Z. Tyler) revived as Green River; Western Kentucky Bourbon Trail stop.","website":"https://www.greenriverdistilling.com","founded_year":1885,"yearStart":1885,"yearEnd":1885,"trail_status":"kbt","layer":"distilleries"}},{"type":"Feature","geometry":{"type":"Point","coordinates":[-85.9112292,37.7974654]},"properties":{"id":"boundary-oak","name":"Boundary Oak Distillery","title":"Boundary Oak Distillery","city":"Radcliff","county":"Hardin","address":"2000 Boundary Oak Dr, Radcliff, KY","history":"Hardin County craft distillery near Fort Knox on the Western Craft Tour.","description":"Hardin County craft distillery near Fort Knox on the Western Craft Tour.","website":"https://www.boundaryoakdistillery.com","founded_year":2013,"yearStart":2013,"yearEnd":2013,"trail_status":"kbt","layer":"distilleries"}},{"type":"Feature","geometry":{"type":"Point","coordinates":[-87.2765522,37.2442761]},"properties":{"id":"the-bard","name":"The Bard Distillery","title":"The Bard Distillery","city":"Graham","county":"Muhlenberg","address":"20 Distillery Rd, Graham, KY","history":"Muhlenberg County craft destination on the Western Craft Tour.","description":"Muhlenberg County craft destination on the Western Craft Tour.","website":"https://www.thebarddistillery.com","founded_year":2018,"yearStart":2018,"yearEnd":2018,"trail_status":"kbt","layer":"distilleries"}},{"type":"Feature","geometry":{"type":"Point","coordinates":[-87.5545333,36.9127683]},"properties":{"id":"casey-jones","name":"Casey Jones Distillery","title":"Casey Jones Distillery","city":"Hopkinsville","county":"Christian","address":"401 Kentucky 91, Hopkinsville, KY","history":"Christian County craft distillery known for a copper 'Little Man' still story on the Western Craft Tour.","description":"Christian County craft distillery known for a copper 'Little Man' still story on the Western Craft Tour.","website":"https://caseyjonesdistillery.com","founded_year":2014,"yearStart":2014,"yearEnd":2014,"trail_status":"kbt","layer":"distilleries"}},{"type":"Feature","geometry":{"type":"Point","coordinates":[-87.3916269,36.698254]},"properties":{"id":"mb-roland","name":"MB Roland Distillery","title":"MB Roland Distillery","city":"Pembroke","county":"Christian","address":"3300 Ashberry Rd, Pembroke, KY","history":"Early Western Kentucky craft distillery in Christian County using local grains.","description":"Early Western Kentucky craft distillery in Christian County using local grains.","website":"https://mbrdistillery.com","founded_year":2009,"yearStart":2009,"yearEnd":2009,"trail_status":"kbt","layer":"distilleries"}},{"type":"Feature","geometry":{"type":"Point","coordinates":[-86.5723814,36.7063153]},"properties":{"id":"dueling-grounds","name":"Dueling Grounds Distillery","title":"Dueling Grounds Distillery","city":"Franklin","county":"Simpson","address":"450 N Main St, Franklin, KY","history":"Simpson County craft stop near the Tennessee line; named for historic dueling lore.","description":"Simpson County craft stop near the Tennessee line; named for historic dueling lore.","website":"https://duelinggroundsdistillery.com","founded_year":2018,"yearStart":2018,"yearEnd":2018,"trail_status":"kbt","layer":"distilleries"}},{"type":"Feature","geometry":{"type":"Point","coordinates":[-85.4634507,38.3275041]},"properties":{"id":"kentucky-artisan","name":"Kentucky Artisan Distillery","title":"Kentucky Artisan Distillery","city":"Crestwood","county":"Oldham","address":"6230 Old LaGrange Rd, Crestwood, KY 40014","history":"Farm-to-bottle craft distillery on Oldham County farmland and longtime home of Jefferson's Bourbon contract production. A Kentucky Bourbon Trail stop with tours, tastings, and the KAD Clubhouse barrel experience beside Waldeck Farm grain.","description":"Farm-to-bottle craft distillery on Oldham County farmland and longtime home of Jefferson's Bourbon contract production. A Kentucky Bourbon Trail stop with tours, tastings, and the KAD Clubhouse barrel experience beside Waldeck Farm grain.","website":"https://kentuckyartisandistillery.com/","founded_year":2009,"yearStart":2009,"yearEnd":2009,"trail_status":"kbt","layer":"distilleries"}},{"type":"Feature","geometry":{"type":"Point","coordinates":[-85.7521895,38.2562879]},"properties":{"id":"pursuit-spirits","name":"Pursuit Spirits","title":"Pursuit Spirits","city":"Louisville","county":"Jefferson","address":"111 W Main St, Louisville, KY 40202","history":"Downtown Louisville / Whiskey Row Kentucky Bourbon Trail newcomer (joined July 2026) emphasizing small-batch bourbon experiences in the urban tourism corridor.","description":"Downtown Louisville / Whiskey Row Kentucky Bourbon Trail newcomer (joined July 2026) emphasizing small-batch bourbon experiences in the urban tourism corridor.","website":"https://pursuitspirits.com/","founded_year":2024,"yearStart":2024,"yearEnd":2024,"trail_status":"kbt","layer":"distilleries"}},{"type":"Feature","geometry":{"type":"Point","coordinates":[-85.7482846,38.2548082]},"properties":{"id":"uncle-boojies","name":"Uncle Boojie's Distilling Co.","title":"Uncle Boojie's Distilling Co.","city":"Louisville","county":"Jefferson","address":"Whiskey Row, Louisville, KY 40202","history":"Louisville Kentucky Bourbon Trail addition welcomed in July 2026, expanding downtown Whiskey Row visitor options with a family-branded craft distilling experience.","description":"Louisville Kentucky Bourbon Trail addition welcomed in July 2026, expanding downtown Whiskey Row visitor options with a family-branded craft distilling experience.","website":"https://uncleboojies.com/","founded_year":2025,"yearStart":2025,"yearEnd":2025,"trail_status":"kbt","layer":"distilleries"}},{"type":"Feature","geometry":{"type":"Point","coordinates":[-85.966345,37.1425949]},"properties":{"id":"cave-city-distilling","name":"Cave City Distilling Company","title":"Cave City Distilling Company","city":"Cave City","county":"Barren","address":"Cave City, KY 42127","history":"South-central Kentucky Bourbon Trail stop on the I-65 corridor near Mammoth Cave (rebranded from Balance Distillery). Adds a visitor pin for Barren County bourbon tourism between Louisville and Nashville.","description":"South-central Kentucky Bourbon Trail stop on the I-65 corridor near Mammoth Cave (rebranded from Balance Distillery). Adds a visitor pin for Barren County bourbon tourism between Louisville and Nashville.","website":"https://www.cavecitydistilling.com/","founded_year":2010,"yearStart":2010,"yearEnd":2010,"trail_status":"kbt","layer":"distilleries"}},{"type":"Feature","geometry":{"type":"Point","coordinates":[-86.4435,36.992]},"properties":{"id":"purple-toad","name":"Purple Toad Winery & Distillery","title":"Purple Toad Winery & Distillery","city":"Bowling Green","county":"Warren","address":"1516 Westen St, Bowling Green, KY 42101","history":"Bowling Green winery that expanded into spirits and joined the Kentucky Bourbon Trail in 2026, giving Warren County an official trail tasting-room destination alongside Corvette and WKU tourism.","description":"Bowling Green winery that expanded into spirits and joined the Kentucky Bourbon Trail in 2026, giving Warren County an official trail tasting-room destination alongside Corvette and WKU tourism.","website":"https://purpletoadwinery.com/","founded_year":2012,"yearStart":2012,"yearEnd":2012,"trail_status":"kbt","layer":"distilleries"}},{"type":"Feature","geometry":{"type":"Point","coordinates":[-85.5965,37.901]},"properties":{"id":"four-roses-warehouse","name":"Four Roses Warehouse & Bottling Facility","title":"Four Roses Warehouse & Bottling Facility","city":"Cox's Creek","county":"Nelson","address":"624 Lotus Rd, Coxs Creek, KY 40013","history":"Four Roses' historic Cox's Creek campus for warehousing and bottling—paired with the Lawrenceburg distillery as a dual Kentucky Bourbon Trail experience focused on maturation and packaging.","description":"Four Roses' historic Cox's Creek campus for warehousing and bottling—paired with the Lawrenceburg distillery as a dual Kentucky Bourbon Trail experience focused on maturation and packaging.","website":"https://fourrosesbourbon.com/","founded_year":1910,"yearStart":1910,"yearEnd":1910,"trail_status":"kbt","layer":"distilleries"}},{"type":"Feature","geometry":{"type":"Point","coordinates":[-84.8458183,38.146348]},"properties":{"id":"glenns-creek","name":"Glenns Creek Distilling","title":"Glenns Creek Distilling","city":"Frankfort","county":"Franklin","address":"3501 McCracken Pike, Frankfort, KY 40601","history":"Independent craft operation on the historic Old Crow Distillery grounds along Glenn's Creek. Distiller-led tastings and grounds walks emphasize the 1870s campus legacy rather than a scripted mega-tour.","description":"Independent craft operation on the historic Old Crow Distillery grounds along Glenn's Creek. Distiller-led tastings and grounds walks emphasize the 1870s campus legacy rather than a scripted mega-tour.","website":"https://glennscreekdistillery.com/","founded_year":2015,"yearStart":2015,"yearEnd":2015,"trail_status":"independent","layer":"distilleries"}},{"type":"Feature","geometry":{"type":"Point","coordinates":[-84.8646259,38.2137389]},"properties":{"id":"j-mattingly-1845","name":"J. Mattingly 1845 Distillery","title":"J. Mattingly 1845 Distillery","city":"Frankfort","county":"Franklin","address":"20 Reilly Rd, Frankfort, KY 40601","history":"Seventh-generation Mattingly family craft distillery near Buffalo Trace offering hands-on barrel thieving and custom bottle blending—a distinctive Frankfort independent experience.","description":"Seventh-generation Mattingly family craft distillery near Buffalo Trace offering hands-on barrel thieving and custom bottle blending—a distinctive Frankfort independent experience.","website":"https://www.jmattingly1845.com/","founded_year":2019,"yearStart":2019,"yearEnd":2019,"trail_status":"independent","layer":"distilleries"}},{"type":"Feature","geometry":{"type":"Point","coordinates":[-85.778,38.235]},"properties":{"id":"heaven-hill-bernheim","name":"Heaven Hill Bernheim Distillery","title":"Heaven Hill Bernheim Distillery","city":"Louisville","county":"Jefferson","address":"1701 West Breckinridge St, Louisville, KY 40210","history":"Heaven Hill's primary Louisville production campus (Bernheim), complementing the Bardstown Bourbon Experience visitor center. Historic stillhouse campus producing many Heaven Hill labels after the 1996 Bardstown fire.","description":"Heaven Hill's primary Louisville production campus (Bernheim), complementing the Bardstown Bourbon Experience visitor center. Historic stillhouse campus producing many Heaven Hill labels after the 1996 Bardstown fire.","website":"https://heavenhilldistillery.com/","founded_year":1999,"yearStart":1999,"yearEnd":1999,"trail_status":"independent","layer":"distilleries"}}]}