{"type":"FeatureCollection","features":[{"type":"Feature","geometry":{"type":"Point","coordinates":[-87.0460833,37.2197333]},"properties":{"id":"airdrie-furnace","name":"Airdrie Furnace Site","title":"Airdrie Furnace Site","city":"Drakesboro","county":"Muhlenberg","address":"Drakesboro, US 431","history":"Robert Alexander built a 55-foot furnace and stone machinery house in 1855 and brought Scottish workers unfamiliar with American ores; the works never produced salable iron. The failed industrial town of Airdrie later became home to Union Gen. Don Carlos Buell after the Civil War.","description":"Robert Alexander built a 55-foot furnace and stone machinery house in 1855 and brought Scottish workers unfamiliar with American ores; the works never produced salable iron. The failed industrial town of Airdrie later became home to Union Gen. Don Carlos Buell after the Civil War.","website":"https://history.ky.gov/markers/airdrie-furnace-site","industry_type":"furnace","built_year":1855,"yearStart":1855,"yearEnd":1855,"marker_number":"1086","layer":"industry"}},{"type":"Feature","geometry":{"type":"Point","coordinates":[-82.68305,38.5154833]},"properties":{"id":"amanda-furnace-greenup","name":"Amanda Furnace","title":"Amanda Furnace","city":"Raceland","county":"Greenup","address":"Approx. 1 mi. W. of Boyd Co. line, US 23","history":"Hanging Rock iron furnace site along US 23 near the Boyd County line, interpreted by KHS. Part of the dense Greenup–Boyd furnace corridor that made the Ohio River shore a nineteenth-century iron landscape.","description":"Hanging Rock iron furnace site along US 23 near the Boyd County line, interpreted by KHS. Part of the dense Greenup–Boyd furnace corridor that made the Ohio River shore a nineteenth-century iron landscape.","industry_type":"furnace","marker_number":"1142","layer":"industry"}},{"type":"Feature","geometry":{"type":"Point","coordinates":[-83.5230333,37.9843167]},"properties":{"id":"beaver-dam-furnace","name":"Beaver Dam Furnace","title":"Beaver Dam Furnace","city":"Scranton","county":"Menifee","address":"Scranton, KY 1274","history":"Menifee County iron furnace site near Scranton on KY 1274. Extends the Red River / eastern Kentucky iron story into the hills of Menifee County with a mappable KHS-marked POI.","description":"Menifee County iron furnace site near Scranton on KY 1274. Extends the Red River / eastern Kentucky iron story into the hills of Menifee County with a mappable KHS-marked POI.","website":"https://history.ky.gov/markers/beaver-dam-furnace","industry_type":"furnace","marker_number":"1120","layer":"industry"}},{"type":"Feature","geometry":{"type":"Point","coordinates":[-82.6880167,38.49195]},"properties":{"id":"bellefonte-furnace","name":"Bellefonte Furnace","title":"Bellefonte Furnace","city":"Bellefonte","county":"Greenup","address":"Greenup-Boyd Co. line, KY 5","history":"Among the most successful pioneer Kentucky charcoal furnaces in the Hanging Rock Iron Region. Built 1826 by Archibald Paull, George Poague and partners; it produced thousands of tons annually into the 1870s and operated until 1893, leaving a massive slag heap.","description":"Among the most successful pioneer Kentucky charcoal furnaces in the Hanging Rock Iron Region. Built 1826 by Archibald Paull, George Poague and partners; it produced thousands of tons annually into the 1870s and operated until 1893, leaving a massive slag heap.","website":"https://history.ky.gov/markers/bellefonte-furnace","industry_type":"furnace","built_year":1826,"yearStart":1826,"yearEnd":1826,"marker_number":"1020","layer":"industry"}},{"type":"Feature","geometry":{"type":"Point","coordinates":[-85.69895,37.8927167]},"properties":{"id":"belmont-furnace","name":"Belmont Furnace","title":"Belmont Furnace","city":"Belmont","county":"Bullitt","address":"KY 61 & Pioneer Dr., Belmont","history":"Bullitt County iron furnace site at Belmont along KY 61. Part of the Salt River / Bullitt iron cluster that served central Kentucky markets in the nineteenth century.","description":"Bullitt County iron furnace site at Belmont along KY 61. Part of the Salt River / Bullitt iron cluster that served central Kentucky markets in the nineteenth century.","industry_type":"furnace","marker_number":"1136","layer":"industry"}},{"type":"Feature","geometry":{"type":"Point","coordinates":[-83.7475,38.1144]},"properties":{"id":"bourbon-iron-works","name":"Bourbon Iron Works (Slate Furnace)","title":"Bourbon Iron Works (Slate Furnace)","city":"Owingsville","county":"Bath","address":"3 mi. S. of Owingsville, KY 36, 965","history":"Jacob Myers took land on Slate Creek in 1782 and built Kentucky’s first iron blast furnace here in 1791; John Cockey Owings and partners later operated it. The works supplied settlers and later munitions, including shot for the U.S. Navy and the War of 1812–New Orleans campaigns, with last blast about 1838.","description":"Jacob Myers took land on Slate Creek in 1782 and built Kentucky’s first iron blast furnace here in 1791; John Cockey Owings and partners later operated it. The works supplied settlers and later munitions, including shot for the U.S. Navy and the War of 1812–New Orleans campaigns, with last blast about 1838.","website":"https://history.ky.gov/markers/bourbon-iron-works","industry_type":"furnace","built_year":1791,"yearStart":1791,"yearEnd":1791,"marker_number":"993","layer":"industry"}},{"type":"Feature","geometry":{"type":"Point","coordinates":[-82.7606,38.4008667]},"properties":{"id":"buena-vista-furnace","name":"Buena Vista Furnace","title":"Buena Vista Furnace","city":"Ashland","county":"Boyd","address":"KY 5 at Straight Creek Rd., near Ashland","history":"Charcoal furnace built 1847 by William Foster & Co. and named for the Mexican War battle that year. A major Hanging Rock iron producer until dismantled in 1876, it made over 4,000 tons in 1874 from a 40-foot stone stack.","description":"Charcoal furnace built 1847 by William Foster & Co. and named for the Mexican War battle that year. A major Hanging Rock iron producer until dismantled in 1876, it made over 4,000 tons in 1874 from a 40-foot stone stack.","website":"https://history.ky.gov/markers/buena-vista-furnace","industry_type":"furnace","built_year":1847,"yearStart":1847,"yearEnd":1847,"marker_number":"1010","layer":"industry"}},{"type":"Feature","geometry":{"type":"Point","coordinates":[-82.8878,38.4797]},"properties":{"id":"buffalo-furnace","name":"Buffalo Furnace","title":"Buffalo Furnace","city":"Greenup","county":"Greenup","address":"Entrance to Greenbo Lake Park, KY 1","history":"Major Hanging Rock charcoal furnace (1851–75) and an important Union Army iron supplier in the Civil War. Built by H. Hollister and Ross with a steam air blast, it employed about 150 men and shipped pig iron by Ohio River steamboat; ruins stand near Greenbo Lake State Resort Park.","description":"Major Hanging Rock charcoal furnace (1851–75) and an important Union Army iron supplier in the Civil War. Built by H. Hollister and Ross with a steam air blast, it employed about 150 men and shipped pig iron by Ohio River steamboat; ruins stand near Greenbo Lake State Resort Park.","website":"https://history.ky.gov/markers/buffalo-furnance","industry_type":"furnace","built_year":1851,"yearStart":1851,"yearEnd":1851,"marker_number":"976","layer":"industry"}},{"type":"Feature","geometry":{"type":"Point","coordinates":[-83.5774833,38.1330167]},"properties":{"id":"caney-furnace","name":"Caney Furnace","title":"Caney Furnace","city":"Midland","county":"Bath","address":"Midland, Old River Rd., US 60","history":"Stone stack built 1837–38 by Harrison Connor and Joshua Ewing Sr., among the first iron furnaces west of the Alleghenies fitted with a hot-blast oven to preheat air. Charcoal-fueled and steam-powered, it ran into the late 1840s and briefly again in 1857–58.","description":"Stone stack built 1837–38 by Harrison Connor and Joshua Ewing Sr., among the first iron furnaces west of the Alleghenies fitted with a hot-blast oven to preheat air. Charcoal-fueled and steam-powered, it ran into the late 1840s and briefly again in 1857–58.","website":"https://history.ky.gov/markers/caney-furnace","industry_type":"furnace","built_year":1837,"yearStart":1837,"yearEnd":1837,"marker_number":"1226","layer":"industry"}},{"type":"Feature","geometry":{"type":"Point","coordinates":[-82.74675,38.5416833]},"properties":{"id":"caroline-furnace","name":"Caroline Furnace","title":"Caroline Furnace","city":"Raceland","county":"Greenup","address":"4 mi. W. of Raceland city limits, US 23 at Caroline Furnace Rd.","history":"Greenup County Hanging Rock furnace site on US 23 west of Raceland. The KHS marker preserves the place-name of another charcoal-era stack along the Ohio River iron corridor.","description":"Greenup County Hanging Rock furnace site on US 23 west of Raceland. The KHS marker preserves the place-name of another charcoal-era stack along the Ohio River iron corridor.","industry_type":"furnace","marker_number":"1132","layer":"industry"}},{"type":"Feature","geometry":{"type":"Point","coordinates":[-87.9388833,36.8976333]},"properties":{"id":"center-furnace-trigg","name":"Center Furnace","title":"Center Furnace","city":"Cadiz","county":"Trigg","address":"71/2 mi. NW of Cadiz, KY 274","history":"Western Kentucky iron furnace on KY 274 northwest of Cadiz in the Land Between the Lakes iron district. KHS marks Center Furnace among Trigg County stacks that used Tennessee River–area ore and charcoal.","description":"Western Kentucky iron furnace on KY 274 northwest of Cadiz in the Land Between the Lakes iron district. KHS marks Center Furnace among Trigg County stacks that used Tennessee River–area ore and charcoal.","industry_type":"furnace","marker_number":"1366","layer":"industry"}},{"type":"Feature","geometry":{"type":"Point","coordinates":[-83.6157833,38.1177333]},"properties":{"id":"clear-creek-furnace","name":"Clear Creek / Bath Furnace","title":"Clear Creek / Bath Furnace","city":"Salt Lick","county":"Bath","address":"Salt Lick, US 60 at KY 211","history":"Charcoal stone stack built 1839 by W. A. Lane and W. S. Allen with steam air blast; iron went mainly into railway car wheels. Rebuilt as Bath Furnace in the early 1870s, it produced over 1,300 tons in 1874 before its last blast in 1875.","description":"Charcoal stone stack built 1839 by W. A. Lane and W. S. Allen with steam air blast; iron went mainly into railway car wheels. Rebuilt as Bath Furnace in the early 1870s, it produced over 1,300 tons in 1874 before its last blast in 1875.","website":"https://history.ky.gov/markers/clear-creek-furnace","industry_type":"furnace","built_year":1839,"yearStart":1839,"yearEnd":1839,"marker_number":"1050","layer":"industry"}},{"type":"Feature","geometry":{"type":"Point","coordinates":[-82.7044333,38.4174667]},"properties":{"id":"clinton-furnace","name":"Clinton Furnace","title":"Clinton Furnace","city":"Ashland","county":"Boyd","address":"US 60 at KY 538","history":"Hanging Rock Region charcoal/iron furnace interpreted by KHS marker along US 60 near KY 538. Part of the dense Boyd County furnace landscape that fed Ashland’s nineteenth-century iron trade along the Ohio River.","description":"Hanging Rock Region charcoal/iron furnace interpreted by KHS marker along US 60 near KY 538. Part of the dense Boyd County furnace landscape that fed Ashland’s nineteenth-century iron trade along the Ohio River.","website":"https://history.ky.gov/markers","industry_type":"furnace","marker_number":"1155","layer":"industry"}},{"type":"Feature","geometry":{"type":"Point","coordinates":[-83.914322,37.757394]},"properties":{"id":"cottage-furnace","name":"Cottage Furnace","title":"Cottage Furnace","city":"Irvine","county":"Estill","address":"Cottage Furnace Ruins Rd (FS 231), Daniel Boone National Forest, Estill County, KY","history":"Charcoal blast furnace built in 1856 in the Red River iron district; it operated into the early 1870s and shipped iron to the Clay City forge and rolling mill. The stone stack remains are a Daniel Boone National Forest interpretive stop on Kentucky’s Historic Ironworks auto tour. KHS marker 1056 interprets the site from KY 52/213.","description":"Charcoal blast furnace built in 1856 in the Red River iron district; it operated into the early 1870s and shipped iron to the Clay City forge and rolling mill. The stone stack remains are a Daniel Boone National Forest interpretive stop on Kentucky’s Historic Ironworks auto tour. KHS marker 1056 interprets the site from KY 52/213.","website":"https://www.fs.usda.gov/r08/danielboone/recreation/cottage-furnace-interpretive-site","industry_type":"furnace","built_year":1856,"yearStart":1856,"yearEnd":1856,"marker_number":"1056","layer":"industry"}},{"type":"Feature","geometry":{"type":"Point","coordinates":[-83.9211425,37.8606488]},"properties":{"id":"early-iron-works-clay-city","name":"Early Iron Works / Red River Iron Works (Clay City)","title":"Early Iron Works / Red River Iron Works (Clay City)","city":"Clay City","county":"Powell","address":"4541 Main St. at Red River Museum, Clay City","history":"Land bought for iron production in 1805 by Robert Clark Jr. and William Smith became Clark & Smith’s works, then the Red River Iron Works blast furnace (1808–1830). Later rebuilt as Estill Steam Furnace on another site; Clay City’s forge and rolling mill finished pig iron from the Estill furnaces.","description":"Land bought for iron production in 1805 by Robert Clark Jr. and William Smith became Clark & Smith’s works, then the Red River Iron Works blast furnace (1808–1830). Later rebuilt as Estill Steam Furnace on another site; Clay City’s forge and rolling mill finished pig iron from the Estill furnaces.","website":"https://history.ky.gov/markers/early-iron-works","industry_type":"furnace","built_year":1805,"yearStart":1805,"yearEnd":1805,"marker_number":"2015","layer":"industry"}},{"type":"Feature","geometry":{"type":"Point","coordinates":[-83.88412,37.70933]},"properties":{"id":"estill-steam-furnace","name":"Estill Steam Furnace","title":"Estill Steam Furnace","city":"Irvine","county":"Estill","address":"Estill Steam Furnace site vicinity, Estill County, KY (marker at KY 52 & 213)","history":"Stone charcoal furnace built about 1830 by Thomas Deye Owings, a leader of the Red River iron industry, with a steam-powered air blast unusual for its era. It produced nearly 2,000 tons of iron in 1872 and last blasted in 1874; pig iron went to Clay City forge and rolling mills. KHS marker 1055 and nearby ruins mark this key Red River district furnace.","description":"Stone charcoal furnace built about 1830 by Thomas Deye Owings, a leader of the Red River iron industry, with a steam-powered air blast unusual for its era. It produced nearly 2,000 tons of iron in 1872 and last blasted in 1874; pig iron went to Clay City forge and rolling mills. KHS marker 1055 and nearby ruins mark this key Red River district furnace.","industry_type":"furnace","built_year":1830,"yearStart":1830,"yearEnd":1830,"marker_number":"1055","layer":"industry"}},{"type":"Feature","geometry":{"type":"Point","coordinates":[-83.85246,37.73271]},"properties":{"id":"fitchburg-red-river-furnace","name":"Fitchburg / Red River Iron Furnace","title":"Fitchburg / Red River Iron Furnace","city":"Ravenna","county":"Estill","address":"1875 Fitchburg Rd (KY 975), Ravenna, KY 40472","history":"Dual-stack charcoal blast furnace designed by Fred Fitch and built 1868–69 by mason Sam Worthley for the Red River Iron Manufacturing Company. At about 81 feet it is among the largest charcoal iron furnaces ever built; it produced thousands of tons of pig iron around 1870 before closing in the mid-1870s. The standing stone ruins are an interpretive site in Daniel Boone National Forest and are listed on the National Register as the Red River Iron Furnace.","description":"Dual-stack charcoal blast furnace designed by Fred Fitch and built 1868–69 by mason Sam Worthley for the Red River Iron Manufacturing Company. At about 81 feet it is among the largest charcoal iron furnaces ever built; it produced thousands of tons of pig iron around 1870 before closing in the mid-1870s. The standing stone ruins are an interpretive site in Daniel Boone National Forest and are listed on the National Register as the Red River Iron Furnace.","website":"https://www.fs.usda.gov/r08/danielboone/recreation/fitchburg-furnace-interpretive-site","industry_type":"furnace","built_year":1868,"yearStart":1868,"yearEnd":1868,"marker_number":"1054","nrhp":"74000860","layer":"industry"}},{"type":"Feature","geometry":{"type":"Point","coordinates":[-82.8999,38.4146333]},"properties":{"id":"hopewell-furnace-greenup","name":"Hopewell Furnace (Greenup)","title":"Hopewell Furnace (Greenup)","city":"Hopewell","county":"Greenup","address":"Hopewell, KY 1","history":"Charcoal iron furnace site at Hopewell on KY 1 in Greenup County’s Hanging Rock district. KHS interprets the stack among the cluster of Greenup furnaces that shipped pig iron to the Ohio River.","description":"Charcoal iron furnace site at Hopewell on KY 1 in Greenup County’s Hanging Rock district. KHS interprets the stack among the cluster of Greenup furnaces that shipped pig iron to the Ohio River.","industry_type":"furnace","marker_number":"1143","layer":"industry"}},{"type":"Feature","geometry":{"type":"Point","coordinates":[-87.99795,36.7309333]},"properties":{"id":"laura-furnace","name":"Laura Furnace","title":"Laura Furnace","city":"Golden Pond","county":"Trigg","address":"6 mi. S. of Golden Pond, US 68","history":"Trigg County charcoal furnace site south of Golden Pond on US 68. One of the Land Between the Lakes–area iron works that illustrate western Kentucky’s nineteenth-century furnace belt.","description":"Trigg County charcoal furnace site south of Golden Pond on US 68. One of the Land Between the Lakes–area iron works that illustrate western Kentucky’s nineteenth-century furnace belt.","industry_type":"furnace","marker_number":"998","layer":"industry"}},{"type":"Feature","geometry":{"type":"Point","coordinates":[-82.8982333,38.4406]},"properties":{"id":"laurel-furnace","name":"Laurel Furnace","title":"Laurel Furnace","city":"Oldtown","county":"Greenup","address":"Oldtown, KY 1 & Laurel Creek Rd.","history":"Historic iron furnace at Oldtown in Greenup County, marked near KY 1 and Laurel Creek Road. Another Hanging Rock stack that reflects the county’s charcoal-iron boom of the mid-1800s.","description":"Historic iron furnace at Oldtown in Greenup County, marked near KY 1 and Laurel Creek Road. Another Hanging Rock stack that reflects the county’s charcoal-iron boom of the mid-1800s.","industry_type":"furnace","marker_number":"1019","layer":"industry"}},{"type":"Feature","geometry":{"type":"Point","coordinates":[-82.9311833,38.32835]},"properties":{"id":"mount-savage-furnace","name":"Mount Savage Furnace","title":"Mount Savage Furnace","city":"Grayson","county":"Carter","address":"E. of Grayson, Jct. US 60 & KY 1","history":"Famous Carter County iron furnace erected 1848 by R. M. Biggs and others; it operated about 37 years and averaged roughly 15 tons of pig iron daily, hauled by ox teams to the Ohio River. Iron went into rails, plows, cannon, and machinery until the last blast in 1885.","description":"Famous Carter County iron furnace erected 1848 by R. M. Biggs and others; it operated about 37 years and averaged roughly 15 tons of pig iron daily, hauled by ox teams to the Ohio River. Iron went into rails, plows, cannon, and machinery until the last blast in 1885.","website":"https://history.ky.gov/markers/mount-savage-furnance","industry_type":"furnace","built_year":1848,"yearStart":1848,"yearEnd":1848,"marker_number":"914","layer":"industry"}},{"type":"Feature","geometry":{"type":"Point","coordinates":[-85.639361,37.7288]},"properties":{"id":"nelson-furnace","name":"Nelson Furnace","title":"Nelson Furnace","city":"Nelsonville","county":"Nelson","address":"At mile marker 5.28 on KY 52, Nelsonville, KY (37.728800°N, 85.639361°W)","history":"Stone iron furnace site at Nelsonville on KY 52 in Nelson County. A tangible remnant of central Kentucky’s charcoal iron industry outside the better-known Hanging Rock and Red River districts.","description":"Stone iron furnace site at Nelsonville on KY 52 in Nelson County. A tangible remnant of central Kentucky’s charcoal iron industry outside the better-known Hanging Rock and Red River districts.","industry_type":"furnace","marker_number":"1113","layer":"industry"}},{"type":"Feature","geometry":{"type":"Point","coordinates":[-82.6305833,38.4742667]},"properties":{"id":"norton-furnace","name":"Norton Furnace","title":"Norton Furnace","city":"Ashland","county":"Boyd","address":"Winchester Ave. at 23rd St., Ashland, US 23, 60","history":"Iron-shell blast furnace built by Norton Iron Works in 1873, burning coal rather than charcoal, with a stack about 67 feet high. It produced more than 10,000 tons in 1874 and later operated under Armco, becoming one of the longest-lived Ashland-area furnaces.","description":"Iron-shell blast furnace built by Norton Iron Works in 1873, burning coal rather than charcoal, with a stack about 67 feet high. It produced more than 10,000 tons in 1874 and later operated under Armco, becoming one of the longest-lived Ashland-area furnaces.","website":"https://history.ky.gov/markers/norton-furnace","industry_type":"furnace","built_year":1873,"yearStart":1873,"yearEnd":1873,"marker_number":"1023","layer":"industry"}},{"type":"Feature","geometry":{"type":"Point","coordinates":[-82.8288,38.49015]},"properties":{"id":"pennsylvania-furnace","name":"Pennsylvania Furnace","title":"Pennsylvania Furnace","city":"Argillite","county":"Greenup","address":"8148 Eastern Kentucky Road, Argillite, KY (N 38° 29.409 W 082° 49.728)","history":"Hanging Rock Region furnace site near Argillite on the Eastern Kentucky Road corridor. KHS marker coordinates place visitors near the historic stack associated with Greenup County’s iron era.","description":"Hanging Rock Region furnace site near Argillite on the Eastern Kentucky Road corridor. KHS marker coordinates place visitors near the historic stack associated with Greenup County’s iron era.","industry_type":"furnace","marker_number":"1016","layer":"industry"}},{"type":"Feature","geometry":{"type":"Point","coordinates":[-82.6104667,38.09275]},"properties":{"id":"pioneer-furnace-lawrence","name":"Pioneer Furnace","title":"Pioneer Furnace","city":"Louisa","county":"Lawrence","address":"US 23, S. of Louisa at Jct. of KY 644","history":"Lawrence County iron furnace site on US 23 south of Louisa. Extends the eastern Kentucky / Hanging Rock iron story into the Big Sandy valley with a clear roadside marker POI.","description":"Lawrence County iron furnace site on US 23 south of Louisa. Extends the eastern Kentucky / Hanging Rock iron story into the Big Sandy valley with a clear roadside marker POI.","industry_type":"furnace","marker_number":"1354","layer":"industry"}},{"type":"Feature","geometry":{"type":"Point","coordinates":[-82.74565,38.3877167]},"properties":{"id":"princess-furnace","name":"Princess Furnace","title":"Princess Furnace","city":"Princess","county":"Boyd","address":"Princess, KY 5","history":"Iron-jacketed stack built 1876–77 for Thomas W. Means, a dominant Hanging Rock ironmaster for half a century. It burned coal after nearby Buena Vista exhausted charcoal timber on thousands of acres; last blast was 1878.","description":"Iron-jacketed stack built 1876–77 for Thomas W. Means, a dominant Hanging Rock ironmaster for half a century. It burned coal after nearby Buena Vista exhausted charcoal timber on thousands of acres; last blast was 1878.","website":"https://history.ky.gov/markers/princess-furnace","industry_type":"furnace","built_year":1876,"yearStart":1876,"yearEnd":1876,"marker_number":"1135","layer":"industry"}},{"type":"Feature","geometry":{"type":"Point","coordinates":[-82.8402167,38.5751667]},"properties":{"id":"raccoon-furnace","name":"Raccoon Furnace","title":"Raccoon Furnace","city":"Greenup","county":"Greenup","address":"Greenup, US 23 at KY 2","history":"Iron furnace site interpreted at Greenup along US 23 / KY 2. One of several Greenup County Hanging Rock furnaces that turned local ore and charcoal into pig iron for river shipment.","description":"Iron furnace site interpreted at Greenup along US 23 / KY 2. One of several Greenup County Hanging Rock furnaces that turned local ore and charcoal into pig iron for river shipment.","industry_type":"furnace","marker_number":"1009","layer":"industry"}},{"type":"Feature","geometry":{"type":"Point","coordinates":[-85.7021,37.9277]},"properties":{"id":"salt-river-furnace","name":"Salt River Furnace","title":"Salt River Furnace","city":"Bardstown Junction","county":"Bullitt","address":"Beech Grove Rd. & KY 61, Bardstown Junction","history":"Historic blast furnace site near Bardstown Junction in Bullitt County. KHS interprets the furnace among the Salt River iron works that leveraged local ore and woodland charcoal.","description":"Historic blast furnace site near Bardstown Junction in Bullitt County. KHS interprets the furnace among the Salt River iron works that leveraged local ore and woodland charcoal.","industry_type":"furnace","marker_number":"1162","layer":"industry"}},{"type":"Feature","geometry":{"type":"Point","coordinates":[-82.6996,38.26275]},"properties":{"id":"sandy-furnace","name":"Sandy Furnace","title":"Sandy Furnace","city":"Catlettsburg","county":"Boyd","address":"KY 3 at KY 773","history":"Historic iron furnace site in Boyd County’s Hanging Rock district, marked at the KY 3 / KY 773 junction. One of several Boyd County stacks that supplied the Ohio River iron trade in the mid-to-late 1800s.","description":"Historic iron furnace site in Boyd County’s Hanging Rock district, marked at the KY 3 / KY 773 junction. One of several Boyd County stacks that supplied the Ohio River iron trade in the mid-to-late 1800s.","industry_type":"furnace","marker_number":"1131","layer":"industry"}},{"type":"Feature","geometry":{"type":"Point","coordinates":[-82.7998333,38.35315]},"properties":{"id":"star-furnace","name":"Star Furnace","title":"Star Furnace","city":"Rush","county":"Carter","address":"2 mi. W. of Boyd Co. line, US 60","history":"Built 1848 by A. McCullough and the Lampton Brothers; its stone stack burned coal rather than charcoal and had its own railroad spur. Production included 2,600 tons in 1866; last blast was 1874.","description":"Built 1848 by A. McCullough and the Lampton Brothers; its stone stack burned coal rather than charcoal and had its own railroad spur. Production included 2,600 tons in 1866; last blast was 1874.","website":"https://history.ky.gov/markers/star-furnace","industry_type":"furnace","built_year":1848,"yearStart":1848,"yearEnd":1848,"marker_number":"1018","layer":"industry"}},{"type":"Feature","geometry":{"type":"Point","coordinates":[-82.7837333,38.55025]},"properties":{"id":"steam-furnace-greenup","name":"Steam Furnace (Wurtland)","title":"Steam Furnace (Wurtland)","city":"Wurtland","county":"Greenup","address":"Wurtland, US 23 at KY 503 (N 38° 33.015 W 082° 47.024)","history":"Built by the Shreve Brothers in 1824, this was the first Hanging Rock Region blast furnace to drive blowing engines by steam instead of water power. The charcoal stack produced about three tons a day, mostly cast into utensils on site, and was abandoned after 1860.","description":"Built by the Shreve Brothers in 1824, this was the first Hanging Rock Region blast furnace to drive blowing engines by steam instead of water power. The charcoal stack produced about three tons a day, mostly cast into utensils on site, and was abandoned after 1860.","website":"https://history.ky.gov/markers/steam-furnace","industry_type":"furnace","built_year":1824,"yearStart":1824,"yearEnd":1824,"marker_number":"1008","layer":"industry"}},{"type":"Feature","geometry":{"type":"Point","coordinates":[-88.167,37.0492]},"properties":{"id":"suwanee-furnace","name":"Suwanee Furnace","title":"Suwanee Furnace","city":"Kuttawa","county":"Lyon","address":"11/2 mi. W. of Kuttawa, US 62, 641, at Jct. with Suwanee Road","history":"Lyon County iron furnace near Kuttawa in the western Kentucky furnace district. KHS places the Suwanee stack among the cluster of Lyon–Trigg–Livingston furnaces tied to Cumberland/Tennessee River trade.","description":"Lyon County iron furnace near Kuttawa in the western Kentucky furnace district. KHS places the Suwanee stack among the cluster of Lyon–Trigg–Livingston furnaces tied to Cumberland/Tennessee River trade.","industry_type":"furnace","marker_number":"1327","layer":"industry"}},{"type":"Feature","geometry":{"type":"Point","coordinates":[-87.5936833,37.8408667]},"properties":{"id":"audubon-mill-site","name":"Audubon Saw and Grist Mill Site","title":"Audubon Saw and Grist Mill Site","city":"Henderson","county":"Henderson","address":"Second & Water Sts., Henderson","history":"In 1816 John James Audubon and Thomas Bakewell built a steam-powered saw and grist mill on the Ohio River here; defective machinery and poor crops doomed it by 1819, after which Audubon turned fully to art. The mill later served as a tobacco warehouse before burning in 1913; the riverfront site is marked by KHS.","description":"In 1816 John James Audubon and Thomas Bakewell built a steam-powered saw and grist mill on the Ohio River here; defective machinery and poor crops doomed it by 1819, after which Audubon turned fully to art. The mill later served as a tobacco warehouse before burning in 1913; the riverfront site is marked by KHS.","website":"https://history.ky.gov/markers/audubon-saw-and-grist-mill","industry_type":"mill","built_year":1816,"yearStart":1816,"yearEnd":1816,"marker_number":"1645","layer":"industry"}},{"type":"Feature","geometry":{"type":"Point","coordinates":[-85.0589967,38.2588756]},"properties":{"id":"bagdad-roller-mill","name":"Bagdad Roller Mills","title":"Bagdad Roller Mills","city":"Bagdad","county":"Shelby","address":"5740 Elmburg Rd, Bagdad, KY 40003","history":"Independent grain and feed mill in continuous commercial operation in Bagdad since 1884, originally milling cornmeal and flour before shifting to livestock and equine feeds in the mid-twentieth century. Still a working elevator and feed manufacturer on Elmburg Road—an uncommon living example of a nineteenth-century Kentucky roller-mill business.","description":"Independent grain and feed mill in continuous commercial operation in Bagdad since 1884, originally milling cornmeal and flour before shifting to livestock and equine feeds in the mid-twentieth century. Still a working elevator and feed manufacturer on Elmburg Road—an uncommon living example of a nineteenth-century Kentucky roller-mill business.","website":"https://www.bagdadrollermillsfeed.com/","industry_type":"mill","built_year":1884,"yearStart":1884,"yearEnd":1884,"nrhp":false,"layer":"industry"}},{"type":"Feature","geometry":{"type":"Point","coordinates":[-84.6636167,37.5304167]},"properties":{"id":"baughman-mill","name":"Baughman Mill (Lincoln Mills)","title":"Baughman Mill (Lincoln Mills)","city":"Stanford","county":"Lincoln","address":"201 Mill St., Stanford","history":"Completed in 1881 as Lincoln Mills and later operated by the Baughman family as J. H. Baughman & Co., grinding flour, meal, and livestock feed until 1969. The standing mill building is a landmark of Stanford’s industrial Main/Mill Street corridor and is interpreted by KHS marker 2492.","description":"Completed in 1881 as Lincoln Mills and later operated by the Baughman family as J. H. Baughman & Co., grinding flour, meal, and livestock feed until 1969. The standing mill building is a landmark of Stanford’s industrial Main/Mill Street corridor and is interpreted by KHS marker 2492.","website":"https://history.ky.gov/markers/baughman-mill","industry_type":"mill","built_year":1881,"yearStart":1881,"yearEnd":1881,"marker_number":"2492","layer":"industry"}},{"type":"Feature","geometry":{"type":"Point","coordinates":[-84.0416394,37.0881612]},"properties":{"id":"mchargues-mill","name":"McHargue's Mill","title":"McHargue's Mill","city":"London","county":"Laurel","address":"Levi Jackson Wilderness Road State Park, London, KY","history":"Reconstructed water-powered gristmill at Levi Jackson Wilderness Road State Park interpreting frontier milling along the Wilderness Road corridor. A visitor-facing mill stop that pairs milling technology with Laurel County settlement history.","description":"Reconstructed water-powered gristmill at Levi Jackson Wilderness Road State Park interpreting frontier milling along the Wilderness Road corridor. A visitor-facing mill stop that pairs milling technology with Laurel County settlement history.","website":"https://en.wikipedia.org/wiki/Levi_Jackson_Wilderness_Road_Park","industry_type":"mill","layer":"industry"}},{"type":"Feature","geometry":{"type":"Point","coordinates":[-84.7787438,36.934077]},"properties":{"id":"mill-springs-mill","name":"Mill Springs Mill","title":"Mill Springs Mill","city":"Monticello","county":"Wayne","address":"9135 Highway 1275 N, Monticello, KY 42633","history":"Historic gristmill on Lake Cumberland dating to about 1817, later fitted with a famous ~40-foot overshot waterwheel (1908) and French burr stones still used for demonstration grindings. Operated seasonally by the U.S. Army Corps of Engineers with the Monticello Women’s Club gift shop—one of Kentucky’s best-preserved working historic mills.","description":"Historic gristmill on Lake Cumberland dating to about 1817, later fitted with a famous ~40-foot overshot waterwheel (1908) and French burr stones still used for demonstration grindings. Operated seasonally by the U.S. Army Corps of Engineers with the Monticello Women’s Club gift shop—one of Kentucky’s best-preserved working historic mills.","website":"https://en.wikipedia.org/wiki/Mill_Springs_Mill","industry_type":"mill","built_year":1817,"yearStart":1817,"yearEnd":1817,"nrhp":true,"layer":"industry"}},{"type":"Feature","geometry":{"type":"Point","coordinates":[-85.3497167,37.6475]},"properties":{"id":"old-grist-mill-loretto","name":"Old Grist Mill–Distillery Site (Loretto)","title":"Old Grist Mill–Distillery Site (Loretto)","city":"Loretto","county":"Marion","address":"At Distillery, approx. 10 mi. NW of Lebanon, KY 52","history":"Historic grist-mill site in Marion County interpreted by KHS as an early mill (later associated with distilling). Included as a milling POI rather than a bourbon-trail stop—the Distilleries layer covers active visitor distilleries.","description":"Historic grist-mill site in Marion County interpreted by KHS as an early mill (later associated with distilling). Included as a milling POI rather than a bourbon-trail stop—the Distilleries layer covers active visitor distilleries.","industry_type":"mill","marker_number":"1509","layer":"industry"}},{"type":"Feature","geometry":{"type":"Point","coordinates":[-84.63694,38.12611]},"properties":{"id":"weisenberger-mill","name":"Weisenberger Mill","title":"Weisenberger Mill","city":"Midway","county":"Scott","address":"2545 Weisenberger Mill Rd, Midway, KY 40347","history":"Oldest continuously operating grain mill in Kentucky: a mill has stood on South Elkhorn Creek since 1818, and the Weisenberger family has run it since 1865. Philip Weisenberger built the present poured-concrete mill in 1913 using crushed stone from the earlier mill; the NRHP district includes the mill, dam, elevator, and related buildings.","description":"Oldest continuously operating grain mill in Kentucky: a mill has stood on South Elkhorn Creek since 1818, and the Weisenberger family has run it since 1865. Philip Weisenberger built the present poured-concrete mill in 1913 using crushed stone from the earlier mill; the NRHP district includes the mill, dam, elevator, and related buildings.","website":"https://weisenberger.com/","industry_type":"mill","built_year":1913,"yearStart":1913,"yearEnd":1913,"nrhp":"84001987","layer":"industry"}},{"type":"Feature","geometry":{"type":"Point","coordinates":[-86.43806,37]},"properties":{"id":"bowling-green-ln-depot","name":"Bowling Green L&N Depot (Historic RailPark)","title":"Bowling Green L&N Depot (Historic RailPark)","city":"Bowling Green","county":"Warren","address":"401 Kentucky St, Bowling Green, KY 42101","history":"Third L&N passenger station for Bowling Green, opened 1925 and later serving Amtrak’s Floridian. Now the Historic RailPark & Train Museum with restored cars and exhibits in the historic depot (NRHP 1979)—one of Kentucky’s best visitor railroad depot experiences.","description":"Third L&N passenger station for Bowling Green, opened 1925 and later serving Amtrak’s Floridian. Now the Historic RailPark & Train Museum with restored cars and exhibits in the historic depot (NRHP 1979)—one of Kentucky’s best visitor railroad depot experiences.","website":"https://www.historicrailpark.com/","industry_type":"railroad_depot","built_year":1925,"yearStart":1925,"yearEnd":1925,"nrhp":"79003519","layer":"industry"}},{"type":"Feature","geometry":{"type":"Point","coordinates":[-84.029,38.3115167]},"properties":{"id":"carlisle-passenger-depot","name":"Carlisle Passenger Depot","title":"Carlisle Passenger Depot","city":"Carlisle","county":"Nicholas","address":"101 Market St., Carlisle","history":"L&N brick passenger depot built in 1912 after the original frame station burned. The Lexington & Maysville Railroad reached Carlisle by 1871; the depot was later acquired by the Nicholas County Historical Society, listed on the NRHP in 1979, and renovated as a local heritage site.","description":"L&N brick passenger depot built in 1912 after the original frame station burned. The Lexington & Maysville Railroad reached Carlisle by 1871; the depot was later acquired by the Nicholas County Historical Society, listed on the NRHP in 1979, and renovated as a local heritage site.","website":"https://history.ky.gov/markers/carlisle-passenger-depot","industry_type":"railroad_depot","built_year":1912,"yearStart":1912,"yearEnd":1912,"marker_number":"1764","nrhp":true,"layer":"industry"}},{"type":"Feature","geometry":{"type":"Point","coordinates":[-84.5987167,39.0182333]},"properties":{"id":"erlanger-depot","name":"Erlanger Depot","title":"Erlanger Depot","city":"Erlanger","county":"Kenton","address":"3319 Crescent Avenue, Erlanger","history":"Cincinnati Southern Railroad wooden depot opened in 1877—said to be the last wooden depot between Cincinnati and Chattanooga. After more than a century of service, the Erlanger Historical Society saved it from demolition; it has served as a museum since 1990.","description":"Cincinnati Southern Railroad wooden depot opened in 1877—said to be the last wooden depot between Cincinnati and Chattanooga. After more than a century of service, the Erlanger Historical Society saved it from demolition; it has served as a museum since 1990.","website":"https://history.ky.gov/markers/erlanger-depoterlanger-proper-subdivision","industry_type":"railroad_depot","built_year":1877,"yearStart":1877,"yearEnd":1877,"marker_number":"2154","layer":"industry"}},{"type":"Feature","geometry":{"type":"Point","coordinates":[-84.8749,38.19855]},"properties":{"id":"frankfort-union-station","name":"Frankfort Union Station","title":"Frankfort Union Station","city":"Frankfort","county":"Franklin","address":"Broadway & High St., Frankfort","history":"L&N-built union passenger station of 1908 that replaced an 1850s Lexington & Frankfort depot on the same site. Served C&O, L&N, Frankfort & Cincinnati, and other roads; the last scheduled passenger train was C&O’s George Washington on April 30, 1971. Still a landmark at Broadway and High in the capital.","description":"L&N-built union passenger station of 1908 that replaced an 1850s Lexington & Frankfort depot on the same site. Served C&O, L&N, Frankfort & Cincinnati, and other roads; the last scheduled passenger train was C&O’s George Washington on April 30, 1971. Still a landmark at Broadway and High in the capital.","website":"https://history.ky.gov/markers/frankfort-union-station","industry_type":"railroad_depot","built_year":1908,"yearStart":1908,"yearEnd":1908,"marker_number":"1955","layer":"industry"}},{"type":"Feature","geometry":{"type":"Point","coordinates":[-86.7471333,37.90175]},"properties":{"id":"hawesville-railroad-station","name":"Hawesville Railroad Station","title":"Hawesville Railroad Station","city":"Hawesville","county":"Hancock","address":"Hancock Co. Mus., Water St., Hawesville","history":"Louisville, St. Louis & Texas rails reached Hawesville in 1888; passenger service between Owensboro and Stephensport began that October and Evansville–Louisville service in 1889. The line later became part of the L&N; the station site is interpreted with the Hancock County Museum on Water Street.","description":"Louisville, St. Louis & Texas rails reached Hawesville in 1888; passenger service between Owensboro and Stephensport began that October and Evansville–Louisville service in 1889. The line later became part of the L&N; the station site is interpreted with the Hancock County Museum on Water Street.","website":"https://history.ky.gov/markers/hawesville-railroad-station","industry_type":"railroad_depot","built_year":1888,"yearStart":1888,"yearEnd":1888,"marker_number":"1856","layer":"industry"}},{"type":"Feature","geometry":{"type":"Point","coordinates":[-84.4955,38.0465]},"properties":{"id":"lexington-union-station-site","name":"Lexington Union Station (site)","title":"Lexington Union Station (site)","city":"Lexington","county":"Fayette","address":"Main St near Martin Luther King Blvd, Lexington, KY","history":"Union passenger station opened August 4, 1907 for C&O and L&N (Southern kept its Broadway depot). The brick rotunda station served Lexington travelers until the late 1950s and was demolished in 1960; the downtown Main Street site remains a key map pin for the city’s rail passenger era.","description":"Union passenger station opened August 4, 1907 for C&O and L&N (Southern kept its Broadway depot). The brick rotunda station served Lexington travelers until the late 1950s and was demolished in 1960; the downtown Main Street site remains a key map pin for the city’s rail passenger era.","website":"https://en.wikipedia.org/wiki/Lexington_Union_Station","industry_type":"railroad_depot","built_year":1907,"yearStart":1907,"yearEnd":1907,"nrhp":false,"layer":"industry"}},{"type":"Feature","geometry":{"type":"Point","coordinates":[-85.76889,38.24611]},"properties":{"id":"louisville-union-station","name":"Louisville Union Station","title":"Louisville Union Station","city":"Louisville","county":"Jefferson","address":"1000 W Broadway, Louisville, KY 40203","history":"Monumental Romanesque Revival L&N union station opened in 1891 and long claimed as one of the South’s largest railroad stations. Passenger service ended in the late 1970s; after restoration it houses TARC offices and remains a major Louisville railroad landmark on West Broadway (NRHP).","description":"Monumental Romanesque Revival L&N union station opened in 1891 and long claimed as one of the South’s largest railroad stations. Passenger service ended in the late 1970s; after restoration it houses TARC offices and remains a major Louisville railroad landmark on West Broadway (NRHP).","website":"https://en.wikipedia.org/wiki/Union_Station_(Louisville,_Kentucky)","industry_type":"railroad_depot","built_year":1891,"yearStart":1891,"yearEnd":1891,"nrhp":true,"layer":"industry"}},{"type":"Feature","geometry":{"type":"Point","coordinates":[-85.8910819,37.2722751]},"properties":{"id":"munfordville-depot-area","name":"Munfordville Railroad / Depot Area","title":"Munfordville Railroad / Depot Area","city":"Munfordville","county":"Hart","address":"Downtown Munfordville near L&N / Green River crossing, KY","history":"Munfordville’s railroad presence centered on the strategic L&N Green River crossing—critical in the Civil War and long a mainline Kentucky stop. Pair with the L&N Railroad Bridge pin for a Hart County rail stop.","description":"Munfordville’s railroad presence centered on the strategic L&N Green River crossing—critical in the Civil War and long a mainline Kentucky stop. Pair with the L&N Railroad Bridge pin for a Hart County rail stop.","industry_type":"railroad_depot","layer":"industry"}},{"type":"Feature","geometry":{"type":"Point","coordinates":[-85.593486,37.6572144]},"properties":{"id":"new-haven-depot-ky-railway-museum","name":"New Haven Depot / Kentucky Railway Museum","title":"New Haven Depot / Kentucky Railway Museum","city":"New Haven","county":"Nelson","address":"Ormsby Station, on Dorsey Lane at LaGrange Rd., Louisville","history":"Home of the Kentucky Railway Museum and L&N Steam Engine 152 (Kentucky’s official state locomotive), with historic station/track setting for excursions and exhibits. The museum began in 1954, moved here in 1977, and anchors one of the state’s premier railroad heritage POIs.","description":"Home of the Kentucky Railway Museum and L&N Steam Engine 152 (Kentucky’s official state locomotive), with historic station/track setting for excursions and exhibits. The museum began in 1954, moved here in 1977, and anchors one of the state’s premier railroad heritage POIs.","website":"https://www.kyrail.org/","industry_type":"railroad_depot","marker_number":"1720","nrhp":true,"layer":"industry"}},{"type":"Feature","geometry":{"type":"Point","coordinates":[-87.1126,37.7659333]},"properties":{"id":"owensboro-union-station","name":"Owensboro Union Station","title":"Owensboro Union Station","city":"Owensboro","county":"Daviess","address":"1035 Frederica, US 431, Owensboro","history":"Union passenger station built 1905–06 on the site of an earlier Louisville, Henderson & St. Louis depot by agreement of LH&StL, L&N, and Illinois Central. Designed by Hutchings and Hawes, it remains a major Frederica Street landmark of Owensboro’s railroad age.","description":"Union passenger station built 1905–06 on the site of an earlier Louisville, Henderson & St. Louis depot by agreement of LH&StL, L&N, and Illinois Central. Designed by Hutchings and Hawes, it remains a major Frederica Street landmark of Owensboro’s railroad age.","website":"https://history.ky.gov/markers/union-station","industry_type":"railroad_depot","built_year":1906,"yearStart":1906,"yearEnd":1906,"marker_number":"1746","layer":"industry"}},{"type":"Feature","geometry":{"type":"Point","coordinates":[-88.6321696,37.0703913]},"properties":{"id":"paducah-railroad-museum","name":"Paducah Railroad Museum","title":"Paducah Railroad Museum","city":"Paducah","county":"McCracken","address":"200 Washington St, Paducah, KY 42001","history":"Downtown museum dedicated to Paducah’s railroad heritage as a major Illinois Central and river-rail transfer city. A visitor-facing stop for western Kentucky rail history with exhibits on local lines, shops, and river-rail commerce.","description":"Downtown museum dedicated to Paducah’s railroad heritage as a major Illinois Central and river-rail transfer city. A visitor-facing stop for western Kentucky rail history with exhibits on local lines, shops, and river-rail commerce.","website":"https://www.paducahrr.org/","industry_type":"railroad_depot","layer":"industry"}},{"type":"Feature","geometry":{"type":"Point","coordinates":[-84.2502,38.2136]},"properties":{"id":"paris-railroad-depot","name":"Paris Railroad Depot District","title":"Paris Railroad Depot District","city":"Paris","county":"Bourbon","address":"Downtown Paris railroad corridor near 10th St, Paris, KY 40361","history":"Paris was a key Bluegrass railroad town on routes linking Lexington, Maysville, and Cincinnati. The historic depot/rail corridor near downtown remains a clear visitor POI for Bourbon County’s freight and passenger rail era.","description":"Paris was a key Bluegrass railroad town on routes linking Lexington, Maysville, and Cincinnati. The historic depot/rail corridor near downtown remains a clear visitor POI for Bourbon County’s freight and passenger rail era.","industry_type":"railroad_depot","layer":"industry"}},{"type":"Feature","geometry":{"type":"Point","coordinates":[-84.1746416,37.9961211]},"properties":{"id":"winchester-railroad-depot","name":"Winchester Depot District","title":"Winchester Depot District","city":"Winchester","county":"Clark","address":"Depot St / railroad corridor, Winchester, KY 40391","history":"Winchester was an L&N/C&O junction for Bluegrass and mountain trains, including connections noted in historic Lexington–eastern Kentucky schedules. The downtown depot corridor is a mappable Clark County railroad heritage stop.","description":"Winchester was an L&N/C&O junction for Bluegrass and mountain trains, including connections noted in historic Lexington–eastern Kentucky schedules. The downtown depot corridor is a mappable Clark County railroad heritage stop.","industry_type":"railroad_depot","layer":"industry"}},{"type":"Feature","geometry":{"type":"Point","coordinates":[-84.5086,39.0837]},"properties":{"id":"covington-railway-station-area","name":"Covington / Latonia Railroad Corridor","title":"Covington / Latonia Railroad Corridor","city":"Covington","county":"Kenton","address":"Madison Ave / railroad corridor, Covington, KY 41011","history":"Covington’s river-city rail corridor linked Cincinnati terminals with L&N and other Kentucky lines; nearby Latonia was a major rail and racing suburb. A northern Kentucky historic railroad POI complementary to Erlanger Depot.","description":"Covington’s river-city rail corridor linked Cincinnati terminals with L&N and other Kentucky lines; nearby Latonia was a major rail and racing suburb. A northern Kentucky historic railroad POI complementary to Erlanger Depot.","industry_type":"historic_railroad","layer":"industry"}},{"type":"Feature","geometry":{"type":"Point","coordinates":[-82.8298833,38.4913333]},"properties":{"id":"ek-railway-argillite","name":"E.K. Railway – Argillite","title":"E.K. Railway – Argillite","city":"Argillite","county":"Greenup","address":"KY 1 & 207, Argillite","history":"Greenup County stop on the Eastern Kentucky Railway corridor linking Ohio River towns to inland coal and furnace country. KHS marker at KY 1 & 207 interprets the line’s Argillite presence.","description":"Greenup County stop on the Eastern Kentucky Railway corridor linking Ohio River towns to inland coal and furnace country. KHS marker at KY 1 & 207 interprets the line’s Argillite presence.","industry_type":"historic_railroad","marker_number":"1978","layer":"industry"}},{"type":"Feature","geometry":{"type":"Point","coordinates":[-82.9451333,38.33305]},"properties":{"id":"eastern-kentucky-railway-grayson","name":"Eastern Kentucky Railway – Grayson","title":"Eastern Kentucky Railway – Grayson","city":"Grayson","county":"Carter","address":"Carol Malone Boulevard at city park, Grayson","history":"After the Civil War the E.K. Railway assembled large Little Sandy Valley landholdings; tracks reached Grayson by June 1871 with depot and repair shops here. Service ended in January 1933; the Grayson park marker interprets the line’s headquarters town.","description":"After the Civil War the E.K. Railway assembled large Little Sandy Valley landholdings; tracks reached Grayson by June 1871 with depot and repair shops here. Service ended in January 1933; the Grayson park marker interprets the line’s headquarters town.","website":"https://history.ky.gov/markers/eastern-kentucky-railway-2","industry_type":"historic_railroad","built_year":1871,"yearStart":1871,"yearEnd":1871,"marker_number":"2096","layer":"industry"}},{"type":"Feature","geometry":{"type":"Point","coordinates":[-82.8947333,38.2090333]},"properties":{"id":"eastern-kentucky-railway-willard","name":"Eastern Kentucky Railway – Willard","title":"Eastern Kentucky Railway – Willard","city":"Willard","county":"Carter","address":"Junction of KY 1 & 1496, Willard","history":"Willard junction marker for the Eastern Kentucky Railway in Carter County’s Little Sandy coal and timber country. Complements the Grayson shops/depot story with a clear rural junction POI on KY 1.","description":"Willard junction marker for the Eastern Kentucky Railway in Carter County’s Little Sandy coal and timber country. Complements the Grayson shops/depot story with a clear rural junction POI on KY 1.","industry_type":"historic_railroad","marker_number":"2301","layer":"industry"}},{"type":"Feature","geometry":{"type":"Point","coordinates":[-84.3907333,38.2153833]},"properties":{"id":"frankfort-cincinnati-railroad","name":"Frankfort and Cincinnati Railroad","title":"Frankfort and Cincinnati Railroad","city":"Georgetown","county":"Scott","address":"206 Russell Cave Rd., Georgetown","history":"Short-line railroad that linked Frankfort and Cincinnati-region connections through the Bluegrass; KHS marker in Georgetown interprets the F&C. Complements Frankfort Union Station as a capital-region rail story.","description":"Short-line railroad that linked Frankfort and Cincinnati-region connections through the Bluegrass; KHS marker in Georgetown interprets the F&C. Complements Frankfort Union Station as a capital-region rail story.","industry_type":"historic_railroad","marker_number":"2408","layer":"industry"}},{"type":"Feature","geometry":{"type":"Point","coordinates":[-84.5653244,38.2191505]},"properties":{"id":"georgetown-railroad-area","name":"Georgetown Railroad Heritage Area","title":"Georgetown Railroad Heritage Area","city":"Georgetown","county":"Scott","address":"Downtown Georgetown railroad corridor, Georgetown, KY","history":"Georgetown sits on historic Bluegrass rail routes and is tied to the Frankfort & Cincinnati Railroad marker corridor. A Scott County rail POI near Weisenberger Mill for car-trip layering.","description":"Georgetown sits on historic Bluegrass rail routes and is tied to the Frankfort & Cincinnati Railroad marker corridor. A Scott County rail POI near Weisenberger Mill for car-trip layering.","industry_type":"historic_railroad","marker_number":"2408","layer":"industry"}},{"type":"Feature","geometry":{"type":"Point","coordinates":[-85.8872333,37.2698833]},"properties":{"id":"ln-railroad-bridge-munfordville","name":"L&N Railroad Bridge (Green River)","title":"L&N Railroad Bridge (Green River)","city":"Munfordville","county":"Hart","address":"KY 31W at Green River Bridge","history":"Historic L&N crossing of the Green River at Munfordville—strategically vital in the Civil War and a lasting landmark of Kentucky’s main north–south rail corridor. KHS interprets the bridge as a Hart County railroad POI.","description":"Historic L&N crossing of the Green River at Munfordville—strategically vital in the Civil War and a lasting landmark of Kentucky’s main north–south rail corridor. KHS interprets the bridge as a Hart County railroad POI.","industry_type":"historic_railroad","marker_number":"2160","layer":"industry"}},{"type":"Feature","geometry":{"type":"Point","coordinates":[-84.8152833,38.1884]},"properties":{"id":"lexington-ohio-rr","name":"Lexington & Ohio Railroad (first RR west of Alleghenies)","title":"Lexington & Ohio Railroad (first RR west of Alleghenies)","city":"Frankfort","county":"Franklin","address":"Near Industrial Park, US 421, Frankfort","history":"Site associated with the first railroad west of the Alleghenies, built 1833–34 with flat iron rails pinned to limestone blocks. The 23-mile Lexington–Frankfort run took about four hours and launched Kentucky’s railroad age.","description":"Site associated with the first railroad west of the Alleghenies, built 1833–34 with flat iron rails pinned to limestone blocks. The 23-mile Lexington–Frankfort run took about four hours and launched Kentucky’s railroad age.","website":"https://history.ky.gov/markers/lexington-ohio-rr","industry_type":"historic_railroad","built_year":1833,"yearStart":1833,"yearEnd":1833,"marker_number":"69","layer":"industry"}},{"type":"Feature","geometry":{"type":"Point","coordinates":[-85.7419333,38.2303167]},"properties":{"id":"shelby-streetcar-barn","name":"Shelby Street Streetcar Barn","title":"Shelby Street Streetcar Barn","city":"Louisville","county":"Jefferson","address":"1303 South Shelby St., Louisville","history":"By 1895 this site was a Louisville City Railway car barn as electric cars replaced mule cars. Streetcars were Louisville’s main mass transit from 1864 into the late 1920s; the last streetcar ran on Derby Day 1948. The barn marks the Shelby Street line’s industrial footprint.","description":"By 1895 this site was a Louisville City Railway car barn as electric cars replaced mule cars. Streetcars were Louisville’s main mass transit from 1864 into the late 1920s; the last streetcar ran on Derby Day 1948. The barn marks the Shelby Street line’s industrial footprint.","website":"https://history.ky.gov/markers/shelby-st-streetcar-barn","industry_type":"historic_railroad","built_year":1895,"yearStart":1895,"yearEnd":1895,"marker_number":"2482","layer":"industry"}},{"type":"Feature","geometry":{"type":"Point","coordinates":[-82.6305833,38.4742667]},"properties":{"id":"ashland-works-armco","name":"Ashland Iron & Steel / Armco Works Area","title":"Ashland Iron & Steel / Armco Works Area","city":"Ashland","county":"Boyd","address":"Winchester Ave. at 23rd St., Ashland, US 23, 60","history":"Ashland’s riverfront iron and steel works grew from Hanging Rock charcoal furnaces into modern steelmaking under Norton Iron Works and later Armco. The Winchester Avenue industrial corridor—marked by furnace markers such as Norton—anchors northeastern Kentucky’s steel manufacturing heritage.","description":"Ashland’s riverfront iron and steel works grew from Hanging Rock charcoal furnaces into modern steelmaking under Norton Iron Works and later Armco. The Winchester Avenue industrial corridor—marked by furnace markers such as Norton—anchors northeastern Kentucky’s steel manufacturing heritage.","industry_type":"manufacturing","built_year":1920,"yearStart":1920,"yearEnd":1920,"marker_number":"1023","layer":"industry"}},{"type":"Feature","geometry":{"type":"Point","coordinates":[-84.2810979,37.5784502]},"properties":{"id":"churchill-weavers-berea","name":"Churchill Weavers (historic)","title":"Churchill Weavers (historic)","city":"Berea","county":"Madison","address":"100 Churchill Dr / North Broadway craft district, Berea, KY 40403","history":"Founded in 1922 by David Carroll and Eleanor Churchill, Churchill Weavers became one of America’s best-known handweaving manufactories and a cornerstone of Berea’s craft industry. The historic weaving operation helped define Berea as a national craft center; related buildings remain part of the town’s manufacturing heritage.","description":"Founded in 1922 by David Carroll and Eleanor Churchill, Churchill Weavers became one of America’s best-known handweaving manufactories and a cornerstone of Berea’s craft industry. The historic weaving operation helped define Berea as a national craft center; related buildings remain part of the town’s manufacturing heritage.","website":"https://en.wikipedia.org/wiki/Churchill_Weavers","industry_type":"manufacturing","built_year":1922,"yearStart":1922,"yearEnd":1922,"layer":"industry"}},{"type":"Feature","geometry":{"type":"Point","coordinates":[-85.7255,38.1548]},"properties":{"id":"ford-louisville-assembly","name":"Ford Louisville Assembly Plant","title":"Ford Louisville Assembly Plant","city":"Louisville","county":"Jefferson","address":"3001 Fern Valley Rd, Louisville, KY 40213","history":"Ford’s Louisville Assembly Plant on Fern Valley Road has been a cornerstone of Kentucky automotive manufacturing since the mid-twentieth century. Together with the nearby Kentucky Truck Plant, it represents Louisville’s rise as a mass auto-production center after the brief 1909–10 Lexington Motor Car Company experiment.","description":"Ford’s Louisville Assembly Plant on Fern Valley Road has been a cornerstone of Kentucky automotive manufacturing since the mid-twentieth century. Together with the nearby Kentucky Truck Plant, it represents Louisville’s rise as a mass auto-production center after the brief 1909–10 Lexington Motor Car Company experiment.","website":"https://en.wikipedia.org/wiki/Louisville_Assembly_Plant","industry_type":"manufacturing","built_year":1955,"yearStart":1955,"yearEnd":1955,"nrhp":false,"layer":"industry"}},{"type":"Feature","geometry":{"type":"Point","coordinates":[-84.5149,38.0599]},"properties":{"id":"lexington-motor-car-company","name":"Lexington Motor Car Company (plant site)","title":"Lexington Motor Car Company (plant site)","city":"Lexington","county":"Fayette","address":"1020 W Main St (Leestown Pike), Lexington, KY 40508","history":"Lexington Motor Car Company (also called Lexington Motor Company) assembled automobiles here beginning March 1909 under promoter Kinzea Stone, on a rail-served lot west of Calvary Cemetery across from Lexington Cemetery. The firm relocated to Connersville, Indiana in 1910; the Kentucky plant site is now occupied by Palumbo Lumber—correct historic Lexington auto works (not LexTran).","description":"Lexington Motor Car Company (also called Lexington Motor Company) assembled automobiles here beginning March 1909 under promoter Kinzea Stone, on a rail-served lot west of Calvary Cemetery across from Lexington Cemetery. The firm relocated to Connersville, Indiana in 1910; the Kentucky plant site is now occupied by Palumbo Lumber—correct historic Lexington auto works (not LexTran).","website":"https://wiki.lexhistory.org/wikilex/lexington-motor-car-company","industry_type":"manufacturing","built_year":1909,"yearStart":1909,"yearEnd":1909,"nrhp":false,"layer":"industry"}},{"type":"Feature","geometry":{"type":"Point","coordinates":[-85.74025,38.2292833]},"properties":{"id":"louisville-cotton-mill","name":"Louisville Cotton Mill","title":"Louisville Cotton Mill","city":"Louisville","county":"Jefferson","address":"946 Goss Ave., Louisvville","history":"First cotton mill in Louisville (1889), a major Victorian industrial complex that first made cotton warp for “Kentucky Jeans.” Later Louisville Textile Co. / Fincastle Fabrics sold worldwide; by 1948 Louisville Textiles was Kentucky’s largest textile employer. The Goss Avenue plant is interpreted by KHS marker 2516.","description":"First cotton mill in Louisville (1889), a major Victorian industrial complex that first made cotton warp for “Kentucky Jeans.” Later Louisville Textile Co. / Fincastle Fabrics sold worldwide; by 1948 Louisville Textiles was Kentucky’s largest textile employer. The Goss Avenue plant is interpreted by KHS marker 2516.","website":"https://history.ky.gov/markers/louisville-cotton-mill","industry_type":"mill","built_year":1889,"yearStart":1889,"yearEnd":1889,"marker_number":"2516","layer":"industry"}},{"type":"Feature","geometry":{"type":"Point","coordinates":[-82.8880425,37.5996085]},"properties":{"id":"boone-salt-springs","name":"Boone Salt Springs","title":"Boone Salt Springs","city":"David","county":"Floyd","address":"David, KY 404","history":"Historic salt spring associated with early exploration and settlement in the Big Sandy country. Salt springs were among Kentucky’s first extractive industries; this Floyd County site is interpreted by KHS as a pioneer industrial resource.","description":"Historic salt spring associated with early exploration and settlement in the Big Sandy country. Salt springs were among Kentucky’s first extractive industries; this Floyd County site is interpreted by KHS as a pioneer industrial resource.","industry_type":"other_industry","marker_number":"151","layer":"industry"}},{"type":"Feature","geometry":{"type":"Point","coordinates":[-85.7640065,38.000782]},"properties":{"id":"bullitts-lick","name":"Bullitt's Lick Salt Works","title":"Bullitt's Lick Salt Works","city":"Shepherdsville","county":"Bullitt","address":"KY 44, 3 mi. NW of Shepherdsville","history":"Located by Capt. Thomas Bullitt in 1773 and developed as one of Kentucky’s earliest commercial salt works. Bullitt’s Lick supplied salt to Kentucky settlements and the Illinois country and helped establish Bullitt County’s industrial identity long before railroads.","description":"Located by Capt. Thomas Bullitt in 1773 and developed as one of Kentucky’s earliest commercial salt works. Bullitt’s Lick supplied salt to Kentucky settlements and the Illinois country and helped establish Bullitt County’s industrial identity long before railroads.","website":"https://history.ky.gov/markers/bullitts-lick","industry_type":"other_industry","built_year":1779,"yearStart":1779,"yearEnd":1779,"marker_number":"133","layer":"industry"}},{"type":"Feature","geometry":{"type":"Point","coordinates":[-83.7539,37.1222]},"properties":{"id":"goose-creek-salt-works","name":"Goose Creek Salt Works","title":"Goose Creek Salt Works","city":"Manchester","county":"Clay","address":"KY 11, 21/2 mi. S. of Manchester","history":"Strategic Civil War–era salt works on Goose Creek. In October 1862 Union troops destroyed works used by Confederates while allowing loyal citizens limited salt under oath—highlighting salt’s industrial and military value in eastern Kentucky.","description":"Strategic Civil War–era salt works on Goose Creek. In October 1862 Union troops destroyed works used by Confederates while allowing loyal citizens limited salt under oath—highlighting salt’s industrial and military value in eastern Kentucky.","website":"https://history.ky.gov/markers/goose-creek-salt-works","industry_type":"other_industry","marker_number":"531","layer":"industry"}},{"type":"Feature","geometry":{"type":"Point","coordinates":[-84.39285,38.8642833]},"properties":{"id":"grants-lick","name":"Grant's Lick","title":"Grant's Lick","city":"Grant's Lick","county":"Campbell","address":"Grant's Lick, at Grant's Lick Funeral Home, Old US 27","history":"Named salt lick and early industrial/settlement node in northern Kentucky. Like Bullitt’s Lick, Grant’s Lick marks the salt-boiling industry that preceded large-scale manufacturing along the Ohio River approaches to Cincinnati.","description":"Named salt lick and early industrial/settlement node in northern Kentucky. Like Bullitt’s Lick, Grant’s Lick marks the salt-boiling industry that preceded large-scale manufacturing along the Ohio River approaches to Cincinnati.","industry_type":"other_industry","marker_number":"1642","layer":"industry"}},{"type":"Feature","geometry":{"type":"Point","coordinates":[-86.553283,37.588333]},"properties":{"id":"green-mill-grayson","name":"Green Mill","title":"Green Mill","city":"Falls of Rough","county":"Grayson","history":"Built in 1823, this mill was operated continuously by the Green family for over 140 years. It was part of a 6,000-acre farm-timber complex, and farmers from seven counties brought grain here to be milled into flour and cornmeal. (Kentucky Historical Society marker 906.)","description":"Built in 1823, this mill was operated continuously by the Green family for over 140 years. It was part of a 6,000-acre farm-timber complex, and farmers from seven counties brought grain here to be milled into flour and cornmeal. (Kentucky Historical Society marker 906.)","website":"https://history.ky.gov/markers/green-mill","industry_type":"mill","built_year":1823,"yearStart":1823,"yearEnd":1823,"marker_number":"906","layer":"industry"}},{"type":"Feature","geometry":{"type":"Point","coordinates":[-85.653967,36.664983]},"properties":{"id":"moore-s-mill-monroe","name":"Moore's Mill","title":"Moore's Mill","city":"Tompkinsville","county":"Monroe","history":"Phillip Moore bought a steam sawmill on Meshack Creek in 1874; his son Joel and four grandsons later moved the mill to this site on KY 163. In 1929 the expanded lumber mill was among the first in the area to run at night with electric lights. (Kentucky Historical Society marker 2041.)","description":"Phillip Moore bought a steam sawmill on Meshack Creek in 1874; his son Joel and four grandsons later moved the mill to this site on KY 163. In 1929 the expanded lumber mill was among the first in the area to run at night with electric lights. (Kentucky Historical Society marker 2041.)","website":"https://history.ky.gov/markers/moores-mill","industry_type":"mill","built_year":1874,"yearStart":1874,"yearEnd":1874,"marker_number":"2041","layer":"industry"}},{"type":"Feature","geometry":{"type":"Point","coordinates":[-86.121944,37.959722]},"properties":{"id":"doe-run-mill-doe-run-creek-historic-district","name":"Doe Run Mill (Doe Run Creek Historic District)","title":"Doe Run Mill (Doe Run Creek Historic District)","city":"Brandenburg","county":"Meade","address":"Kentucky Route 1638 on Doe Run Creek","history":"Doe Run Mill, a gristmill on Doe Run Creek near Brandenburg, is within the Doe Run Creek Historic District, listed on the National Register of Historic Places on October 6, 1987 (reference 87002053). Kentucky Historical Society marker 1755 also marks the district.","description":"Doe Run Mill, a gristmill on Doe Run Creek near Brandenburg, is within the Doe Run Creek Historic District, listed on the National Register of Historic Places on October 6, 1987 (reference 87002053). Kentucky Historical Society marker 1755 also marks the district.","website":"https://en.wikipedia.org/wiki/Doe_Run_Inn","industry_type":"mill","marker_number":"1755","nrhp":"87002053","layer":"industry"}},{"type":"Feature","geometry":{"type":"Point","coordinates":[-85.964722,37.025556]},"properties":{"id":"gullian-gerig-s-mill","name":"Gullian Gerig's Mill","title":"Gullian Gerig's Mill","city":"Glasgow","county":"Barren","address":"Beaver Valley Rd.","history":"Gullian Gerig's Mill in Glasgow, Barren County, was listed on the National Register of Historic Places on October 5, 1987 (reference 87002050). Listed location: Beaver Valley Rd..","description":"Gullian Gerig's Mill in Glasgow, Barren County, was listed on the National Register of Historic Places on October 5, 1987 (reference 87002050). Listed location: Beaver Valley Rd..","website":"https://npgallery.nps.gov/AssetDetail/NRIS/87002050","industry_type":"mill","nrhp":"87002050","layer":"industry"}},{"type":"Feature","geometry":{"type":"Point","coordinates":[-84.342778,37.915833]},"properties":{"id":"grimes-house-and-mill-complex","name":"Grimes House and Mill Complex","title":"Grimes House and Mill Complex","city":"Lexington","county":"Fayette","address":"Grimes Mill Rd.","history":"Grimes House and Mill Complex in Lexington, Fayette County, was listed on the National Register of Historic Places on June 21, 1982 (reference 82002687). Listed location: Grimes Mill Rd..","description":"Grimes House and Mill Complex in Lexington, Fayette County, was listed on the National Register of Historic Places on June 21, 1982 (reference 82002687). Listed location: Grimes Mill Rd..","website":"https://en.wikipedia.org/wiki/Grimes_House_and_Mill_Complex","industry_type":"mill","nrhp":"82002687","layer":"industry"}},{"type":"Feature","geometry":{"type":"Point","coordinates":[-84.34,37.932222]},"properties":{"id":"james-pettit-s-mill","name":"James Pettit's Mill","title":"James Pettit's Mill","city":"Ford","county":"Fayette","address":"Kentucky Route 418","history":"James Pettit's Mill in Ford, Fayette County, was listed on the National Register of Historic Places on June 23, 1983 (reference 83002768). Listed location: Kentucky Route 418.","description":"James Pettit's Mill in Ford, Fayette County, was listed on the National Register of Historic Places on June 23, 1983 (reference 83002768). Listed location: Kentucky Route 418.","website":"https://npgallery.nps.gov/AssetDetail/NRIS/83002768","industry_type":"mill","nrhp":"83002768","layer":"industry"}},{"type":"Feature","geometry":{"type":"Point","coordinates":[-84.576389,37.618056]},"properties":{"id":"garrard-mills","name":"Garrard Mills","title":"Garrard Mills","city":"Lancaster","county":"Garrard","address":"205 E. Buford St.","history":"Garrard Mills in Lancaster, Garrard County, was listed on the National Register of Historic Places on March 26, 1984 (reference 84001447). Listed location: 205 E. Buford St.. Opened for business September 19, 1900.","description":"Garrard Mills in Lancaster, Garrard County, was listed on the National Register of Historic Places on March 26, 1984 (reference 84001447). Listed location: 205 E. Buford St.. Opened for business September 19, 1900.","website":"https://en.wikipedia.org/wiki/Garrard_Mills","industry_type":"mill","nrhp":"84001447","layer":"industry"}},{"type":"Feature","geometry":{"type":"Point","coordinates":[-85.553889,37.273333]},"properties":{"id":"montgomery-s-mill","name":"Montgomery's Mill","title":"Montgomery's Mill","city":"Greensburg","county":"Green","address":"Off Kentucky Route 88","history":"Montgomery's Mill in Greensburg, Green County, was listed on the National Register of Historic Places on August 24, 1984 (reference 84001523). Listed location: Off Kentucky Route 88.","description":"Montgomery's Mill in Greensburg, Green County, was listed on the National Register of Historic Places on August 24, 1984 (reference 84001523). Listed location: Off Kentucky Route 88.","website":"https://npgallery.nps.gov/AssetDetail/NRIS/84001523","industry_type":"mill","nrhp":"84001523","layer":"industry"}},{"type":"Feature","geometry":{"type":"Point","coordinates":[-86.031111,37.555278]},"properties":{"id":"white-mill","name":"White Mill","title":"White Mill","city":"White Mills","county":"Hardin","address":"Nolin River","history":"White Mill in White Mills, Hardin County, was listed on the National Register of Historic Places on October 5, 1988 (reference 88001761). Listed location: Nolin River.","description":"White Mill in White Mills, Hardin County, was listed on the National Register of Historic Places on October 5, 1988 (reference 88001761). Listed location: Nolin River.","website":"https://npgallery.nps.gov/AssetDetail/NRIS/88001761","industry_type":"mill","nrhp":"88001761","layer":"industry"}},{"type":"Feature","geometry":{"type":"Point","coordinates":[-85.735,38.2325]},"properties":{"id":"bradford-mills","name":"Bradford Mills","title":"Bradford Mills","city":"Germantown","county":"Jefferson","address":"1124 Reutlinger Ave.","history":"Bradford Mills in Germantown, Jefferson County, was listed on the National Register of Historic Places on October 6, 1982 (reference 82001555). Listed location: 1124 Reutlinger Ave..","description":"Bradford Mills in Germantown, Jefferson County, was listed on the National Register of Historic Places on October 6, 1982 (reference 82001555). Listed location: 1124 Reutlinger Ave..","website":"https://npgallery.nps.gov/AssetDetail/NRIS/82001555","industry_type":"mill","nrhp":"82001555","layer":"industry"}},{"type":"Feature","geometry":{"type":"Point","coordinates":[-85.7325,38.248889]},"properties":{"id":"eclipse-woolen-mill","name":"Eclipse Woolen Mill","title":"Eclipse Woolen Mill","city":"Phoenix Hill","county":"Jefferson","address":"1044 E. Chestnut St.","history":"Eclipse Woolen Mill in Phoenix Hill, Jefferson County, was listed on the National Register of Historic Places on December 22, 1978 (reference 78001352). Listed location: 1044 E. Chestnut St..","description":"Eclipse Woolen Mill in Phoenix Hill, Jefferson County, was listed on the National Register of Historic Places on December 22, 1978 (reference 78001352). Listed location: 1044 E. Chestnut St..","website":"https://npgallery.nps.gov/AssetDetail/NRIS/78001352","industry_type":"mill","nrhp":"78001352","layer":"industry"}},{"type":"Feature","geometry":{"type":"Point","coordinates":[-85.737222,38.235833]},"properties":{"id":"hope-worsted-mills","name":"Hope Worsted Mills","title":"Hope Worsted Mills","city":"Germantown","county":"Jefferson","address":"942 E. Kentucky St.","history":"Hope Worsted Mills in Germantown, Jefferson County, was listed on the National Register of Historic Places on January 19, 1996 (reference 95001543). Listed location: 942 E. Kentucky St..","description":"Hope Worsted Mills in Germantown, Jefferson County, was listed on the National Register of Historic Places on January 19, 1996 (reference 95001543). Listed location: 942 E. Kentucky St..","website":"https://npgallery.nps.gov/AssetDetail/NRIS/95001543","industry_type":"mill","nrhp":"95001543","layer":"industry"}},{"type":"Feature","geometry":{"type":"Point","coordinates":[-85.596389,38.330139]},"properties":{"id":"wolf-pen-branch-mill","name":"Wolf Pen Branch Mill","title":"Wolf Pen Branch Mill","city":"Harrods Creek","county":"Jefferson","address":"7839 Wolf Pen Branch Rd.","history":"Wolf Pen Branch Mill in Harrods Creek, Jefferson County, was listed on the National Register of Historic Places on January 5, 1978 (reference 78001344). Listed location: 7839 Wolf Pen Branch Rd..","description":"Wolf Pen Branch Mill in Harrods Creek, Jefferson County, was listed on the National Register of Historic Places on January 5, 1978 (reference 78001344). Listed location: 7839 Wolf Pen Branch Rd..","website":"https://npgallery.nps.gov/AssetDetail/NRIS/78001344","industry_type":"mill","nrhp":"78001344","layer":"industry"}},{"type":"Feature","geometry":{"type":"Point","coordinates":[-84.6455,37.8416]},"properties":{"id":"glass-mill-complex","name":"Glass Mill Complex","title":"Glass Mill Complex","city":"Wilmore","county":"Jessamine","address":"1995 Glass Mill Road","history":"Glass Mill Complex in Wilmore, Jessamine County, was listed on the National Register of Historic Places on January 13, 2025 (reference 100011310). Listed location: 1995 Glass Mill Road.","description":"Glass Mill Complex in Wilmore, Jessamine County, was listed on the National Register of Historic Places on January 13, 2025 (reference 100011310). Listed location: 1995 Glass Mill Road.","website":"https://npgallery.nps.gov/AssetDetail/NRIS/100011310","industry_type":"mill","nrhp":"100011310","layer":"industry"}},{"type":"Feature","geometry":{"type":"Point","coordinates":[-82.605556,38.116667]},"properties":{"id":"big-sandy-milling-company","name":"Big Sandy Milling Company","title":"Big Sandy Milling Company","city":"Louisa","county":"Lawrence","address":"Pike St. between Lock Ave. and railroad tracks","history":"Big Sandy Milling Company in Louisa, Lawrence County, was listed on the National Register of Historic Places on November 1, 1988 (reference 88002045). Listed location: Pike St. between Lock Ave. and railroad tracks. Three-story post-and-beam mill building.","description":"Big Sandy Milling Company in Louisa, Lawrence County, was listed on the National Register of Historic Places on November 1, 1988 (reference 88002045). Listed location: Pike St. between Lock Ave. and railroad tracks. Three-story post-and-beam mill building.","website":"https://en.wikipedia.org/wiki/Big_Sandy_Milling_Company","industry_type":"mill","nrhp":"88002045","layer":"industry"}},{"type":"Feature","geometry":{"type":"Point","coordinates":[-84.600833,37.556667]},"properties":{"id":"swope-dudderar-house-and-mill-site","name":"Swope-Dudderar House and Mill Site","title":"Swope-Dudderar House and Mill Site","city":"Stanford","county":"Lincoln","address":"East of Stanford on Goshen Rd.","history":"Swope-Dudderar House and Mill Site in Stanford, Lincoln County, was listed on the National Register of Historic Places on April 16, 1979 (reference 79001020). Listed location: East of Stanford on Goshen Rd..","description":"Swope-Dudderar House and Mill Site in Stanford, Lincoln County, was listed on the National Register of Historic Places on April 16, 1979 (reference 79001020). Listed location: East of Stanford on Goshen Rd..","website":"https://npgallery.nps.gov/AssetDetail/NRIS/79001020","industry_type":"mill","nrhp":"79001020","layer":"industry"}},{"type":"Feature","geometry":{"type":"Point","coordinates":[-84.4244,37.7283]},"properties":{"id":"bogie-houses-and-mill-site","name":"Bogie Houses and Mill Site","title":"Bogie Houses and Mill Site","city":"Richmond","county":"Madison","address":"{{convert|8|mi}} west of Richmond on Silver Creek","history":"Bogie Houses and Mill Site in Richmond, Madison County, was listed on the National Register of Historic Places on August 13, 1976 (reference 76000920). Listed location: {{convert|8|mi}} west of Richmond on Silver Creek.","description":"Bogie Houses and Mill Site in Richmond, Madison County, was listed on the National Register of Historic Places on August 13, 1976 (reference 76000920). Listed location: {{convert|8|mi}} west of Richmond on Silver Creek.","website":"https://npgallery.nps.gov/AssetDetail/NRIS/76000920","industry_type":"mill","nrhp":"76000920","layer":"industry"}},{"type":"Feature","geometry":{"type":"Point","coordinates":[-83.734444,38.574167]},"properties":{"id":"milton-mills","name":"Milton Mills","title":"Milton Mills","city":"Orangeburg","county":"Mason","address":"7191 Taylor Mill Rd.","history":"Milton Mills in Orangeburg, Mason County, was listed on the National Register of Historic Places on January 8, 1987 (reference 87000148). Listed location: 7191 Taylor Mill Rd..","description":"Milton Mills in Orangeburg, Mason County, was listed on the National Register of Historic Places on January 8, 1987 (reference 87000148). Listed location: 7191 Taylor Mill Rd..","website":"https://npgallery.nps.gov/AssetDetail/NRIS/87000148","industry_type":"mill","nrhp":"87000148","layer":"industry"}},{"type":"Feature","geometry":{"type":"Point","coordinates":[-83.941389,38.055]},"properties":{"id":"monarch-milling-company","name":"Monarch Milling Company","title":"Monarch Milling Company","city":"Mount Sterling","county":"Montgomery","address":"Junction of S. Maysville and E. Locust","history":"Monarch Milling Company in Mount Sterling, Montgomery County, was listed on the National Register of Historic Places on April 23, 1991 (reference 91000425). Listed location: Junction of S. Maysville and E. Locust.","description":"Monarch Milling Company in Mount Sterling, Montgomery County, was listed on the National Register of Historic Places on April 23, 1991 (reference 91000425). Listed location: Junction of S. Maysville and E. Locust.","website":"https://npgallery.nps.gov/AssetDetail/NRIS/91000425","industry_type":"mill","nrhp":"91000425","layer":"industry"}},{"type":"Feature","geometry":{"type":"Point","coordinates":[-84.659722,37.280833]},"properties":{"id":"payne-mill","name":"Payne Mill","title":"Payne Mill","city":"Eubank","county":"Pulaski","address":"Off Kentucky Route 1247","history":"Payne Mill in Eubank, Pulaski County, was listed on the National Register of Historic Places on August 14, 1984 (reference 84001968). Listed location: Off Kentucky Route 1247.","description":"Payne Mill in Eubank, Pulaski County, was listed on the National Register of Historic Places on August 14, 1984 (reference 84001968). Listed location: Off Kentucky Route 1247.","website":"https://npgallery.nps.gov/AssetDetail/NRIS/84001968","industry_type":"mill","nrhp":"84001968","layer":"industry"}},{"type":"Feature","geometry":{"type":"Point","coordinates":[-84.611389,37.081944]},"properties":{"id":"robinson-mill","name":"Robinson Mill","title":"Robinson Mill","city":"Somerset","county":"Pulaski","address":"S. Main St.","history":"Robinson Mill in Somerset, Pulaski County, was listed on the National Register of Historic Places on August 14, 1984 (reference 84001971). Listed location: S. Main St..","description":"Robinson Mill in Somerset, Pulaski County, was listed on the National Register of Historic Places on August 14, 1984 (reference 84001971). Listed location: S. Main St..","website":"https://npgallery.nps.gov/AssetDetail/NRIS/84001971","industry_type":"mill","nrhp":"84001971","layer":"industry"}},{"type":"Feature","geometry":{"type":"Point","coordinates":[-84.574722,38.218333]},"properties":{"id":"thomsons-mill-warehouse","name":"Thomsons Mill Warehouse","title":"Thomsons Mill Warehouse","city":"Georgetown","county":"Scott","address":"Off U.S. Route 460","history":"Thomsons Mill Warehouse in Georgetown, Scott County, was listed on the National Register of Historic Places on June 23, 1983 (reference 83002871). Listed location: Off U.S. Route 460.","description":"Thomsons Mill Warehouse in Georgetown, Scott County, was listed on the National Register of Historic Places on June 23, 1983 (reference 83002871). Listed location: Off U.S. Route 460.","website":"https://npgallery.nps.gov/AssetDetail/NRIS/83002871","industry_type":"mill","nrhp":"83002871","layer":"industry"}},{"type":"Feature","geometry":{"type":"Point","coordinates":[-85.229444,37.688611]},"properties":{"id":"s-f-turner-and-company-steam-flouring-and-grist-mill","name":"S.F. Turner and Company Steam Flouring and Grist Mill","title":"S.F. Turner and Company Steam Flouring and Grist Mill","city":"Springfield","county":"Washington","address":"400 W. Main St.","history":"S.F. Turner and Company Steam Flouring and Grist Mill in Springfield, Washington County, was listed on the National Register of Historic Places on February 10, 1989 (reference 88003390). Listed location: 400 W. Main St..","description":"S.F. Turner and Company Steam Flouring and Grist Mill in Springfield, Washington County, was listed on the National Register of Historic Places on February 10, 1989 (reference 88003390). Listed location: 400 W. Main St..","website":"https://npgallery.nps.gov/AssetDetail/NRIS/88003390","industry_type":"mill","nrhp":"88003390","layer":"industry"}},{"type":"Feature","geometry":{"type":"Point","coordinates":[-84.804444,36.651667]},"properties":{"id":"adkins-hurt-mill","name":"Adkins-Hurt Mill","title":"Adkins-Hurt Mill","city":"Mount Pisgah","county":"Wayne","address":"Off Kentucky Route 167","history":"Adkins-Hurt Mill in Mount Pisgah, Wayne County, was listed on the National Register of Historic Places on May 6, 1977 (reference 77000662). Listed location: Off Kentucky Route 167.","description":"Adkins-Hurt Mill in Mount Pisgah, Wayne County, was listed on the National Register of Historic Places on May 6, 1977 (reference 77000662). Listed location: Off Kentucky Route 167.","website":"https://npgallery.nps.gov/AssetDetail/NRIS/77000662","industry_type":"mill","nrhp":"77000662","layer":"industry"}},{"type":"Feature","geometry":{"type":"Point","coordinates":[-84.708056,37.900556]},"properties":{"id":"guyn-s-mill-historic-district","name":"Guyn's Mill Historic District","title":"Guyn's Mill Historic District","city":"Troy","county":"Woodford","address":"Mundy's Landing and Pauls Mill Rds.","history":"Guyn's Mill Historic District in Troy, Woodford County, was listed on the National Register of Historic Places on August 29, 1983 (reference 83002897). Listed location: Mundy's Landing and Pauls Mill Rds..","description":"Guyn's Mill Historic District in Troy, Woodford County, was listed on the National Register of Historic Places on August 29, 1983 (reference 83002897). Listed location: Mundy's Landing and Pauls Mill Rds..","website":"https://npgallery.nps.gov/AssetDetail/NRIS/83002897","industry_type":"mill","nrhp":"83002897","layer":"industry"}},{"type":"Feature","geometry":{"type":"Point","coordinates":[-84.788056,38.091944]},"properties":{"id":"mccrackin-distillery-and-mill","name":"McCrackin Distillery and Mill","title":"McCrackin Distillery and Mill","city":"Tyrone","county":"Woodford","address":"Kentucky Route 1659","history":"McCrackin Distillery and Mill in Tyrone, Woodford County, was listed on the National Register of Historic Places on June 23, 1983 (reference 83002903). Listed location: Kentucky Route 1659.","description":"McCrackin Distillery and Mill in Tyrone, Woodford County, was listed on the National Register of Historic Places on June 23, 1983 (reference 83002903). Listed location: Kentucky Route 1659.","website":"https://npgallery.nps.gov/AssetDetail/NRIS/83002903","industry_type":"mill","nrhp":"83002903","layer":"industry"}},{"type":"Feature","geometry":{"type":"Point","coordinates":[-84.704444,38.1725]},"properties":{"id":"stone-house-at-fisher-s-mill","name":"Stone House at Fisher's Mill","title":"Stone House at Fisher's Mill","city":"Midway","county":"Woodford","address":"Off U.S. Route 421","history":"Stone House at Fisher's Mill in Midway, Woodford County, was listed on the National Register of Historic Places on June 23, 1983 (reference 83002912). Listed location: Off U.S. Route 421.","description":"Stone House at Fisher's Mill in Midway, Woodford County, was listed on the National Register of Historic Places on June 23, 1983 (reference 83002912). Listed location: Off U.S. Route 421.","website":"https://npgallery.nps.gov/AssetDetail/NRIS/83002912","industry_type":"mill","nrhp":"83002912","layer":"industry"}},{"type":"Feature","geometry":{"type":"Point","coordinates":[-84.2382333,38.30405]},"properties":{"id":"xlist-marker-1462","name":"Ruddell's Mills","title":"Ruddell's Mills","county":"Bourbon","history":"Near his home Isaac Ruddell built a gristmill in 1788 on the north side of Hinkson bridge, and a sawmill in 1795 to be operated by his son, Abram. A 720-spindle cotton mill erected 500 feet west by Thomas and Hugh Brent in 1828, burned 1836. Soon rebuilt by Abram Spears, it also spun wool until about 1855. Ruddell gave land for Stoner Mouth Church and cemetery. Silas Baptist Church 1 mile west (Marker Number: 1596) County: Bourbon Location: Russell Cave Road, KY 353 Description: Organized by 20 members of the Cooper's Run Church in 1800, with the help of Ambrose Dudley, George Eve and Augustine Eastin. They built at this site on land given, 1798, by Charles Smith, Sr. The log structure was replaced by a brick house of worship in 1850 and redecorated in 1902. It is the oldest church in the county continuing without interruption. NOTE: Marker #2096 (Carter Co.) was replaced and given the number 1596, as well. We are working on resolving this issue.","description":"Near his home Isaac Ruddell built a gristmill in 1788 on the north side of Hinkson bridge, and a sawmill in 1795 to be operated by his son, Abram. A 720-spindle cotton mill erected 500 feet west by Thomas and Hugh Brent in 1828, burned 1836. Soon rebuilt by Abram Spears, it also spun wool until about 1855. Ruddell gave land for Stoner Mouth Church and cemetery. Silas Baptist Church 1 mile west (Marker Number: 1596) County: Bourbon Location: Russell Cave Road, KY 353 Description: Organized by 20 members of the Cooper's Run Church in 1800, with the help of Ambrose Dudley, George Eve and Augustine Eastin. They built at this site on land given, 1798, by Charles Smith, Sr. The log structure was replaced by a brick house of worship in 1850 and redecorated in 1902. It is the oldest church in the county continuing without interruption. NOTE: Marker #2096 (Carter Co.) was replaced and given the number 1596, as well. We are working on resolving this issue.","website":"https://history.ky.gov/markers/ruddells-mills","industry_type":"mill","marker_number":"1462","also_on":"markers","also_on_id":"1462","mill_kind":"grist & saw mill","layer":"industry"}},{"type":"Feature","geometry":{"type":"Point","coordinates":[-85.7547333,37.3468667]},"properties":{"id":"xlist-marker-875","name":"Early Gunpowder Mill","title":"Early Gunpowder Mill","county":"Hart","history":"Two miles east on Lynn Camp Creek John Courts built, 1811-12, first commercial gunpowder mill in the State of Kentucky. Located near two large springs that furnished power to grind the charcoal made on site. Mixed with saltpeter and sulphur, finer product made rifle powder and coarser for cannon and blasting powder. Used in War of 1812 through period of Civil War.","description":"Two miles east on Lynn Camp Creek John Courts built, 1811-12, first commercial gunpowder mill in the State of Kentucky. Located near two large springs that furnished power to grind the charcoal made on site. Mixed with saltpeter and sulphur, finer product made rifle powder and coarser for cannon and blasting powder. Used in War of 1812 through period of Civil War.","website":"https://history.ky.gov/markers/early-gunpowder-mill","industry_type":"mill","marker_number":"875","also_on":"markers","also_on_id":"875","mill_kind":"gunpowder mill","layer":"industry"}},{"type":"Feature","geometry":{"type":"Point","coordinates":[-85.7491167,38.2375833]},"properties":{"id":"xlist-marker-2588","name":"Falls City Jeans & Woolen Mills/Kentucky Jeans","title":"Falls City Jeans & Woolen Mills/Kentucky Jeans","county":"Jefferson","history":"Incorporated in 1882, the Falls City Jeans & Woolen Mill Company produced the most Kentucky Jeans in Louisville. The company created 2.5 million yards of jeans a year. Later, Enro Shirt Company & Ohio Valley Bag & Burlap used the site. Factory designed by architect DJ Williams. Added to National Register of Historic Places 1982. The Burkhart Company. (Reverse) Kentucky Jeans were cotton cloth made with finer count yarns, using a twill weave. Kentucky Jeans were coarse and most suitable for work clothing. After the Civil War, Louisville was a hub for cotton processing, with 8 cotton mills by 1905. The expansion of the L&N Railroad supported Louisville’s thriving textile industry. Shelby Park Neighborhood Association. Dedicated August 1, 2019.","description":"Incorporated in 1882, the Falls City Jeans & Woolen Mill Company produced the most Kentucky Jeans in Louisville. The company created 2.5 million yards of jeans a year. Later, Enro Shirt Company & Ohio Valley Bag & Burlap used the site. Factory designed by architect DJ Williams. Added to National Register of Historic Places 1982. The Burkhart Company. (Reverse) Kentucky Jeans were cotton cloth made with finer count yarns, using a twill weave. Kentucky Jeans were coarse and most suitable for work clothing. After the Civil War, Louisville was a hub for cotton processing, with 8 cotton mills by 1905. The expansion of the L&N Railroad supported Louisville’s thriving textile industry. Shelby Park Neighborhood Association. Dedicated August 1, 2019.","website":"https://history.ky.gov/markers/falls-city-jeans-woolen-millskentucky-jeans","industry_type":"mill","marker_number":"2588","also_on":"markers","also_on_id":"2588","mill_kind":"woolen mill","layer":"industry"}},{"type":"Feature","geometry":{"type":"Point","coordinates":[-87.9951833,36.9423833]},"properties":{"id":"xlist-marker-1423","name":"Tenn. Rolling Mills","title":"Tenn. Rolling Mills","county":"Lyon","history":"Moved from Nashville to a site one mile west, 1845-46, by Thomas Tennessee Watson and Daniel Hillman. Pig iron from charcoal-fueled blast furnaces in this vicinity was processed into boiler plate, sheets, beams and other articles here for shipment all over the Mississippi Valley. Operations transferred to Louisville in 1884 by the L. P. Ewald Iron Co.","description":"Moved from Nashville to a site one mile west, 1845-46, by Thomas Tennessee Watson and Daniel Hillman. Pig iron from charcoal-fueled blast furnaces in this vicinity was processed into boiler plate, sheets, beams and other articles here for shipment all over the Mississippi Valley. Operations transferred to Louisville in 1884 by the L. P. Ewald Iron Co.","website":"https://history.ky.gov/markers/tenn-rolling-mills","industry_type":"mill","marker_number":"1423","also_on":"markers","also_on_id":"1423","mill_kind":"iron rolling mill","layer":"industry"}},{"type":"Feature","geometry":{"type":"Point","coordinates":[-84.3901233,37.7142133]},"properties":{"id":"xlist-marker-1871","name":"Site of Barnes Mill","title":"Site of Barnes Mill","county":"Madison","history":"Here a mill operated continuously by same family for over one hundred years. Elias Barnes, Sr., a Rev. War soldier, built mill on Silver Creek by 1796. It passed to Elias, Jr., a blacksmith, and then to his son James, a captain in the Mexican War. Other family members operated Barnes Mill until ca. 1913. Barnes Mill Pike is all that remains. Presented by Mrs. Jamie Bronston Long.","description":"Here a mill operated continuously by same family for over one hundred years. Elias Barnes, Sr., a Rev. War soldier, built mill on Silver Creek by 1796. It passed to Elias, Jr., a blacksmith, and then to his son James, a captain in the Mexican War. Other family members operated Barnes Mill until ca. 1913. Barnes Mill Pike is all that remains. Presented by Mrs. Jamie Bronston Long.","website":"https://history.ky.gov/markers/site-of-barnes-mill","industry_type":"mill","marker_number":"1871","also_on":"markers","also_on_id":"1871","mill_kind":"mill","layer":"industry"}},{"type":"Feature","geometry":{"type":"Point","coordinates":[-83.973813,37.700638]},"properties":{"id":"xlist-history-m-robison-sawmill-irvine","name":"M. Robison Sawmill (Irvine)","title":"M. Robison Sawmill (Irvine)","county":"Estill","history":"The M. Robison Sawmill at Irvine, Estill County, Kentucky, circa 1908 — captured in the Stuart S. Sprague photograph collection. Map pin uses Irvine town center (Nominatim) because the exact mill footprint is not documented in the catalog record; treat as a place-level pin for the historic sawmill operation, not a surveyed building outline. Photo: https://scholarworks.moreheadstate.edu/sprague_photo_collection/119/","description":"The M. Robison Sawmill at Irvine, Estill County, Kentucky, circa 1908 — captured in the Stuart S. Sprague photograph collection. Map pin uses Irvine town center (Nominatim) because the exact mill footprint is not documented in the catalog record; treat as a place-level pin for the historic sawmill operation, not a surveyed building outline. Photo: https://scholarworks.moreheadstate.edu/sprague_photo_collection/119/","website":"https://scholarworks.moreheadstate.edu/sprague_photo_collection/119/","industry_type":"mill","also_on":"history","also_on_id":"m-robison-sawmill-irvine","mill_kind":"sawmill","layer":"industry"}}]}