{"type":"FeatureCollection","features":[{"type":"Feature","geometry":{"type":"Point","coordinates":[-85.218408,38.2113681]},"properties":{"id":"shelby-county-historical-society-museum","name":"Shelby County Historical Society Museum","title":"Shelby County Historical Society Museum","city":"Shelbyville","county":"Shelby","address":"627 Main St, Shelbyville, KY 40065","history":"Local history museum in an 1872 downtown Shelbyville building operated by the Shelby County Historical Society. Exhibits cover county settlement, farming, and community life near the Frankfort-to-Falls road that made Shelbyville a county seat. Free admission for drop-in visitors exploring Bluegrass county heritage.","description":"Local history museum in an 1872 downtown Shelbyville building operated by the Shelby County Historical Society. Exhibits cover county settlement, farming, and community life near the Frankfort-to-Falls road that made Shelbyville a county seat. Free admission for drop-in visitors exploring Bluegrass county heritage.","website":"https://shelbykyhistory.org/","museum_type":"history","layer":"museums"}},{"type":"Feature","geometry":{"type":"Point","coordinates":[-84.8912,38.0386487]},"properties":{"id":"anderson-county-history-museum","name":"Anderson County History Museum","title":"Anderson County History Museum","city":"Lawrenceburg","county":"Anderson","address":"108 E Woodford St, Lawrenceburg, KY 40342","history":"Housed in Lawrenceburg's 1908 Carnegie Library, this free museum displays artifacts that tell Anderson County's story from pioneer settlement through bourbon-country commerce. Regular Tuesday open hours plus appointment visits make it a practical stop near Wild Turkey and Four Roses country.","description":"Housed in Lawrenceburg's 1908 Carnegie Library, this free museum displays artifacts that tell Anderson County's story from pioneer settlement through bourbon-country commerce. Regular Tuesday open hours plus appointment visits make it a practical stop near Wild Turkey and Four Roses country.","website":"https://visitlawrenceburgky.com/listing/anderson-county-history-museum/","museum_type":"history","layer":"museums"}},{"type":"Feature","geometry":{"type":"Point","coordinates":[-84.8747609,38.1990486]},"properties":{"id":"thomas-d-clark-center","name":"Thomas D. Clark Center for Kentucky History","title":"Thomas D. Clark Center for Kentucky History","city":"Frankfort","county":"Franklin","address":"100 W Broadway, Frankfort, KY 40601","history":"Flagship museum of the Kentucky Historical Society covering more than 12,000 years of Kentucky history, with permanent and rotating exhibits plus a major research library. Anchors the Frankfort history campus a short walk from the Old Capitol and Military History Museum. Smithsonian Affiliate and a natural first stop for statewide context.","description":"Flagship museum of the Kentucky Historical Society covering more than 12,000 years of Kentucky history, with permanent and rotating exhibits plus a major research library. Anchors the Frankfort history campus a short walk from the Old Capitol and Military History Museum. Smithsonian Affiliate and a natural first stop for statewide context.","website":"https://history.ky.gov/visit/thomas-d-clark-center-for-kentucky-history","museum_type":"history","founded_year":1999,"yearStart":1999,"yearEnd":1999,"layer":"museums"}},{"type":"Feature","geometry":{"type":"Point","coordinates":[-84.8762516,38.2001455]},"properties":{"id":"old-state-capitol","name":"Old State Capitol","title":"Old State Capitol","city":"Frankfort","county":"Franklin","address":"300 W Broadway, Frankfort, KY 40601","history":"Gideon Shryock's Greek Revival capitol (completed 1830) served as Kentucky's seat of government until 1910 and is now interpreted by the Kentucky Historical Society. The building and public grounds tell the story of antebellum politics, Civil War-era Frankfort, and statehouse architecture. Pair with the Clark Center across Broadway.","description":"Gideon Shryock's Greek Revival capitol (completed 1830) served as Kentucky's seat of government until 1910 and is now interpreted by the Kentucky Historical Society. The building and public grounds tell the story of antebellum politics, Civil War-era Frankfort, and statehouse architecture. Pair with the Clark Center across Broadway.","website":"https://history.ky.gov/visit/old-state-capitol-experience","museum_type":"house","founded_year":1830,"yearStart":1830,"yearEnd":1830,"layer":"museums"}},{"type":"Feature","geometry":{"type":"Point","coordinates":[-84.876342,38.1975511]},"properties":{"id":"kentucky-military-history-museum","name":"Kentucky Military History Museum","title":"Kentucky Military History Museum","city":"Frankfort","county":"Franklin","address":"125 E Main St, Frankfort, KY 40601","history":"Located in the fortress-like 1850 State Arsenal overlooking downtown Frankfort, this KHS museum interprets Kentucky military service through personal stories and artifacts. The Arsenal supplied arms through the Civil War and National Guard eras before becoming a museum in 1974. Part of the Army Museum System.","description":"Located in the fortress-like 1850 State Arsenal overlooking downtown Frankfort, this KHS museum interprets Kentucky military service through personal stories and artifacts. The Arsenal supplied arms through the Civil War and National Guard eras before becoming a museum in 1974. Part of the Army Museum System.","website":"https://history.ky.gov/visit/kentucky-military-history-museum","museum_type":"military","founded_year":1974,"yearStart":1974,"yearEnd":1974,"layer":"museums"}},{"type":"Feature","geometry":{"type":"Point","coordinates":[-84.8757431,38.1985258]},"properties":{"id":"capital-city-museum","name":"Capital City Museum","title":"Capital City Museum","city":"Frankfort","county":"Franklin","address":"325 Ann St, Frankfort, KY 40601","history":"Downtown Frankfort museum focused on the everyday life of the capital city—politics, industry, neighborhoods, and river commerce. Complements the statewide story at the Clark Center with a tighter local lens. Easy walking distance from Liberty Hall and the history campus.","description":"Downtown Frankfort museum focused on the everyday life of the capital city—politics, industry, neighborhoods, and river commerce. Complements the statewide story at the Clark Center with a tighter local lens. Easy walking distance from Liberty Hall and the history campus.","website":"https://www.capitalcitymuseum.com/","museum_type":"history","layer":"museums"}},{"type":"Feature","geometry":{"type":"Point","coordinates":[-84.8817923,38.1990715]},"properties":{"id":"liberty-hall-historic-site","name":"Liberty Hall Historic Site","title":"Liberty Hall Historic Site","city":"Frankfort","county":"Franklin","address":"202 Wilkinson St, Frankfort, KY 40601","history":"Two historic houses on the Kentucky River: Liberty Hall (1796) and the Orlando Brown House (1835), set in gardens in downtown Frankfort. Interprets early Kentucky political and family life tied to the Brown family and the young capital. Guided tours and grounds visits from spring through fall.","description":"Two historic houses on the Kentucky River: Liberty Hall (1796) and the Orlando Brown House (1835), set in gardens in downtown Frankfort. Interprets early Kentucky political and family life tied to the Brown family and the young capital. Guided tours and grounds visits from spring through fall.","website":"https://libertyhall.org/","museum_type":"house","founded_year":1796,"yearStart":1796,"yearEnd":1796,"layer":"museums"}},{"type":"Feature","geometry":{"type":"Point","coordinates":[-85.3768252,38.4047172]},"properties":{"id":"oldham-county-history-center","name":"Oldham County History Center","title":"Oldham County History Center","city":"La Grange","county":"Oldham","address":"106 N 2nd Ave, La Grange, KY 40031","history":"Campus of the Oldham County Historical Society west of the courthouse square, including the Peyton Samuel Head Family Museum, archives, and Rob Morris Chapel. Strong Underground Railroad interpretation (NPS Passport site) plus exhibits on D.W. Griffith, WWII veterans, and the Kentucky State Reformatory. Hands-on discovery museum for all ages.","description":"Campus of the Oldham County Historical Society west of the courthouse square, including the Peyton Samuel Head Family Museum, archives, and Rob Morris Chapel. Strong Underground Railroad interpretation (NPS Passport site) plus exhibits on D.W. Griffith, WWII veterans, and the Kentucky State Reformatory. Hands-on discovery museum for all ages.","website":"https://www.oldhamkyhistory.com/","museum_type":"history","layer":"museums"}},{"type":"Feature","geometry":{"type":"Point","coordinates":[-84.7301,38.0523]},"properties":{"id":"woodford-county-historical-society-museum","name":"Woodford County Historical Society Museum","title":"Woodford County Historical Society Museum","city":"Versailles","county":"Woodford","address":"121 Rose Hill, Versailles, KY 40383","history":"Free museum of Woodford County artifacts including Civil War memorabilia, everyday textiles and tools, and photographs of 1890s county schools. Displays also highlight Woodford's six Kentucky governors and Versailles streetscape history. Compact downtown stop near horse-farm country.","description":"Free museum of Woodford County artifacts including Civil War memorabilia, everyday textiles and tools, and photographs of 1890s county schools. Displays also highlight Woodford's six Kentucky governors and Versailles streetscape history. Compact downtown stop near horse-farm country.","website":"https://www.woodfordcountykyhistoricalsociety.com/museum","museum_type":"history","layer":"museums"}},{"type":"Feature","geometry":{"type":"Point","coordinates":[-84.7597962,38.0459293]},"properties":{"id":"bluegrass-railroad-museum","name":"Bluegrass Railroad and Museum","title":"Bluegrass Railroad and Museum","city":"Versailles","county":"Woodford","address":"175 Beasley Rd, Versailles, KY 40383","history":"Heritage railroad and museum in Woodford County Park offering scenic excursions through Bluegrass farmland plus rolling-stock and railroad history exhibits. A family-friendly outdoor stop that pairs well with Versailles and Midway bourbon-and-horse country drives.","description":"Heritage railroad and museum in Woodford County Park offering scenic excursions through Bluegrass farmland plus rolling-stock and railroad history exhibits. A family-friendly outdoor stop that pairs well with Versailles and Midway bourbon-and-horse country drives.","website":"https://www.bluegrassrailroad.com/","museum_type":"other","founded_year":1976,"yearStart":1976,"yearEnd":1976,"layer":"museums"}},{"type":"Feature","geometry":{"type":"Point","coordinates":[-84.7717,38.0106]},"properties":{"id":"jack-jouett-house","name":"Jack Jouett House Historic Site","title":"Jack Jouett House Historic Site","city":"Versailles","county":"Woodford","address":"255 Craigs Creek Rd, Versailles, KY 40383","history":"Late-18th-century home of Revolutionary War hero Jack Jouett—the 'Paul Revere of the South' who rode to warn Jefferson and the Virginia legislature in 1781. Interprets frontier architecture and Jouett's later Kentucky years. Rural Woodford County setting southwest of Versailles.","description":"Late-18th-century home of Revolutionary War hero Jack Jouett—the 'Paul Revere of the South' who rode to warn Jefferson and the Virginia legislature in 1781. Interprets frontier architecture and Jouett's later Kentucky years. Rural Woodford County setting southwest of Versailles.","website":"https://jouetthouse.org/","museum_type":"house","founded_year":1797,"yearStart":1797,"yearEnd":1797,"layer":"museums"}},{"type":"Feature","geometry":{"type":"Point","coordinates":[-84.5570677,38.2100849]},"properties":{"id":"georgetown-scott-county-museum","name":"Georgetown & Scott County Museum","title":"Georgetown & Scott County Museum","city":"Georgetown","county":"Scott","address":"229 E Main St, Georgetown, KY 40324","history":"Public museum in the former Georgetown Post Office collecting and interpreting Scott County history, culture, and artifacts. Exhibits and a gift shop of local art sit on Main Street in a growing Toyota-era college town. Strong local-history stop between Lexington and Cincinnati.","description":"Public museum in the former Georgetown Post Office collecting and interpreting Scott County history, culture, and artifacts. Exhibits and a gift shop of local art sit on Main Street in a growing Toyota-era college town. Strong local-history stop between Lexington and Cincinnati.","website":"https://www.georgetownscottcountymuseum.com/","museum_type":"history","layer":"museums"}},{"type":"Feature","geometry":{"type":"Point","coordinates":[-84.5625,38.1986]},"properties":{"id":"ward-hall","name":"Ward Hall","title":"Ward Hall","city":"Georgetown","county":"Scott","address":"1782 S Elkhorn Rd, Georgetown, KY 40324","history":"Monumental Greek Revival mansion built in the 1850s for Junius Ward—one of Kentucky's grandest antebellum houses. Tours interpret plantation-era architecture, Scott County society, and the building's later preservation. Landmark drive-to stop on the edge of Georgetown.","description":"Monumental Greek Revival mansion built in the 1850s for Junius Ward—one of Kentucky's grandest antebellum houses. Tours interpret plantation-era architecture, Scott County society, and the building's later preservation. Landmark drive-to stop on the edge of Georgetown.","website":"https://www.wardhall.net/","museum_type":"house","founded_year":1857,"yearStart":1857,"yearEnd":1857,"layer":"museums"}},{"type":"Feature","geometry":{"type":"Point","coordinates":[-85.751821,38.2557269]},"properties":{"id":"frazier-history-museum","name":"Frazier History Museum","title":"Frazier History Museum","city":"Louisville","county":"Jefferson","address":"829 W Main St, Louisville, KY 40202","history":"Museum Row flagship telling Kentucky history, culture, and people—including the official Kentucky Bourbon Trail Welcome Center. Combines arms-and-armor roots with rotating exhibits on Commonwealth stories. Ideal downtown starting point for Louisville history days.","description":"Museum Row flagship telling Kentucky history, culture, and people—including the official Kentucky Bourbon Trail Welcome Center. Combines arms-and-armor roots with rotating exhibits on Commonwealth stories. Ideal downtown starting point for Louisville history days.","website":"https://www.fraziermuseum.org/","museum_type":"history","founded_year":2004,"yearStart":2004,"yearEnd":2004,"layer":"museums"}},{"type":"Feature","geometry":{"type":"Point","coordinates":[-85.7713408,38.2052895]},"properties":{"id":"kentucky-derby-museum","name":"Kentucky Derby Museum","title":"Kentucky Derby Museum","city":"Louisville","county":"Jefferson","address":"704 Central Ave, Louisville, KY 40208","history":"Thoroughbred racing museum at Churchill Downs covering Derby history, jockeys, trainers, and race-day culture. Immersive exhibits and track tours connect Louisville's most famous tradition to the wider horse industry. Essential sports-and-culture stop in Jefferson County.","description":"Thoroughbred racing museum at Churchill Downs covering Derby history, jockeys, trainers, and race-day culture. Immersive exhibits and track tours connect Louisville's most famous tradition to the wider horse industry. Essential sports-and-culture stop in Jefferson County.","website":"https://www.derbymuseum.org/","museum_type":"other","founded_year":1985,"yearStart":1985,"yearEnd":1985,"layer":"museums"}},{"type":"Feature","geometry":{"type":"Point","coordinates":[-85.7639061,38.2566765]},"properties":{"id":"louisville-slugger-museum","name":"Louisville Slugger Museum & Factory","title":"Louisville Slugger Museum & Factory","city":"Louisville","county":"Jefferson","address":"800 W Main St, Louisville, KY 40202","history":"Museum and working bat factory on Main Street celebrating baseball and the iconic Louisville Slugger brand. Factory tours, player exhibits, and the giant bat outside make it one of Louisville's most recognizable visitor stops. Anchors Museum Row beside the Frazier.","description":"Museum and working bat factory on Main Street celebrating baseball and the iconic Louisville Slugger brand. Factory tours, player exhibits, and the giant bat outside make it one of Louisville's most recognizable visitor stops. Anchors Museum Row beside the Frazier.","website":"https://www.sluggermuseum.com/","museum_type":"other","founded_year":1996,"yearStart":1996,"yearEnd":1996,"layer":"museums"}},{"type":"Feature","geometry":{"type":"Point","coordinates":[-85.7599941,38.2581433]},"properties":{"id":"muhammad-ali-center","name":"Muhammad Ali Center","title":"Muhammad Ali Center","city":"Louisville","county":"Jefferson","address":"144 N 6th St, Louisville, KY 40202","history":"Cultural center and museum on the Louisville waterfront dedicated to Muhammad Ali's life, boxing career, and core values of respect, confidence, conviction, dedication, giving, and spirituality. Interactive galleries connect sports history to civil rights and global humanitarian work.","description":"Cultural center and museum on the Louisville waterfront dedicated to Muhammad Ali's life, boxing career, and core values of respect, confidence, conviction, dedication, giving, and spirituality. Interactive galleries connect sports history to civil rights and global humanitarian work.","website":"https://alicenter.org/","museum_type":"other","founded_year":2005,"yearStart":2005,"yearEnd":2005,"layer":"museums"}},{"type":"Feature","geometry":{"type":"Point","coordinates":[-85.7607957,38.2178538]},"properties":{"id":"speed-art-museum","name":"Speed Art Museum","title":"Speed Art Museum","city":"Louisville","county":"Jefferson","address":"2035 S 3rd St, Louisville, KY 40208","history":"Kentucky's oldest and largest art museum, beside the University of Louisville, with European, American, and contemporary collections plus major special exhibitions. Expanded campus galleries make it the state's primary fine-art destination. Strong complement to Louisville's history museums.","description":"Kentucky's oldest and largest art museum, beside the University of Louisville, with European, American, and contemporary collections plus major special exhibitions. Expanded campus galleries make it the state's primary fine-art destination. Strong complement to Louisville's history museums.","website":"https://www.speedmuseum.org/","museum_type":"art","founded_year":1927,"yearStart":1927,"yearEnd":1927,"layer":"museums"}},{"type":"Feature","geometry":{"type":"Point","coordinates":[-85.7625883,38.2577103]},"properties":{"id":"kentucky-science-center","name":"Kentucky Science Center","title":"Kentucky Science Center","city":"Louisville","county":"Jefferson","address":"727 W Main St, Louisville, KY 40202","history":"Hands-on science museum on Museum Row (formerly Louisville Science Center) with interactive STEM galleries, natural-history displays, and family programming. One of the oldest science museums in the country in continuous operation. Ideal rainy-day or kids stop downtown.","description":"Hands-on science museum on Museum Row (formerly Louisville Science Center) with interactive STEM galleries, natural-history displays, and family programming. One of the oldest science museums in the country in continuous operation. Ideal rainy-day or kids stop downtown.","website":"https://kysciencecenter.org/","museum_type":"science","founded_year":1871,"yearStart":1871,"yearEnd":1871,"layer":"museums"}},{"type":"Feature","geometry":{"type":"Point","coordinates":[-85.6626759,38.2876381]},"properties":{"id":"historic-locust-grove","name":"Historic Locust Grove","title":"Historic Locust Grove","city":"Louisville","county":"Jefferson","address":"561 Blankenbaker Ln, Louisville, KY 40207","history":"National Historic Landmark 55-acre farm homestead associated with the Croghan family and George Rogers Clark's later years. Interprets early Louisville, the Ohio River frontier, and enslaved labor on an early Kentucky plantation. House museum, grounds, and programs east of downtown.","description":"National Historic Landmark 55-acre farm homestead associated with the Croghan family and George Rogers Clark's later years. Interprets early Louisville, the Ohio River frontier, and enslaved labor on an early Kentucky plantation. House museum, grounds, and programs east of downtown.","website":"https://locustgrove.org/","museum_type":"house","founded_year":1790,"yearStart":1790,"yearEnd":1790,"layer":"museums"}},{"type":"Feature","geometry":{"type":"Point","coordinates":[-85.6681401,38.2145832]},"properties":{"id":"farmington-historic-home","name":"Farmington Historic Home","title":"Farmington Historic Home","city":"Louisville","county":"Jefferson","address":"3033 Bardstown Rd, Louisville, KY 40205","history":"Federal-style plantation home of the Speed family, with Jeffersonian architectural ties and a documented visit by Abraham Lincoln in 1841. Tours address enslavement, hemp farming, and antebellum Louisville. Major house museum on Bardstown Road.","description":"Federal-style plantation home of the Speed family, with Jeffersonian architectural ties and a documented visit by Abraham Lincoln in 1841. Tours address enslavement, hemp farming, and antebellum Louisville. Major house museum on Bardstown Road.","website":"https://farmingtonhistoricplantation.org/","museum_type":"house","founded_year":1816,"yearStart":1816,"yearEnd":1816,"layer":"museums"}},{"type":"Feature","geometry":{"type":"Point","coordinates":[-85.7145659,38.2568795]},"properties":{"id":"museum-american-printing-house-blind","name":"Museum of the American Printing House for the Blind","title":"Museum of the American Printing House for the Blind","city":"Louisville","county":"Jefferson","address":"1839 Frankfort Ave, Louisville, KY 40206","history":"Museum interpreting the history of education for people who are blind and the work of the American Printing House for the Blind, the world's largest nonprofit creating accessible educational materials. Unique Louisville institution with deep national impact. Tours connect manufacturing history to accessibility.","description":"Museum interpreting the history of education for people who are blind and the work of the American Printing House for the Blind, the world's largest nonprofit creating accessible educational materials. Unique Louisville institution with deep national impact. Tours connect manufacturing history to accessibility.","website":"https://www.aph.org/museum/","museum_type":"history","founded_year":1994,"yearStart":1994,"yearEnd":1994,"layer":"museums"}},{"type":"Feature","geometry":{"type":"Point","coordinates":[-85.7595943,38.2322303]},"properties":{"id":"filson-historical-society","name":"The Filson Historical Society","title":"The Filson Historical Society","city":"Louisville","county":"Jefferson","address":"1310 S 3rd St, Louisville, KY 40208","history":"Kentucky's oldest privately supported historical society, with museum galleries, research library, and special collections on Ohio Valley and Kentucky history. Named for explorer-historian John Filson. Old Louisville campus for deeper documentary and exhibit work.","description":"Kentucky's oldest privately supported historical society, with museum galleries, research library, and special collections on Ohio Valley and Kentucky history. Named for explorer-historian John Filson. Old Louisville campus for deeper documentary and exhibit work.","website":"https://filsonhistorical.org/","museum_type":"history","founded_year":1884,"yearStart":1884,"yearEnd":1884,"layer":"museums"}},{"type":"Feature","geometry":{"type":"Point","coordinates":[-84.4799493,38.0293209]},"properties":{"id":"ashland-henry-clay-estate","name":"Ashland, The Henry Clay Estate","title":"Ashland, The Henry Clay Estate","city":"Lexington","county":"Fayette","address":"120 Sycamore Rd, Lexington, KY 40502","history":"Plantation home and estate of statesman Henry Clay—the Great Compromiser—interpreting 19th-century politics, family life, and enslaved labor at Ashland. House museum, grounds, and outbuildings sit in a historic Lexington neighborhood. Essential Bluegrass political-history stop.","description":"Plantation home and estate of statesman Henry Clay—the Great Compromiser—interpreting 19th-century politics, family life, and enslaved labor at Ashland. House museum, grounds, and outbuildings sit in a historic Lexington neighborhood. Essential Bluegrass political-history stop.","website":"https://henryclay.org/","museum_type":"house","founded_year":1804,"yearStart":1804,"yearEnd":1804,"layer":"museums"}},{"type":"Feature","geometry":{"type":"Point","coordinates":[-84.501557,38.050524]},"properties":{"id":"mary-todd-lincoln-house","name":"Mary Todd Lincoln House","title":"Mary Todd Lincoln House","city":"Lexington","county":"Fayette","address":"578 W Main St, Lexington, KY 40508","history":"First historic-house museum in America to honor a First Lady—Mary Todd Lincoln's girlhood home on West Main Street. Period rooms and interpretation cover the Todd family, Lexington society, and Mary's later White House years. Compact downtown Lexington stop.","description":"First historic-house museum in America to honor a First Lady—Mary Todd Lincoln's girlhood home on West Main Street. Period rooms and interpretation cover the Todd family, Lexington society, and Mary's later White House years. Compact downtown Lexington stop.","website":"https://www.mtlhouse.org/","museum_type":"house","founded_year":1977,"yearStart":1977,"yearEnd":1977,"layer":"museums"}},{"type":"Feature","geometry":{"type":"Point","coordinates":[-84.5374395,37.9711891]},"properties":{"id":"waveland-state-historic-site","name":"Waveland State Historic Site","title":"Waveland State Historic Site","city":"Lexington","county":"Fayette","address":"225 Waveland Museum Ln, Lexington, KY 40514","history":"Greek Revival plantation house interpreting 19th-century Bluegrass plantation life, including the experiences of enslaved people who worked the land. Kentucky State Historic Site south of downtown Lexington. House and grounds tours year-round.","description":"Greek Revival plantation house interpreting 19th-century Bluegrass plantation life, including the experiences of enslaved people who worked the land. Kentucky State Historic Site south of downtown Lexington. House and grounds tours year-round.","website":"https://parks.ky.gov/lexington/parks/historic/waveland-state-historic-site","museum_type":"house","founded_year":1848,"yearStart":1848,"yearEnd":1848,"layer":"museums"}},{"type":"Feature","geometry":{"type":"Point","coordinates":[-84.4974616,38.0399316]},"properties":{"id":"uk-art-museum","name":"University of Kentucky Art Museum","title":"University of Kentucky Art Museum","city":"Lexington","county":"Fayette","address":"405 Rose St, Lexington, KY 40506","history":"University art museum in the Singletary Center presenting European, American, and contemporary works plus non-Western objects and changing exhibitions. Free campus destination connecting Lexington visitors to fine art beyond the horse parks. Strong complement to downtown house museums.","description":"University art museum in the Singletary Center presenting European, American, and contemporary works plus non-Western objects and changing exhibitions. Free campus destination connecting Lexington visitors to fine art beyond the horse parks. Strong complement to downtown house museums.","website":"https://finearts.uky.edu/art-museum","museum_type":"art","founded_year":1976,"yearStart":1976,"yearEnd":1976,"layer":"museums"}},{"type":"Feature","geometry":{"type":"Point","coordinates":[-84.5989808,38.0326441]},"properties":{"id":"aviation-museum-of-kentucky","name":"Aviation Museum of Kentucky","title":"Aviation Museum of Kentucky","city":"Lexington","county":"Fayette","address":"4029 Airport Rd, Lexington, KY 40510","history":"Aviation museum at Blue Grass Airport with historic aircraft, flight artifacts, and aerospace education exhibits. Celebrates Kentucky's aviation industry and military flying heritage. Easy drive-to stop on the west side of Lexington.","description":"Aviation museum at Blue Grass Airport with historic aircraft, flight artifacts, and aerospace education exhibits. Celebrates Kentucky's aviation industry and military flying heritage. Easy drive-to stop on the west side of Lexington.","website":"https://www.aviationky.org/","museum_type":"military","founded_year":1995,"yearStart":1995,"yearEnd":1995,"layer":"museums"}},{"type":"Feature","geometry":{"type":"Point","coordinates":[-84.178475,37.98984]},"properties":{"id":"bluegrass-heritage-museum","name":"Bluegrass Heritage Museum","title":"Bluegrass Heritage Museum","city":"Winchester","county":"Clark","address":"217 S Main St, Winchester, KY 40391","history":"Three-floor local history museum in Winchester's former Guerrant Clinic (Romanesque Revival, 1887). Covers Eskippakithiki, Boonesborough-era settlement, agriculture, military history, quilts, and the Pioneer Telephone Museum collection. Signature Clark County stop on the east ring toward the Red River Gorge.","description":"Three-floor local history museum in Winchester's former Guerrant Clinic (Romanesque Revival, 1887). Covers Eskippakithiki, Boonesborough-era settlement, agriculture, military history, quilts, and the Pioneer Telephone Museum collection. Signature Clark County stop on the east ring toward the Red River Gorge.","website":"https://www.bgheritage.com/","museum_type":"heritage","founded_year":2004,"yearStart":2004,"yearEnd":2004,"layer":"museums"}},{"type":"Feature","geometry":{"type":"Point","coordinates":[-83.9452869,37.8659781]},"properties":{"id":"red-river-museum","name":"Red River Museum","title":"Red River Museum","city":"Clay City","county":"Powell","address":"4541 Main St, Clay City, KY 40312","history":"Local history museum operated by the Red River Historical Society interpreting mining, logging, and railroad industries of the Red River valley. Gateway stop for travelers heading into the Red River Gorge and Powell County. Small community museum with strong regional industry focus.","description":"Local history museum operated by the Red River Historical Society interpreting mining, logging, and railroad industries of the Red River valley. Gateway stop for travelers heading into the Red River Gorge and Powell County. Small community museum with strong regional industry focus.","museum_type":"history","layer":"museums"}},{"type":"Feature","geometry":{"type":"Point","coordinates":[-85.4702316,37.8154459]},"properties":{"id":"oscar-getz-museum","name":"Oscar Getz Museum of Bourbon History","title":"Oscar Getz Museum of Bourbon History","city":"Bardstown","county":"Nelson","address":"114 N 5th St, Bardstown, KY 40004","history":"Bourbon and whiskey history museum in Spalding Hall covering American whiskey from Colonial days through the 1960s—advertising, bottles, Prohibition, and distilling culture. Shares the landmark 1826 building with the Bardstown Historical Museum. Must-stop in the Bourbon Capital of the World.","description":"Bourbon and whiskey history museum in Spalding Hall covering American whiskey from Colonial days through the 1960s—advertising, bottles, Prohibition, and distilling culture. Shares the landmark 1826 building with the Bardstown Historical Museum. Must-stop in the Bourbon Capital of the World.","website":"https://www.oscargetzwhiskeymuseum.com/","museum_type":"history","founded_year":1984,"yearStart":1984,"yearEnd":1984,"layer":"museums"}},{"type":"Feature","geometry":{"type":"Point","coordinates":[-85.4623237,37.8110802]},"properties":{"id":"civil-war-museum-bardstown","name":"Civil War Museum of the Western Theater","title":"Civil War Museum of the Western Theater","city":"Bardstown","county":"Nelson","address":"310 E Broadway, Bardstown, KY 40004","history":"One of the largest collections focused on the Civil War's Western Theater, now part of Bardstown's multi-site National Civil War Museum campus on Museum Row. Exhibits cover campaigns, Kentucky's divided loyalties, and soldier life; related sites include Old Bardstown Village and the Hal Moore Military Museum.","description":"One of the largest collections focused on the Civil War's Western Theater, now part of Bardstown's multi-site National Civil War Museum campus on Museum Row. Exhibits cover campaigns, Kentucky's divided loyalties, and soldier life; related sites include Old Bardstown Village and the Hal Moore Military Museum.","website":"https://civilwarmuseumbardstown.com/","museum_type":"military","founded_year":1996,"yearStart":1996,"yearEnd":1996,"layer":"museums"}},{"type":"Feature","geometry":{"type":"Point","coordinates":[-85.5873706,37.6654662]},"properties":{"id":"kentucky-railway-museum","name":"Kentucky Railway Museum","title":"Kentucky Railway Museum","city":"New Haven","county":"Nelson","address":"136 S Main St, New Haven, KY 40051","history":"Heritage railroad and museum interpreting Kentucky railroading with excursions, locomotives, and exhibits on the people who built the lines. Located in New Haven south of Bardstown on the Bourbon Trail map. Family-friendly transport-history day trip.","description":"Heritage railroad and museum interpreting Kentucky railroading with excursions, locomotives, and exhibits on the people who built the lines. Located in New Haven south of Bardstown on the Bourbon Trail map. Family-friendly transport-history day trip.","website":"https://kyrail.org/","museum_type":"other","founded_year":1954,"yearStart":1954,"yearEnd":1954,"layer":"museums"}},{"type":"Feature","geometry":{"type":"Point","coordinates":[-85.4566708,37.806836]},"properties":{"id":"my-old-kentucky-home","name":"My Old Kentucky Home State Park (Federal Hill)","title":"My Old Kentucky Home State Park (Federal Hill)","city":"Bardstown","county":"Nelson","address":"501 E Stephen Foster Ave, Bardstown, KY 40004","history":"Federal Hill mansion—better known as My Old Kentucky Home—interprets the Rowan family plantation and the song tradition linked to Stephen Foster. Kentucky State Park house museum with grounds and seasonal programs in Bardstown. Iconic Nelson County heritage stop.","description":"Federal Hill mansion—better known as My Old Kentucky Home—interprets the Rowan family plantation and the song tradition linked to Stephen Foster. Kentucky State Park house museum with grounds and seasonal programs in Bardstown. Iconic Nelson County heritage stop.","website":"https://parks.ky.gov/bardstown/parks/historic/my-old-kentucky-home-state-park","museum_type":"house","founded_year":1818,"yearStart":1818,"yearEnd":1818,"layer":"museums"}},{"type":"Feature","geometry":{"type":"Point","coordinates":[-85.4634062,37.8126561]},"properties":{"id":"bardstown-african-american-heritage-museum","name":"Bardstown African American Heritage Museum","title":"Bardstown African American Heritage Museum","city":"Bardstown","county":"Nelson","address":"315 N 2nd St, Bardstown, KY 40004","history":"Heritage museum in the restored 1812 Union Church in Bardstown's Historic East End—among the earliest two-story brick churches west of the Appalachians. Interprets African American community history in the Bourbon Capital. Important complement to Bardstown's better-known whiskey and Civil War sites.","description":"Heritage museum in the restored 1812 Union Church in Bardstown's Historic East End—among the earliest two-story brick churches west of the Appalachians. Interprets African American community history in the Bourbon Capital. Important complement to Bardstown's better-known whiskey and Civil War sites.","website":"https://www.bardstownaahm.com/","museum_type":"heritage","founded_year":2016,"yearStart":2016,"yearEnd":2016,"layer":"museums"}},{"type":"Feature","geometry":{"type":"Point","coordinates":[-85.7369,37.5312]},"properties":{"id":"abraham-lincoln-birthplace","name":"Abraham Lincoln Birthplace National Historical Park","title":"Abraham Lincoln Birthplace National Historical Park","city":"Hodgenville","county":"Larue","address":"2995 Lincoln Farm Rd, Hodgenville, KY 42748","history":"National Park Service site preserving the Sinking Spring Farm where Abraham Lincoln was born in 1809, plus the Knob Creek boyhood farm unit. Memorial building, boundary oak landscape, and visitor-center exhibits anchor Kentucky's Lincoln Trail. Essential Larue County pilgrimage stop.","description":"National Park Service site preserving the Sinking Spring Farm where Abraham Lincoln was born in 1809, plus the Knob Creek boyhood farm unit. Memorial building, boundary oak landscape, and visitor-center exhibits anchor Kentucky's Lincoln Trail. Essential Larue County pilgrimage stop.","website":"https://www.nps.gov/abli/","museum_type":"heritage","founded_year":1916,"yearStart":1916,"yearEnd":1916,"layer":"museums"}},{"type":"Feature","geometry":{"type":"Point","coordinates":[-85.7401653,37.5739177]},"properties":{"id":"lincoln-museum-hodgenville","name":"The Lincoln Museum","title":"The Lincoln Museum","city":"Hodgenville","county":"Larue","address":"66 Lincoln Square, Hodgenville, KY 42748","history":"Downtown Hodgenville museum with life-size dioramas of key Lincoln life events plus Lincoln art and memorabilia. Complements the Birthplace NHP a few miles south with a town-square visitor experience. Core stop on the Kentucky Lincoln Trail.","description":"Downtown Hodgenville museum with life-size dioramas of key Lincoln life events plus Lincoln art and memorabilia. Complements the Birthplace NHP a few miles south with a town-square visitor experience. Core stop on the Kentucky Lincoln Trail.","website":"https://www.lincolnmuseum-ky.org/","museum_type":"history","founded_year":1989,"yearStart":1989,"yearEnd":1989,"layer":"museums"}},{"type":"Feature","geometry":{"type":"Point","coordinates":[-85.7160752,37.9880632]},"properties":{"id":"bullitt-county-history-museum","name":"Bullitt County History Museum","title":"Bullitt County History Museum","city":"Shepherdsville","county":"Bullitt","address":"300 S Buckman St, Shepherdsville, KY 40165","history":"Free museum and research room of the Bullitt County Genealogical Society inside the county courthouse. Local artifacts and archives cover Shepherdsville, salt works, and I-65 corridor community history. Practical weekday stop south of Louisville.","description":"Free museum and research room of the Bullitt County Genealogical Society inside the county courthouse. Local artifacts and archives cover Shepherdsville, salt works, and I-65 corridor community history. Practical weekday stop south of Louisville.","website":"https://bullittcountyhistory.org/","museum_type":"history","layer":"museums"}},{"type":"Feature","geometry":{"type":"Point","coordinates":[-84.7704879,37.6570043]},"properties":{"id":"ephraim-mcdowell-house","name":"Ephraim McDowell House","title":"Ephraim McDowell House","city":"Danville","county":"Boyle","address":"125 S 2nd St, Danville, KY 40422","history":"House museum of Dr. Ephraim McDowell, who performed the first successful ovariotomy in 1809—an early milestone in abdominal surgery. Includes period doctor's office, house, and apothecary interpretation in downtown Danville. Medical-history landmark on Constitution Square's doorstep.","description":"House museum of Dr. Ephraim McDowell, who performed the first successful ovariotomy in 1809—an early milestone in abdominal surgery. Includes period doctor's office, house, and apothecary interpretation in downtown Danville. Medical-history landmark on Constitution Square's doorstep.","website":"https://www.mcdowellhouse.com/","museum_type":"house","layer":"museums"}},{"type":"Feature","geometry":{"type":"Point","coordinates":[-84.9705,37.6751]},"properties":{"id":"perryville-battlefield","name":"Perryville Battlefield State Historic Site","title":"Perryville Battlefield State Historic Site","city":"Perryville","county":"Boyle","address":"1825 Battlefield Rd, Perryville, KY 40468","history":"Preserved battlefield and museum interpreting the October 8, 1862 Battle of Perryville—the largest Civil War battle fought in Kentucky. Visitor center exhibits, monuments, and walking trails explain the Western Theater turning point. Major military-history drive south of Danville.","description":"Preserved battlefield and museum interpreting the October 8, 1862 Battle of Perryville—the largest Civil War battle fought in Kentucky. Visitor center exhibits, monuments, and walking trails explain the Western Theater turning point. Major military-history drive south of Danville.","website":"https://parks.ky.gov/perryville/parks/historic/perryville-battlefield-state-historic-site","museum_type":"military","founded_year":1936,"yearStart":1936,"yearEnd":1936,"layer":"museums"}},{"type":"Feature","geometry":{"type":"Point","coordinates":[-84.2511345,38.2095862]},"properties":{"id":"hopewell-museum","name":"Hopewell Museum","title":"Hopewell Museum","city":"Paris","county":"Bourbon","address":"800 Pleasant St, Paris, KY 40361","history":"Art and history museum interpreting Bourbon County and Central Kentucky culture in a historic Paris building. Permanent and changing exhibits cover local life, decorative arts, and regional identity. Anchor stop in the county that gave bourbon whiskey its name.","description":"Art and history museum interpreting Bourbon County and Central Kentucky culture in a historic Paris building. Permanent and changing exhibits cover local life, decorative arts, and regional identity. Anchor stop in the county that gave bourbon whiskey its name.","website":"https://www.hopewellmuseum.org/","museum_type":"heritage","founded_year":1994,"yearStart":1994,"yearEnd":1994,"layer":"museums"}},{"type":"Feature","geometry":{"type":"Point","coordinates":[-84.1161,38.2156]},"properties":{"id":"cane-ridge-meeting-house","name":"Cane Ridge Meeting House & Barton W. Stone Museum","title":"Cane Ridge Meeting House & Barton W. Stone Museum","city":"Paris","county":"Bourbon","address":"1655 Cane Ridge Rd, Paris, KY 40361","history":"Preserved 1791 log meeting house that hosted the famous 1801 Cane Ridge Revival—central to the Stone-Campbell Restoration Movement. On-site museum interprets Barton W. Stone and frontier religious history. Rural Bourbon County pilgrimage site east of Paris.","description":"Preserved 1791 log meeting house that hosted the famous 1801 Cane Ridge Revival—central to the Stone-Campbell Restoration Movement. On-site museum interprets Barton W. Stone and frontier religious history. Rural Bourbon County pilgrimage site east of Paris.","website":"https://www.caneridge.org/","museum_type":"heritage","founded_year":1791,"yearStart":1791,"yearEnd":1791,"layer":"museums"}},{"type":"Feature","geometry":{"type":"Point","coordinates":[-87.1140697,37.7751538]},"properties":{"id":"bluegrass-music-hall-of-fame","name":"Bluegrass Music Hall of Fame & Museum","title":"Bluegrass Music Hall of Fame & Museum","city":"Owensboro","county":"Daviess","address":"311 W 2nd St, Owensboro, KY 42301","history":"National museum and hall of fame dedicated to bluegrass music history, instruments, artists, and the genre's Kentucky roots (formerly the International Bluegrass Music Museum). Concert venue and exhibits on Owensboro's riverfront cultural district. Flagship Daviess County stop.","description":"National museum and hall of fame dedicated to bluegrass music history, instruments, artists, and the genre's Kentucky roots (formerly the International Bluegrass Music Museum). Concert venue and exhibits on Owensboro's riverfront cultural district. Flagship Daviess County stop.","website":"https://www.bluegrasshall.org/","museum_type":"other","founded_year":1991,"yearStart":1991,"yearEnd":1991,"layer":"museums"}},{"type":"Feature","geometry":{"type":"Point","coordinates":[-87.1102319,37.7746413]},"properties":{"id":"owensboro-museum-science-history","name":"Owensboro Museum of Science & History","title":"Owensboro Museum of Science & History","city":"Owensboro","county":"Daviess","address":"122 E 2nd St, Owensboro, KY 42303","history":"Family museum with natural history, science, local history, coal-mine, Native American, motorsports, and children's galleries downtown. Hands-on programming makes it Owensboro's go-to indoor learning stop. Complements the Bluegrass Music Hall of Fame nearby.","description":"Family museum with natural history, science, local history, coal-mine, Native American, motorsports, and children's galleries downtown. Hands-on programming makes it Owensboro's go-to indoor learning stop. Complements the Bluegrass Music Hall of Fame nearby.","website":"https://owensboromuseum.org/","museum_type":"science","layer":"museums"}},{"type":"Feature","geometry":{"type":"Point","coordinates":[-87.1135988,37.7753106]},"properties":{"id":"owensboro-museum-fine-art","name":"Owensboro Museum of Fine Art","title":"Owensboro Museum of Fine Art","city":"Owensboro","county":"Daviess","address":"901 Frederica St, Owensboro, KY 42301","history":"Regional fine-art museum with American, European, and Asian collections from the 15th century to contemporary work, plus decorative arts. Anchors Owensboro's cultural corridor beyond music and science museums. Strong western-Kentucky art destination.","description":"Regional fine-art museum with American, European, and Asian collections from the 15th century to contemporary work, plus decorative arts. Anchors Owensboro's cultural corridor beyond music and science museums. Strong western-Kentucky art destination.","website":"https://www.omfa.us/","museum_type":"art","founded_year":1977,"yearStart":1977,"yearEnd":1977,"layer":"museums"}},{"type":"Feature","geometry":{"type":"Point","coordinates":[-84.5388686,39.081216]},"properties":{"id":"behringer-crawford-museum","name":"Behringer-Crawford Museum","title":"Behringer-Crawford Museum","city":"Covington","county":"Kenton","address":"1600 Montague Rd, Covington, KY 41011","history":"Regional history museum in Devou Park interpreting Northern Kentucky's natural and cultural history—from Ice Age fossils to river-city industry. Signature Covington destination with sweeping Cincinnati views from the park. Best single-stop overview of the NKY story.","description":"Regional history museum in Devou Park interpreting Northern Kentucky's natural and cultural history—from Ice Age fossils to river-city industry. Signature Covington destination with sweeping Cincinnati views from the park. Best single-stop overview of the NKY story.","website":"https://www.bcmuseum.org/","museum_type":"history","founded_year":1950,"yearStart":1950,"yearEnd":1950,"layer":"museums"}},{"type":"Feature","geometry":{"type":"Point","coordinates":[-84.7519,38.8867]},"properties":{"id":"big-bone-lick-museum","name":"Big Bone Lick State Historic Site Museum","title":"Big Bone Lick State Historic Site Museum","city":"Union","county":"Boone","address":"3380 Beaver Rd, Union, KY 41091","history":"Visitor-center museum at Big Bone Lick State Historic Site interpreting Pleistocene fossils, salt-lick science, and early exploration of Kentucky's deep-time landscape. Outdoor museum elements recreate Ice Age fauna at the lick. Signature Boone County natural-history stop.","description":"Visitor-center museum at Big Bone Lick State Historic Site interpreting Pleistocene fossils, salt-lick science, and early exploration of Kentucky's deep-time landscape. Outdoor museum elements recreate Ice Age fauna at the lick. Signature Boone County natural-history stop.","website":"https://parks.ky.gov/union/parks/historic/big-bone-lick-state-historic-site","museum_type":"science","layer":"museums"}},{"type":"Feature","geometry":{"type":"Point","coordinates":[-84.6456245,39.0009694]},"properties":{"id":"dinsmore-homestead","name":"Dinsmore Homestead","title":"Dinsmore Homestead","city":"Burlington","county":"Boone","address":"5656 Burlington Pike, Burlington, KY 41005","history":"1840s homestead museum on 30 acres interpreting Northern Kentucky farm life, the Dinsmore family, and free/enslaved labor through unusually rich archival collections. House and landscape tours near Burlington. Strong Boone County house-museum counterpart to Big Bone Lick.","description":"1840s homestead museum on 30 acres interpreting Northern Kentucky farm life, the Dinsmore family, and free/enslaved labor through unusually rich archival collections. House and landscape tours near Burlington. Strong Boone County house-museum counterpart to Big Bone Lick.","website":"https://www.dinsmorefarm.org/","museum_type":"house","founded_year":1842,"yearStart":1842,"yearEnd":1842,"layer":"museums"}},{"type":"Feature","geometry":{"type":"Point","coordinates":[-83.7670714,38.6482142]},"properties":{"id":"kentucky-gateway-museum-center","name":"Kentucky Gateway Museum Center","title":"Kentucky Gateway Museum Center","city":"Maysville","county":"Mason","address":"215 Sutton St, Maysville, KY 41056","history":"Major regional museum complex with Kentucky history dioramas, an art gallery, and the Kathleen Savage Browning Miniatures Collection. Anchors Maysville's Ohio River heritage tourism. Best single indoor overview of Mason County and the limestones-to-bluegrass corridor.","description":"Major regional museum complex with Kentucky history dioramas, an art gallery, and the Kathleen Savage Browning Miniatures Collection. Anchors Maysville's Ohio River heritage tourism. Best single indoor overview of Mason County and the limestones-to-bluegrass corridor.","website":"https://www.kygmc.org/","museum_type":"history","founded_year":1878,"yearStart":1878,"yearEnd":1878,"layer":"museums"}},{"type":"Feature","geometry":{"type":"Point","coordinates":[-83.8135395,38.6123317]},"properties":{"id":"national-underground-railroad-museum","name":"National Underground Railroad Museum","title":"National Underground Railroad Museum","city":"Maysville","county":"Mason","address":"38 W 4th St, Maysville, KY 41056","history":"Museum in the Bierbower House, a documented Underground Railroad safe house, interpreting escape routes across the Ohio River at Maysville. Personal stories and period rooms connect Mason County to the national freedom struggle. Pair with Old Washington and the Gateway Museum Center.","description":"Museum in the Bierbower House, a documented Underground Railroad safe house, interpreting escape routes across the Ohio River at Maysville. Personal stories and period rooms connect Mason County to the national freedom struggle. Pair with Old Washington and the Gateway Museum Center.","museum_type":"history","layer":"museums"}},{"type":"Feature","geometry":{"type":"Point","coordinates":[-83.8085628,38.6146669]},"properties":{"id":"harriet-beecher-stowe-museum","name":"Harriet Beecher Stowe Slavery to Freedom Museum","title":"Harriet Beecher Stowe Slavery to Freedom Museum","city":"Maysville","county":"Mason","address":"2124 Old Main St, Washington, KY 41056","history":"Located in the Marshall Key House in Old Washington, associated with Harriet Beecher Stowe's observations that informed Uncle Tom's Cabin. Interprets slavery, freedom seeking, and antebellum river-town life. Part of the Old Washington historic village experience.","description":"Located in the Marshall Key House in Old Washington, associated with Harriet Beecher Stowe's observations that informed Uncle Tom's Cabin. Interprets slavery, freedom seeking, and antebellum river-town life. Part of the Old Washington historic village experience.","museum_type":"house","layer":"museums"}},{"type":"Feature","geometry":{"type":"Point","coordinates":[-85.859492,37.6941947]},"properties":{"id":"hardin-county-history-museum","name":"Hardin County History Museum","title":"Hardin County History Museum","city":"Elizabethtown","county":"Hardin","address":"201 W Dixie Ave, Elizabethtown, KY 42701","history":"Regional history museum on the Lincoln Trail covering Hardin County from pioneer settlement to the present, with rotating exhibits and famous-resident stories. Downtown Elizabethtown stop for travelers between Louisville and Hodgenville. Strong local-history counterpart to Fort Knox military sites.","description":"Regional history museum on the Lincoln Trail covering Hardin County from pioneer settlement to the present, with rotating exhibits and famous-resident stories. Downtown Elizabethtown stop for travelers between Louisville and Hodgenville. Strong local-history counterpart to Fort Knox military sites.","website":"http://hardinkyhistory.com/","museum_type":"history","layer":"museums"}},{"type":"Feature","geometry":{"type":"Point","coordinates":[-85.974,37.897]},"properties":{"id":"patton-museum-of-leadership","name":"General George Patton Museum of Leadership","title":"General George Patton Museum of Leadership","city":"Fort Knox","county":"Hardin","address":"4554 Fayette Ave, Fort Knox, KY 40121","history":"Museum of leadership and armor heritage associated with General George S. Patton Jr. and Fort Knox training traditions (evolved from the earlier Patton Museum of Cavalry and Armor). Public visitor access focuses on leadership exhibits and military history. Major Hardin County destination beside the Gold Vault area.","description":"Museum of leadership and armor heritage associated with General George S. Patton Jr. and Fort Knox training traditions (evolved from the earlier Patton Museum of Cavalry and Armor). Public visitor access focuses on leadership exhibits and military history. Major Hardin County destination beside the Gold Vault area.","website":"https://www.generalpatton.org/","museum_type":"military","founded_year":1972,"yearStart":1972,"yearEnd":1972,"layer":"museums"}},{"type":"Feature","geometry":{"type":"Point","coordinates":[-87.4675963,36.8483865]},"properties":{"id":"pennyroyal-area-museum","name":"Pennyroyal Area Museum","title":"Pennyroyal Area Museum","city":"Hopkinsville","county":"Christian","address":"217 E 9th St, Hopkinsville, KY 42240","history":"Regional museum covering Christian County and the Pennyroyal—Edgar Cayce, Black Patch Tobacco Wars and Night Riders, African American history, pioneer life, and military exhibits. Downtown Hopkinsville flagship of Museums of Historic Hopkinsville-Christian County. Essential western Bourbon Trail-county history stop.","description":"Regional museum covering Christian County and the Pennyroyal—Edgar Cayce, Black Patch Tobacco Wars and Night Riders, African American history, pioneer life, and military exhibits. Downtown Hopkinsville flagship of Museums of Historic Hopkinsville-Christian County. Essential western Bourbon Trail-county history stop.","website":"https://www.museumsofhopkinsville.org/","museum_type":"history","founded_year":1975,"yearStart":1975,"yearEnd":1975,"layer":"museums"}},{"type":"Feature","geometry":{"type":"Point","coordinates":[-86.5666914,36.7873867]},"properties":{"id":"octagon-hall-museum","name":"Octagon Hall Museum","title":"Octagon Hall Museum","city":"Franklin","county":"Simpson","address":"6040 Bowling Green Rd, Franklin, KY 42134","history":"Rare octagonal antebellum house museum interpreting Civil War-era southern Kentucky life and architecture. Period rooms and grounds tours south of Franklin. Distinctive house-museum stop for travelers between Bowling Green and Nashville.","description":"Rare octagonal antebellum house museum interpreting Civil War-era southern Kentucky life and architecture. Period rooms and grounds tours south of Franklin. Distinctive house-museum stop for travelers between Bowling Green and Nashville.","website":"https://www.octagonhall.com/","museum_type":"house","founded_year":1859,"yearStart":1859,"yearEnd":1859,"layer":"museums"}},{"type":"Feature","geometry":{"type":"Point","coordinates":[-82.51976,37.47915]},"properties":{"id":"big-sandy-heritage-center","name":"Big Sandy Heritage Center Museum","title":"Big Sandy Heritage Center Museum","city":"Pikeville","county":"Pike","address":"172 Division St, Pikeville, KY 41501","history":"Regional heritage museum with major exhibits on fossils, Native and pioneer settlement, Civil War in the Big Sandy, industrialization, and especially the Hatfield-McCoy feud. Largest historical-artifact repository in the Upper Big Sandy Valley. Flagship eastern Kentucky stop in Pikeville.","description":"Regional heritage museum with major exhibits on fossils, Native and pioneer settlement, Civil War in the Big Sandy, industrialization, and especially the Hatfield-McCoy feud. Largest historical-artifact repository in the Upper Big Sandy Valley. Flagship eastern Kentucky stop in Pikeville.","website":"https://bigsandyheritage.com/","museum_type":"heritage","layer":"museums"}},{"type":"Feature","geometry":{"type":"Point","coordinates":[-84.0115302,38.7740469]},"properties":{"id":"rosemary-clooney-museum","name":"Rosemary Clooney Museum","title":"Rosemary Clooney Museum","city":"Augusta","county":"Bracken","address":"106 E Riverside Dr, Augusta, KY 41002","history":"House museum celebrating singer and actress Rosemary Clooney in her riverside hometown of Augusta on the Ohio. Memorabilia and period rooms interpret mid-century entertainment history with Kentucky roots. Scenic Bracken County drive-to stop.","description":"House museum celebrating singer and actress Rosemary Clooney in her riverside hometown of Augusta on the Ohio. Memorabilia and period rooms interpret mid-century entertainment history with Kentucky roots. Scenic Bracken County drive-to stop.","website":"https://www.rosemaryclooney.org/","museum_type":"house","layer":"museums"}},{"type":"Feature","geometry":{"type":"Point","coordinates":[-86.457647,36.984529]},"properties":{"id":"kentucky-museum","name":"Kentucky Museum","title":"Kentucky Museum","city":"Bowling Green","county":"Warren","address":"1444 Kentucky St, Bowling Green, KY 42101","history":"Western Kentucky University's flagship museum of Kentucky cultural history, decorative arts, and Duncan Hines collections. Major south-central public museum on the WKU campus.","description":"Western Kentucky University's flagship museum of Kentucky cultural history, decorative arts, and Duncan Hines collections. Major south-central public museum on the WKU campus.","website":"https://www.wku.edu/kentuckymuseum/","museum_type":"history","founded_year":1939,"yearStart":1939,"yearEnd":1939,"layer":"museums"}},{"type":"Feature","geometry":{"type":"Point","coordinates":[-86.3744523,37.0042236]},"properties":{"id":"national-corvette-museum","name":"National Corvette Museum","title":"National Corvette Museum","city":"Bowling Green","county":"Warren","address":"350 Corvette Dr, Bowling Green, KY 42101","history":"Automotive museum celebrating the Chevrolet Corvette beside the Bowling Green Assembly Plant. Iconic Kentucky tourism stop with exhibits, Skydome, and plant-tour pairing.","description":"Automotive museum celebrating the Chevrolet Corvette beside the Bowling Green Assembly Plant. Iconic Kentucky tourism stop with exhibits, Skydome, and plant-tour pairing.","website":"https://www.corvettemuseum.org/","museum_type":"other","founded_year":1994,"yearStart":1994,"yearEnd":1994,"layer":"museums"}},{"type":"Feature","geometry":{"type":"Point","coordinates":[-86.4382531,37.0001899]},"properties":{"id":"historic-railpark-bowling-green","name":"Historic Railpark and Train Museum","title":"Historic Railpark and Train Museum","city":"Bowling Green","county":"Warren","address":"401 Kentucky St, Bowling Green, KY 42101","history":"Restored L&N depot museum with historic locomotives and rolling stock interpreting Bowling Green's railroad heritage on the Louisville & Nashville corridor.","description":"Restored L&N depot museum with historic locomotives and rolling stock interpreting Bowling Green's railroad heritage on the Louisville & Nashville corridor.","website":"https://www.historicrailpark.com/","museum_type":"heritage","founded_year":2007,"yearStart":2007,"yearEnd":2007,"layer":"museums"}},{"type":"Feature","geometry":{"type":"Point","coordinates":[-86.4537157,37.0056323]},"properties":{"id":"riverview-hobson-grove","name":"Riverview at Hobson Grove","title":"Riverview at Hobson Grove","city":"Bowling Green","county":"Warren","address":"1100 W Main Ave, Bowling Green, KY 42101","history":"Italianate Civil War–era mansion museum overlooking the Barren River, interpreting Bowling Green life when the city briefly served as Confederate Kentucky's capital.","description":"Italianate Civil War–era mansion museum overlooking the Barren River, interpreting Bowling Green life when the city briefly served as Confederate Kentucky's capital.","website":"https://www.bgky.org/riverview","museum_type":"house","founded_year":1972,"yearStart":1972,"yearEnd":1972,"layer":"museums"}},{"type":"Feature","geometry":{"type":"Point","coordinates":[-88.5971645,37.089332]},"properties":{"id":"national-quilt-museum","name":"National Quilt Museum","title":"National Quilt Museum","city":"Paducah","county":"McCracken","address":"215 Jefferson St, Paducah, KY 42001","history":"Paducah's nationally known museum of contemporary quilts and fiber art, anchoring the city's UNESCO Creative City reputation and QuiltWeek tourism.","description":"Paducah's nationally known museum of contemporary quilts and fiber art, anchoring the city's UNESCO Creative City reputation and QuiltWeek tourism.","website":"https://quiltmuseum.org/","museum_type":"art","founded_year":1991,"yearStart":1991,"yearEnd":1991,"layer":"museums"}},{"type":"Feature","geometry":{"type":"Point","coordinates":[-88.6258072,37.0853784]},"properties":{"id":"river-discovery-center","name":"River Discovery Center","title":"River Discovery Center","city":"Paducah","county":"McCracken","address":"117 S Water St, Paducah, KY 42001","history":"Ohio River museum on Paducah's waterfront covering steamboats, commerce, locks and dams, and river ecology in the Jackson Purchase.","description":"Ohio River museum on Paducah's waterfront covering steamboats, commerce, locks and dams, and river ecology in the Jackson Purchase.","website":"https://www.riverdiscoverycenter.org/","museum_type":"science","founded_year":1988,"yearStart":1988,"yearEnd":1988,"layer":"museums"}},{"type":"Feature","geometry":{"type":"Point","coordinates":[-88.6256886,37.0828138]},"properties":{"id":"william-clark-market-house","name":"William Clark Market House Museum","title":"William Clark Market House Museum","city":"Paducah","county":"McCracken","address":"121 S 2nd St, Paducah, KY 42001","history":"Paducah city history museum in the historic Market House, covering William Clark's town founding, river trade, and local culture.","description":"Paducah city history museum in the historic Market House, covering William Clark's town founding, river trade, and local culture.","website":"https://www.markethousemuseum.com/","museum_type":"history","founded_year":1968,"yearStart":1968,"yearEnd":1968,"layer":"museums"}},{"type":"Feature","geometry":{"type":"Point","coordinates":[-88.6307446,37.0722435]},"properties":{"id":"lloyd-tilghman-house","name":"Lloyd Tilghman House & Civil War Museum","title":"Lloyd Tilghman House & Civil War Museum","city":"Paducah","county":"McCracken","address":"631 Kentucky Ave, Paducah, KY 42001","history":"House museum interpreting Confederate General Lloyd Tilghman and the 1864 Battle of Paducah in the western theater of the Civil War.","description":"House museum interpreting Confederate General Lloyd Tilghman and the 1864 Battle of Paducah in the western theater of the Civil War.","website":"https://www.tilghmancivilwarmuseum.com/","museum_type":"military","founded_year":2006,"yearStart":2006,"yearEnd":2006,"layer":"museums"}},{"type":"Feature","geometry":{"type":"Point","coordinates":[-87.5921536,37.8404295]},"properties":{"id":"john-james-audubon-museum","name":"John James Audubon Museum","title":"John James Audubon Museum","city":"Henderson","county":"Henderson","address":"3100 US-41 N, Henderson, KY 42420","history":"State park museum holding significant Audubon art and natural-history exhibits at the site associated with the artist's Kentucky years along the Ohio River.","description":"State park museum holding significant Audubon art and natural-history exhibits at the site associated with the artist's Kentucky years along the Ohio River.","website":"https://parks.ky.gov/henderson/parks/resort/john-james-audubon-state-park","museum_type":"art","founded_year":1938,"yearStart":1938,"yearEnd":1938,"layer":"museums"}},{"type":"Feature","geometry":{"type":"Point","coordinates":[-87.1195,36.8435]},"properties":{"id":"jefferson-davis-monument","name":"Jefferson Davis State Historic Site","title":"Jefferson Davis State Historic Site","city":"Fairview","county":"Todd","address":"258 Pembroke-Fairview Rd, Fairview, KY 42221","history":"351-foot obelisk and museum commemorating Jefferson Davis's birthplace in Todd County—Kentucky's major Confederate memorial state historic site.","description":"351-foot obelisk and museum commemorating Jefferson Davis's birthplace in Todd County—Kentucky's major Confederate memorial state historic site.","website":"https://parks.ky.gov/fairview/parks/historic/jefferson-davis-state-historic-site","museum_type":"heritage","founded_year":1924,"yearStart":1924,"yearEnd":1924,"layer":"museums"}},{"type":"Feature","geometry":{"type":"Point","coordinates":[-82.9562693,36.965306]},"properties":{"id":"kentucky-coal-mining-museum","name":"Kentucky Coal Mining Museum","title":"Kentucky Coal Mining Museum","city":"Benham","county":"Harlan","address":"231 Main St, Benham, KY 40807","history":"Museum of coal-camp life and mining technology in a former International Harvester company store in Benham—central to Harlan County's coal heritage story.","description":"Museum of coal-camp life and mining technology in a former International Harvester company store in Benham—central to Harlan County's coal heritage story.","website":"https://www.kentuckycoalmuseum.org/","museum_type":"heritage","founded_year":1994,"yearStart":1994,"yearEnd":1994,"layer":"museums"}},{"type":"Feature","geometry":{"type":"Point","coordinates":[-82.6392226,38.4780382]},"properties":{"id":"highlands-museum-ashland","name":"Highlands Museum and Discovery Center","title":"Highlands Museum and Discovery Center","city":"Ashland","county":"Boyd","address":"1620 Winchester Ave, Ashland, KY 41101","history":"Ashland's regional history and children's discovery museum covering eastern Kentucky industry, culture, and community life along the Ohio River.","description":"Ashland's regional history and children's discovery museum covering eastern Kentucky industry, culture, and community life along the Ohio River.","website":"https://www.highlandsmuseum.com/","museum_type":"history","founded_year":1984,"yearStart":1984,"yearEnd":1984,"layer":"museums"}},{"type":"Feature","geometry":{"type":"Point","coordinates":[-83.4381528,38.1745861]},"properties":{"id":"kentucky-folk-art-center","name":"Kentucky Folk Art Center","title":"Kentucky Folk Art Center","city":"Morehead","county":"Rowan","address":"102 W 1st St, Morehead, KY 40351","history":"Morehead State University museum dedicated to self-taught and folk artists of Kentucky and Appalachia, with rotating exhibitions and a permanent collection.","description":"Morehead State University museum dedicated to self-taught and folk artists of Kentucky and Appalachia, with rotating exhibitions and a permanent collection.","website":"https://www.moreheadstate.edu/kfac/","museum_type":"art","founded_year":1985,"yearStart":1985,"yearEnd":1985,"layer":"museums"}},{"type":"Feature","geometry":{"type":"Point","coordinates":[-84.3523272,37.8330208]},"properties":{"id":"white-hall-state-historic-site","name":"White Hall State Historic Site","title":"White Hall State Historic Site","city":"Richmond","county":"Madison","address":"500 White Hall Shrine Rd, Richmond, KY 40475","history":"Restored Italianate mansion of emancipationist Cassius Marcellus Clay, interpreting 19th-century politics, slavery debates, and Clay family life near Richmond.","description":"Restored Italianate mansion of emancipationist Cassius Marcellus Clay, interpreting 19th-century politics, slavery debates, and Clay family life near Richmond.","website":"https://parks.ky.gov/richmond/parks/historic/white-hall-state-historic-site","museum_type":"house","founded_year":1971,"yearStart":1971,"yearEnd":1971,"layer":"museums"}},{"type":"Feature","geometry":{"type":"Point","coordinates":[-84.2995708,37.7460574]},"properties":{"id":"irvinton-house-museum","name":"Irvinton House Museum","title":"Irvinton House Museum","city":"Richmond","county":"Madison","address":"341 Lancaster Ave, Richmond, KY 40475","history":"Madison County local-history museum in Irvine-McDowell Park interpreting Richmond and county settlement, Civil War context, and community life.","description":"Madison County local-history museum in Irvine-McDowell Park interpreting Richmond and county settlement, Civil War context, and community life.","museum_type":"history","layer":"museums"}},{"type":"Feature","geometry":{"type":"Point","coordinates":[-85.9057251,37.1792847]},"properties":{"id":"american-cave-museum","name":"American Cave Museum","title":"American Cave Museum","city":"Horse Cave","county":"Hart","address":"119 E Main St, Horse Cave, KY 42749","history":"Cave and groundwater museum paired with Hidden River Cave tours, interpreting karst geology and conservation along Kentucky's cave country corridor.","description":"Cave and groundwater museum paired with Hidden River Cave tours, interpreting karst geology and conservation along Kentucky's cave country corridor.","website":"https://hiddenrivercave.com/","museum_type":"science","founded_year":1993,"yearStart":1993,"yearEnd":1993,"layer":"museums"}},{"type":"Feature","geometry":{"type":"Point","coordinates":[-85.9092075,37.0302261]},"properties":{"id":"museum-of-the-barrens","name":"South Central Kentucky Cultural Center (Museum of the Barrens)","title":"South Central Kentucky Cultural Center (Museum of the Barrens)","city":"Glasgow","county":"Barren","address":"200 W Water St, Glasgow, KY 42141","history":"Regional history museum for the Barrens of south-central Kentucky, covering settlement, agriculture, and community heritage in Glasgow.","description":"Regional history museum for the Barrens of south-central Kentucky, covering settlement, agriculture, and community heritage in Glasgow.","museum_type":"history","founded_year":1980,"yearStart":1980,"yearEnd":1980,"layer":"museums"}},{"type":"Feature","geometry":{"type":"Point","coordinates":[-86.7415,37.3345]},"properties":{"id":"bill-monroe-museum","name":"Bill Monroe Museum","title":"Bill Monroe Museum","city":"Rosine","county":"Ohio","address":"Rosine, KY 42370","history":"Museum dedicated to bluegrass founder Bill Monroe in his Ohio County hometown of Rosine—core of western Kentucky's music heritage trail.","description":"Museum dedicated to bluegrass founder Bill Monroe in his Ohio County hometown of Rosine—core of western Kentucky's music heritage trail.","website":"https://www.billmonroemuseum.com/","museum_type":"heritage","founded_year":2001,"yearStart":2001,"yearEnd":2001,"layer":"museums"}},{"type":"Feature","geometry":{"type":"Point","coordinates":[-84.8368434,38.5366872]},"properties":{"id":"owen-county-historical-museum","name":"Owen County Historical Society Museum","title":"Owen County Historical Society Museum","city":"Owenton","county":"Owen","address":"100 N Thomas St, Owenton, KY 40359","history":"County historical society museum interpreting Owen County settlement and rural life north of Frankfort along the Kentucky River hills.","description":"County historical society museum interpreting Owen County settlement and rural life north of Frankfort along the Kentucky River hills.","website":"https://owencohistory.com/","museum_type":"history","layer":"museums"}},{"type":"Feature","geometry":{"type":"Point","coordinates":[-84.5865,37.5315]},"properties":{"id":"william-whitley-house","name":"William Whitley House State Historic Site","title":"William Whitley House State Historic Site","city":"Stanford","county":"Lincoln","address":"625 William Whitley Rd, Stanford, KY 40484","history":"Brick frontier house of Revolutionary War pioneer William Whitley, interpreting early Kentucky settlement and the Sportsman's Hill racetrack tradition.","description":"Brick frontier house of Revolutionary War pioneer William Whitley, interpreting early Kentucky settlement and the Sportsman's Hill racetrack tradition.","website":"https://parks.ky.gov/stanford/parks/historic/william-whitley-house-state-historic-site","museum_type":"house","founded_year":1938,"yearStart":1938,"yearEnd":1938,"layer":"museums"}},{"type":"Feature","geometry":{"type":"Point","coordinates":[-84.8485383,37.7619646]},"properties":{"id":"old-fort-harrod-museum","name":"Old Fort Harrod State Park","title":"Old Fort Harrod State Park","city":"Harrodsburg","county":"Mercer","address":"100 S College St, Harrodsburg, KY 40330","history":"Reconstructed 1774 fort and Mansion Museum interpreting Kentucky's first permanent English settlement and frontier life at Harrodsburg.","description":"Reconstructed 1774 fort and Mansion Museum interpreting Kentucky's first permanent English settlement and frontier life at Harrodsburg.","website":"https://parks.ky.gov/harrodsburg/parks/historic/old-fort-harrod-state-park","museum_type":"heritage","founded_year":1927,"yearStart":1927,"yearEnd":1927,"layer":"museums"}},{"type":"Feature","geometry":{"type":"Point","coordinates":[-84.7384129,37.8188327]},"properties":{"id":"shaker-village-pleasant-hill","name":"Shaker Village of Pleasant Hill","title":"Shaker Village of Pleasant Hill","city":"Harrodsburg","county":"Mercer","address":"3501 Lexington Rd, Harrodsburg, KY 40330","history":"Largest restored Shaker community in the United States—living-history village, museum buildings, and National Historic Landmark district on the Kentucky River.","description":"Largest restored Shaker community in the United States—living-history village, museum buildings, and National Historic Landmark district on the Kentucky River.","website":"https://shakervillageky.org/","museum_type":"heritage","founded_year":1961,"yearStart":1961,"yearEnd":1961,"layer":"museums"}},{"type":"Feature","geometry":{"type":"Point","coordinates":[-84.266814,37.8974165]},"properties":{"id":"fort-boonesborough-museum","name":"Fort Boonesborough State Park","title":"Fort Boonesborough State Park","city":"Richmond","county":"Madison","address":"4375 Boonesborough Rd, Richmond, KY 40475","history":"Reconstructed frontier fort museum at the NHL Fort Boonesborough Site, with living-history interpreters and exhibits on Daniel Boone's Kentucky River settlement.","description":"Reconstructed frontier fort museum at the NHL Fort Boonesborough Site, with living-history interpreters and exhibits on Daniel Boone's Kentucky River settlement.","website":"https://parks.ky.gov/richmond/parks/historic/fort-boonesborough-state-park","museum_type":"heritage","founded_year":1963,"yearStart":1963,"yearEnd":1963,"layer":"museums"}},{"type":"Feature","geometry":{"type":"Point","coordinates":[-84.5981,37.7878]},"properties":{"id":"camp-nelson-heritage","name":"Camp Nelson National Monument / Heritage Park","title":"Camp Nelson National Monument / Heritage Park","city":"Nicholasville","county":"Jessamine","address":"6614 Danville Rd North, Nicholasville, KY 40356","history":"NPS national monument and heritage park interpreting the Union depot and major USCT recruitment center—Kentucky's foremost Civil War emancipation landscape.","description":"NPS national monument and heritage park interpreting the Union depot and major USCT recruitment center—Kentucky's foremost Civil War emancipation landscape.","website":"https://www.nps.gov/cane/","museum_type":"military","founded_year":2018,"yearStart":2018,"yearEnd":2018,"layer":"museums"}},{"type":"Feature","geometry":{"type":"Point","coordinates":[-84.0938415,36.9598343]},"properties":{"id":"harland-sanders-cafe-museum","name":"Harland Sanders Café and Museum","title":"Harland Sanders Café and Museum","city":"Corbin","county":"Laurel","address":"688 US-25 W, Corbin, KY 40701","history":"Preserved café where Colonel Harland Sanders perfected his fried-chicken recipe and launched the Kentucky Fried Chicken franchise story—museum and restored dining rooms.","description":"Preserved café where Colonel Harland Sanders perfected his fried-chicken recipe and launched the Kentucky Fried Chicken franchise story—museum and restored dining rooms.","website":"https://www.sanderscafe.com/","museum_type":"heritage","founded_year":1940,"yearStart":1940,"yearEnd":1940,"layer":"museums"}},{"type":"Feature","geometry":{"type":"Point","coordinates":[-89.0882319,36.9686574]},"properties":{"id":"wickliffe-mounds","name":"Wickliffe Mounds State Historic Site","title":"Wickliffe Mounds State Historic Site","city":"Wickliffe","county":"Ballard","address":"94 Green St, Wickliffe, KY 42087","history":"Mississippian mound complex and museum interpreting Native American life at the confluence of the Mississippi and Ohio rivers in the Jackson Purchase.","description":"Mississippian mound complex and museum interpreting Native American life at the confluence of the Mississippi and Ohio rivers in the Jackson Purchase.","website":"https://parks.ky.gov/wickliffe/parks/historic/wickliffe-mounds-state-historic-site","museum_type":"heritage","founded_year":1983,"yearStart":1983,"yearEnd":1983,"layer":"museums"}},{"type":"Feature","geometry":{"type":"Point","coordinates":[-88.3225,36.6105]},"properties":{"id":"wrather-west-kentucky-museum","name":"Wrather West Kentucky Museum","title":"Wrather West Kentucky Museum","city":"Murray","county":"Calloway","address":"Murray State University, Murray, KY 42071","history":"Murray State University museum of West Kentucky and Jackson Purchase history, culture, and regional heritage.","description":"Murray State University museum of West Kentucky and Jackson Purchase history, culture, and regional heritage.","website":"https://www.murraystate.edu/wrather/","museum_type":"history","founded_year":1978,"yearStart":1978,"yearEnd":1978,"layer":"museums"}},{"type":"Feature","geometry":{"type":"Point","coordinates":[-82.8555,37.8505]},"properties":{"id":"mountain-homeplace","name":"Mountain Homeplace","title":"Mountain Homeplace","city":"Staffordsville","county":"Johnson","address":"Highway 40, Staffordsville, KY 41256","history":"Living-history farm and Museum of Appalachian History interpreting mid-19th-century eastern Kentucky mountain life near Paintsville Lake.","description":"Living-history farm and Museum of Appalachian History interpreting mid-19th-century eastern Kentucky mountain life near Paintsville Lake.","website":"https://www.mountainhomeplace.com/","museum_type":"heritage","founded_year":1995,"yearStart":1995,"yearEnd":1995,"layer":"museums"}},{"type":"Feature","geometry":{"type":"Point","coordinates":[-84.333477,37.3939293]},"properties":{"id":"kentucky-music-hall-of-fame","name":"Kentucky Music Hall of Fame & Museum","title":"Kentucky Music Hall of Fame & Museum","city":"Renfro Valley","county":"Rockcastle","address":"2590 Richmond St, Mt Vernon, KY 40456","history":"Museum and hall of fame celebrating Kentucky musicians from Renfro Valley barn-dance roots through country, bluegrass, and popular music.","description":"Museum and hall of fame celebrating Kentucky musicians from Renfro Valley barn-dance roots through country, bluegrass, and popular music.","website":"https://www.kentuckymusichalloffame.com/","museum_type":"heritage","founded_year":2002,"yearStart":2002,"yearEnd":2002,"layer":"museums"}},{"type":"Feature","geometry":{"type":"Point","coordinates":[-84.5415542,38.1483831]},"properties":{"id":"american-saddlebred-museum","name":"American Saddlebred Museum","title":"American Saddlebred Museum","city":"Lexington","county":"Fayette","address":"4083 Iron Works Pkwy, Lexington, KY 40511","history":"Kentucky Horse Park museum dedicated to the American Saddlebred horse—art, trophies, tack, and breed history in the Bluegrass.","description":"Kentucky Horse Park museum dedicated to the American Saddlebred horse—art, trophies, tack, and breed history in the Bluegrass.","website":"https://www.asbmuseum.org/","museum_type":"heritage","founded_year":1962,"yearStart":1962,"yearEnd":1962,"layer":"museums"}},{"type":"Feature","geometry":{"type":"Point","coordinates":[-84.5290688,39.0337788]},"properties":{"id":"james-ramage-civil-war-museum","name":"James A. Ramage Civil War Museum","title":"James A. Ramage Civil War Museum","city":"Fort Wright","county":"Kenton","address":"1402 Highland Pike, Fort Wright, KY 41011","history":"Museum interpreting Northern Kentucky and Cincinnati Civil War defenses on Battery Hooper, including earthworks and regional home-front stories.","description":"Museum interpreting Northern Kentucky and Cincinnati Civil War defenses on Battery Hooper, including earthworks and regional home-front stories.","website":"https://www.fortwright.com/civilwarmuseum","museum_type":"military","founded_year":2005,"yearStart":2005,"yearEnd":2005,"layer":"museums"}},{"type":"Feature","geometry":{"type":"Point","coordinates":[-84.7578,37.0053]},"properties":{"id":"mill-springs-battlefield-museum","name":"Mill Springs Battlefield Visitor Center & Museum","title":"Mill Springs Battlefield Visitor Center & Museum","city":"Nancy","county":"Pulaski","address":"2020 West Hwy 90, Nancy, KY 42544","history":"Visitor center museum for Mill Springs Battlefield National Monument interpreting the January 1862 Union victory that broke the Confederate defensive line in Kentucky.","description":"Visitor center museum for Mill Springs Battlefield National Monument interpreting the January 1862 Union victory that broke the Confederate defensive line in Kentucky.","website":"https://www.nps.gov/misp/","museum_type":"military","founded_year":1992,"yearStart":1992,"yearEnd":1992,"layer":"museums"}},{"type":"Feature","geometry":{"type":"Point","coordinates":[-84.6104762,38.0965756]},"properties":{"id":"headley-whitney-museum","name":"Headley-Whitney Museum","title":"Headley-Whitney Museum","city":"Lexington","county":"Fayette","address":"4435 Old Frankfort Pike, Lexington, KY 40510","history":"Decorative-arts museum founded by jeweler George Headley, known for bibelots, jewelry, and the Shell Grotto on Old Frankfort Pike.","description":"Decorative-arts museum founded by jeweler George Headley, known for bibelots, jewelry, and the Shell Grotto on Old Frankfort Pike.","website":"https://www.headley-whitney.org/","museum_type":"art","founded_year":1968,"yearStart":1968,"yearEnd":1968,"layer":"museums"}},{"type":"Feature","geometry":{"type":"Point","coordinates":[-85.7864732,38.2693378]},"properties":{"id":"portland-museum","name":"Portland Museum","title":"Portland Museum","city":"Louisville","county":"Jefferson","address":"2308 Portland Ave, Louisville, KY 40212","history":"Neighborhood museum interpreting Portland, Louisville's historic Ohio River community, immigration, and industrial waterfront life.","description":"Neighborhood museum interpreting Portland, Louisville's historic Ohio River community, immigration, and industrial waterfront life.","museum_type":"history","founded_year":1978,"yearStart":1978,"yearEnd":1978,"layer":"museums"}},{"type":"Feature","geometry":{"type":"Point","coordinates":[-84.4999962,38.0500707]},"properties":{"id":"explorium-lexington","name":"Explorium of Lexington","title":"Explorium of Lexington","city":"Lexington","county":"Fayette","address":"440 W Short St, Lexington, KY 40507","history":"Hands-on children's museum in downtown Lexington (formerly Lexington Children's Museum) with interactive STEM and culture exhibits for families.","description":"Hands-on children's museum in downtown Lexington (formerly Lexington Children's Museum) with interactive STEM and culture exhibits for families.","website":"https://explorium.com/","museum_type":"children","founded_year":1990,"yearStart":1990,"yearEnd":1990,"layer":"museums"}},{"type":"Feature","geometry":{"type":"Point","coordinates":[-85.216922,37.7310712]},"properties":{"id":"lincoln-homestead-springfield","name":"Lincoln Homestead State Park","title":"Lincoln Homestead State Park","city":"Springfield","county":"Washington","address":"5073 Lincoln Park Rd, Springfield, KY 40069","history":"State historic site with reconstructed and restored buildings tied to Abraham Lincoln's Kentucky family roots, including Mordecai Lincoln's home near Springfield.","description":"State historic site with reconstructed and restored buildings tied to Abraham Lincoln's Kentucky family roots, including Mordecai Lincoln's home near Springfield.","website":"https://parks.ky.gov/springfield/parks/historic/lincoln-homestead-state-park","museum_type":"heritage","founded_year":1936,"yearStart":1936,"yearEnd":1936,"layer":"museums"}},{"type":"Feature","geometry":{"type":"Point","coordinates":[-84.296384,38.3904564]},"properties":{"id":"cynthiana-museum","name":"Cynthiana Museum","title":"Cynthiana Museum","city":"Cynthiana","county":"Harrison","address":"112 S Main St, Cynthiana, KY 41031","history":"Local history museum covering Harrison County settlement and the Civil War Battles of Cynthiana during Morgan's Raids.","description":"Local history museum covering Harrison County settlement and the Civil War Battles of Cynthiana during Morgan's Raids.","museum_type":"history","layer":"museums"}}]}