{"type":"FeatureCollection","features":[{"type":"Feature","geometry":{"type":"Point","coordinates":[-85.7369,37.5312]},"properties":{"id":"abraham-lincoln-birthplace-nhp","name":"Abraham Lincoln Birthplace National Historical Park","title":"Abraham Lincoln Birthplace National Historical Park","city":"Hodgenville","county":"Larue","address":"2995 Lincoln Farm Rd, Hodgenville, KY 42748","history":"Preserves the symbolic birth cabin site and Sinking Spring farm where Abraham Lincoln was born in 1809. The Memorial Building and Knob Creek unit interpret his early Kentucky years. National Historical Park and a cornerstone of Kentucky’s national story.","description":"Preserves the symbolic birth cabin site and Sinking Spring farm where Abraham Lincoln was born in 1809. The Memorial Building and Knob Creek unit interpret his early Kentucky years. National Historical Park and a cornerstone of Kentucky’s national story.","website":"https://www.nps.gov/abli/","designation":"nps","layer":"national"}},{"type":"Feature","geometry":{"type":"Point","coordinates":[-84.5985048,37.7903557]},"properties":{"id":"camp-nelson-national-monument","name":"Camp Nelson National Monument","title":"Camp Nelson National Monument","city":"Nicholasville","county":"Jessamine","address":"6614 Old Danville Loop 2 Rd, Nicholasville, KY 40356","history":"Union supply depot that became a major U.S. Colored Troops recruitment center and refugee camp for freedom-seeking families during the Civil War. National Monument and NHL archaeological district with visitor center interpretation. One of Kentucky’s most important Civil War freedom stories.","description":"Union supply depot that became a major U.S. Colored Troops recruitment center and refugee camp for freedom-seeking families during the Civil War. National Monument and NHL archaeological district with visitor center interpretation. One of Kentucky’s most important Civil War freedom stories.","website":"https://www.nps.gov/cane/","designation":"nhl+nps","layer":"national"}},{"type":"Feature","geometry":{"type":"Point","coordinates":[-84.9705,37.6751]},"properties":{"id":"perryville-battlefield","name":"Perryville Battlefield","title":"Perryville Battlefield","city":"Perryville","county":"Boyle","address":"1825 Battlefield Rd, Perryville, KY 40468","history":"Site of Kentucky’s largest Civil War battle (October 8, 1862), with roughly 7,600 casualties as Bragg’s Confederate invasion peaked then withdrew. National Historic Landmark landscape with museum, trails, and monument row. Anchors Boyle County’s Civil War tourism.","description":"Site of Kentucky’s largest Civil War battle (October 8, 1862), with roughly 7,600 casualties as Bragg’s Confederate invasion peaked then withdrew. National Historic Landmark landscape with museum, trails, and monument row. Anchors Boyle County’s Civil War tourism.","website":"https://perryvillebattlefield.org/","designation":"nhl","layer":"national"}},{"type":"Feature","geometry":{"type":"Point","coordinates":[-84.7519,38.8867]},"properties":{"id":"big-bone-lick-site","name":"Big Bone Lick Site","title":"Big Bone Lick Site","city":"Union","county":"Boone","address":"3380 Beaver Rd, Union, KY 41091","history":"World-famous Ice Age fossil beds that drew Jefferson-era scientists and shaped early American paleontology. Designated a National Historic Landmark in 2024 for its archaeological significance. The state park museum interprets megafauna finds and salt-lick history.","description":"World-famous Ice Age fossil beds that drew Jefferson-era scientists and shaped early American paleontology. Designated a National Historic Landmark in 2024 for its archaeological significance. The state park museum interprets megafauna finds and salt-lick history.","website":"https://parks.ky.gov/explore/big-bone-lick-state-historic-site-7774","designation":"nhl","layer":"national"}},{"type":"Feature","geometry":{"type":"Point","coordinates":[-84.4799493,38.0293209]},"properties":{"id":"ashland-henry-clay","name":"Ashland, The Henry Clay Estate","title":"Ashland, The Henry Clay Estate","city":"Lexington","county":"Fayette","address":"120 Sycamore Rd, Lexington, KY 40502","history":"Home and estate of statesman Henry Clay, the “Great Compromiser,” who shaped antebellum politics from this Lexington mansion. National Historic Landmark house museum with gardens and outbuildings. Interprets slavery, politics, and Bluegrass plantation life.","description":"Home and estate of statesman Henry Clay, the “Great Compromiser,” who shaped antebellum politics from this Lexington mansion. National Historic Landmark house museum with gardens and outbuildings. Interprets slavery, politics, and Bluegrass plantation life.","website":"https://henryclay.org/","designation":"nhl","layer":"national"}},{"type":"Feature","geometry":{"type":"Point","coordinates":[-85.6626759,38.2876381]},"properties":{"id":"locust-grove","name":"Historic Locust Grove","title":"Historic Locust Grove","city":"Louisville","county":"Jefferson","address":"561 Blankenbaker Ln, Louisville, KY 40207","history":"1780s Georgian plantation associated with the Croghan family and George Rogers Clark after his Revolutionary campaigns. National Historic Landmark house museum interpreting frontier Louisville, slavery, and early republic life. Public grounds and programs year-round.","description":"1780s Georgian plantation associated with the Croghan family and George Rogers Clark after his Revolutionary campaigns. National Historic Landmark house museum interpreting frontier Louisville, slavery, and early republic life. Public grounds and programs year-round.","website":"https://locustgrove.org/","designation":"nhl","layer":"national"}},{"type":"Feature","geometry":{"type":"Point","coordinates":[-84.8817923,38.1990715]},"properties":{"id":"liberty-hall","name":"Liberty Hall","title":"Liberty Hall","city":"Frankfort","county":"Franklin","address":"202 Wilkinson St, Frankfort, KY 40601","history":"Federal-period home associated with Senator John Brown and early Kentucky political society in the capital. National Historic Landmark interpreted with the Orlando Brown House as Liberty Hall Historic Site. Anchors Frankfort’s riverside historic core.","description":"Federal-period home associated with Senator John Brown and early Kentucky political society in the capital. National Historic Landmark interpreted with the Orlando Brown House as Liberty Hall Historic Site. Anchors Frankfort’s riverside historic core.","website":"https://www.libertyhall.org/","designation":"nhl","layer":"national"}},{"type":"Feature","geometry":{"type":"Point","coordinates":[-84.8762516,38.2001455]},"properties":{"id":"old-state-house","name":"Old State House (Old State Capitol)","title":"Old State House (Old State Capitol)","city":"Frankfort","county":"Franklin","address":"300 W Broadway, Frankfort, KY 40601","history":"Gideon Shryock’s Greek Revival capitol (completed 1830) served as Kentucky’s seat of government until 1910. National Historic Landmark now interpreted by the Kentucky Historical Society. Public grounds and interiors tell antebellum politics and Civil War-era Frankfort.","description":"Gideon Shryock’s Greek Revival capitol (completed 1830) served as Kentucky’s seat of government until 1910. National Historic Landmark now interpreted by the Kentucky Historical Society. Public grounds and interiors tell antebellum politics and Civil War-era Frankfort.","website":"https://history.ky.gov/visit/old-state-capitol-experience","designation":"nhl","layer":"national"}},{"type":"Feature","geometry":{"type":"Point","coordinates":[-84.7704879,37.6570043]},"properties":{"id":"ephraim-mcdowell-house","name":"Dr. Ephraim McDowell House","title":"Dr. Ephraim McDowell House","city":"Danville","county":"Boyle","address":"125 S 2nd St, Danville, KY 40422","history":"House where Dr. Ephraim McDowell performed the first successful ovariotomy in 1809, a landmark in surgical history. National Historic Landmark museum in downtown Danville. Interprets early American medicine and Boyle County’s intellectual heritage.","description":"House where Dr. Ephraim McDowell performed the first successful ovariotomy in 1809, a landmark in surgical history. National Historic Landmark museum in downtown Danville. Interprets early American medicine and Boyle County’s intellectual heritage.","website":"https://www.mcdowellhouse.com/","designation":"nhl","layer":"national"}},{"type":"Feature","geometry":{"type":"Point","coordinates":[-85.3719949,38.2227218]},"properties":{"id":"whitney-m-young-birthplace","name":"Whitney M. Young Birthplace and Boyhood Home","title":"Whitney M. Young Birthplace and Boyhood Home","city":"Simpsonville","county":"Shelby","address":"US 60 / Whitney Young Birthplace area, Simpsonville, KY 40067","history":"Birthplace and boyhood home of civil rights leader Whitney M. Young Jr., longtime executive director of the National Urban League. National Historic Landmark in Shelby County near Simpsonville. Interprets education, leadership, and twentieth-century civil rights roots in Kentucky.","description":"Birthplace and boyhood home of civil rights leader Whitney M. Young Jr., longtime executive director of the National Urban League. National Historic Landmark in Shelby County near Simpsonville. Interprets education, leadership, and twentieth-century civil rights roots in Kentucky.","website":"https://www.nps.gov/subjects/nationalhistoriclandmarks/list-of-nhls-by-state.htm","designation":"nhl","layer":"national"}},{"type":"Feature","geometry":{"type":"Point","coordinates":[-85.7707589,38.2022666]},"properties":{"id":"churchill-downs","name":"Churchill Downs","title":"Churchill Downs","city":"Louisville","county":"Jefferson","address":"700 Central Ave, Louisville, KY 40208","history":"Home of the Kentucky Derby since 1875 and an iconic American Thoroughbred racetrack. National Historic Landmark twin spires skyline defines Louisville’s racing heritage. Pair with the adjacent Kentucky Derby Museum for visitor interpretation.","description":"Home of the Kentucky Derby since 1875 and an iconic American Thoroughbred racetrack. National Historic Landmark twin spires skyline defines Louisville’s racing heritage. Pair with the adjacent Kentucky Derby Museum for visitor interpretation.","website":"https://www.churchilldowns.com/","designation":"nhl","layer":"national"}},{"type":"Feature","geometry":{"type":"Point","coordinates":[-84.8690507,38.2157433]},"properties":{"id":"buffalo-trace-stagg","name":"George T. Stagg Distillery (Buffalo Trace)","title":"George T. Stagg Distillery (Buffalo Trace)","city":"Frankfort","county":"Franklin","address":"113 Great Buffalo Trace, Frankfort, KY","history":"Historic Frankfort distillery complex continuous through Prohibition under various names, now Buffalo Trace. National Historic Landmark industrial landscape along the Kentucky River. Tours interpret whiskey making and two centuries of whiskey heritage.","description":"Historic Frankfort distillery complex continuous through Prohibition under various names, now Buffalo Trace. National Historic Landmark industrial landscape along the Kentucky River. Tours interpret whiskey making and two centuries of whiskey heritage.","website":"https://www.buffalotracedistillery.com/","designation":"nhl","layer":"national"}},{"type":"Feature","geometry":{"type":"Point","coordinates":[-84.8135359,38.1132808]},"properties":{"id":"woodford-reserve-labrot-graham","name":"Labrot & Graham's Old Oscar Pepper Distillery (Woodford Reserve)","title":"Labrot & Graham's Old Oscar Pepper Distillery (Woodford Reserve)","city":"Versailles","county":"Woodford","address":"7855 McCracken Pike, Versailles, KY","history":"Stone stillhouses on Glenn’s Creek where Elijah Pepper and later Labrot & Graham made whiskey; now Woodford Reserve. National Historic Landmark distillery campus. Interprets nineteenth-century bourbon craft and the Pepper–Crow lineage.","description":"Stone stillhouses on Glenn’s Creek where Elijah Pepper and later Labrot & Graham made whiskey; now Woodford Reserve. National Historic Landmark distillery campus. Interprets nineteenth-century bourbon craft and the Pepper–Crow lineage.","website":"https://www.woodfordreserve.com/","designation":"nhl","layer":"national"}},{"type":"Feature","geometry":{"type":"Point","coordinates":[-85.3489926,37.6468276]},"properties":{"id":"burks-makers-mark","name":"Burks' Distillery (Maker's Mark)","title":"Burks' Distillery (Maker's Mark)","city":"Loretto","county":"Marion","address":"3350 Burks Spring Rd, Loretto, KY","history":"Quaint Loretto distillery where Bill Samuels Sr. launched Maker’s Mark, preserving Burks’ Distillery fabric. National Historic Landmark campus with red-wax dipping and visitor center. Anchors Marion County’s bourbon tourism.","description":"Quaint Loretto distillery where Bill Samuels Sr. launched Maker’s Mark, preserving Burks’ Distillery fabric. National Historic Landmark campus with red-wax dipping and visitor center. Anchors Marion County’s bourbon tourism.","website":"https://www.makersmark.com/","designation":"nhl","layer":"national"}},{"type":"Feature","geometry":{"type":"Point","coordinates":[-84.266814,37.8974165]},"properties":{"id":"fort-boonesborough-site","name":"Fort Boonesborough Site","title":"Fort Boonesborough Site","city":"Richmond","county":"Madison","address":"4375 Boonesborough Rd, Richmond, KY 40475","history":"Site of Daniel Boone’s 1775 Transylvania settlement and the long 1778 Shawnee/British-allied siege. National Historic Landmark archaeological district beside the Kentucky River. Reconstructed fort and museum at Fort Boonesborough State Park interpret frontier Kentucky.","description":"Site of Daniel Boone’s 1775 Transylvania settlement and the long 1778 Shawnee/British-allied siege. National Historic Landmark archaeological district beside the Kentucky River. Reconstructed fort and museum at Fort Boonesborough State Park interpret frontier Kentucky.","website":"https://parks.ky.gov/explore/fort-boonesborough-state-park-7786","designation":"nhl","layer":"national"}},{"type":"Feature","geometry":{"type":"Point","coordinates":[-84.7384129,37.8188327]},"properties":{"id":"shaker-village-pleasant-hill","name":"Shaker Village of Pleasant Hill","title":"Shaker Village of Pleasant Hill","city":"Harrodsburg","county":"Mercer","address":"3501 Lexington Rd, Harrodsburg, KY 40330","history":"Largest restored Shaker community in America, an NHL historic district of stone and brick buildings. Living-history village interpreting Shaker faith, crafts, and Civil War-era encounters with armies. Major overnight and day-visit destination near Harrodsburg.","description":"Largest restored Shaker community in America, an NHL historic district of stone and brick buildings. Living-history village interpreting Shaker faith, crafts, and Civil War-era encounters with armies. Major overnight and day-visit destination near Harrodsburg.","website":"https://shakervillageky.org/","designation":"nhl","layer":"national"}},{"type":"Feature","geometry":{"type":"Point","coordinates":[-84.50986,39.0928803]},"properties":{"id":"roebling-suspension-bridge","name":"John A. Roebling Suspension Bridge","title":"John A. Roebling Suspension Bridge","city":"Covington","county":"Kenton","address":"Roebling Suspension Bridge, Covington, KY / Cincinnati, OH","history":"John A. Roebling’s pioneering Ohio River suspension bridge (opened 1866) linking Covington and Cincinnati. National Historic Landmark engineering landmark and pedestrian/vehicle crossing. Prototype lessons later applied to the Brooklyn Bridge.","description":"John A. Roebling’s pioneering Ohio River suspension bridge (opened 1866) linking Covington and Cincinnati. National Historic Landmark engineering landmark and pedestrian/vehicle crossing. Prototype lessons later applied to the Brooklyn Bridge.","website":"https://www.roeblingbridge.org/","designation":"nhl","layer":"national"}},{"type":"Feature","geometry":{"type":"Point","coordinates":[-85.7556952,38.2591463]},"properties":{"id":"belle-of-louisville","name":"Belle of Louisville","title":"Belle of Louisville","city":"Louisville","county":"Jefferson","address":"401 W River Rd / 4th Street Wharf, Louisville, KY 40202","history":"Steam-powered excursion boat (built 1914 as Idlewild) and the oldest operating Mississippi-style steamboat. National Historic Landmark vessel when docked at Louisville’s waterfront. Ticketed cruises keep working steamboat culture alive on the Ohio.","description":"Steam-powered excursion boat (built 1914 as Idlewild) and the oldest operating Mississippi-style steamboat. National Historic Landmark vessel when docked at Louisville’s waterfront. Ticketed cruises keep working steamboat culture alive on the Ohio.","website":"https://www.belleoflouisville.org/","designation":"nhl","layer":"national"}},{"type":"Feature","geometry":{"type":"Point","coordinates":[-85.7020609,38.2803709]},"properties":{"id":"louisville-water-tower","name":"Louisville Water Company Pumping Station (Water Tower)","title":"Louisville Water Company Pumping Station (Water Tower)","city":"Louisville","county":"Jefferson","address":"3005 River Rd, Louisville, KY 40207","history":"1860 classical water tower and pumping station that pioneered municipal water treatment recognition in Louisville. National Historic Landmark industrial architecture on River Road. Public grounds and museum interpretation celebrate clean-water history.","description":"1860 classical water tower and pumping station that pioneered municipal water treatment recognition in Louisville. National Historic Landmark industrial architecture on River Road. Public grounds and museum interpretation celebrate clean-water history.","website":"https://www.louisvillewatertower.com/","designation":"nhl","layer":"national"}},{"type":"Feature","geometry":{"type":"Point","coordinates":[-84.60476,38.0481881]},"properties":{"id":"keeneland-race-course","name":"Keeneland Race Course","title":"Keeneland Race Course","city":"Lexington","county":"Fayette","address":"4201 Versailles Rd, Lexington, KY 40510","history":"National Historic Landmark Thoroughbred race course and sales pavilion opened in 1936 in the Bluegrass. Known for spring and fall meets and elite yearling auctions. Public race days and tours showcase Kentucky horse culture.","description":"National Historic Landmark Thoroughbred race course and sales pavilion opened in 1936 in the Bluegrass. Known for spring and fall meets and elite yearling auctions. Public race days and tours showcase Kentucky horse culture.","website":"https://www.keeneland.com/","designation":"nhl","layer":"national"}},{"type":"Feature","geometry":{"type":"Point","coordinates":[-84.4937854,38.0516621]},"properties":{"id":"old-morrison-transylvania","name":"Old Morrison, Transylvania University","title":"Old Morrison, Transylvania University","city":"Lexington","county":"Fayette","address":"300 N Broadway, Lexington, KY 40508","history":"Greek Revival administration building (1833) designed by Gideon Shryock for Transylvania University, the oldest college west of the Alleghenies. National Historic Landmark campus landmark. Exterior architecture pin on historic Broadway.","description":"Greek Revival administration building (1833) designed by Gideon Shryock for Transylvania University, the oldest college west of the Alleghenies. National Historic Landmark campus landmark. Exterior architecture pin on historic Broadway.","website":"https://www.transy.edu/","designation":"nhl","layer":"national"}},{"type":"Feature","geometry":{"type":"Point","coordinates":[-84.7714,37.6456]},"properties":{"id":"jacobs-hall","name":"Jacobs Hall, Kentucky School for the Deaf","title":"Jacobs Hall, Kentucky School for the Deaf","city":"Danville","county":"Boyle","address":"Kentucky School for the Deaf campus, Danville, KY 40422","history":"Landmark building at the Kentucky School for the Deaf (founded 1823), the first state-supported school of its kind in the United States. National Historic Landmark campus architecture in Danville. Interprets deaf education history; confirm visitor access.","description":"Landmark building at the Kentucky School for the Deaf (founded 1823), the first state-supported school of its kind in the United States. National Historic Landmark campus architecture in Danville. Interprets deaf education history; confirm visitor access.","website":"https://www.ksd.kyschools.us/","designation":"nhl","layer":"national"}},{"type":"Feature","geometry":{"type":"Point","coordinates":[-84.5105339,39.0883843]},"properties":{"id":"daniel-c-beard-boyhood-home","name":"Daniel C. Beard Boyhood Home","title":"Daniel C. Beard Boyhood Home","city":"Covington","county":"Kenton","address":"322 E 3rd St, Covington, KY 41011","history":"Boyhood home of Daniel Carter Beard, illustrator and a founder of the Boy Scouts of America. National Historic Landmark house in Covington’s riverside historic fabric. Exterior landmark with Scouting heritage interpretation nearby.","description":"Boyhood home of Daniel Carter Beard, illustrator and a founder of the Boy Scouts of America. National Historic Landmark house in Covington’s riverside historic fabric. Exterior landmark with Scouting heritage interpretation nearby.","website":"https://en.wikipedia.org/wiki/Daniel_Carter_Beard_Boyhood_Home","designation":"nhl","layer":"national"}},{"type":"Feature","geometry":{"type":"Point","coordinates":[-85.7843422,38.2703661]},"properties":{"id":"us-marine-hospital-louisville","name":"United States Marine Hospital","title":"United States Marine Hospital","city":"Louisville","county":"Jefferson","address":"2215 Portland Ave, Louisville, KY 40212","history":"Antebellum U.S. Marine Hospital serving inland-waterways boatmen, a rare surviving example of the federal marine hospital system. National Historic Landmark in Louisville’s Portland neighborhood. Exterior architecture and periodic interpretation.","description":"Antebellum U.S. Marine Hospital serving inland-waterways boatmen, a rare surviving example of the federal marine hospital system. National Historic Landmark in Louisville’s Portland neighborhood. Exterior architecture and periodic interpretation.","website":"https://en.wikipedia.org/wiki/United_States_Marine_Hospital_(Louisville,_Kentucky)","designation":"nhl","layer":"national"}},{"type":"Feature","geometry":{"type":"Point","coordinates":[-85.7558911,38.2563952]},"properties":{"id":"old-bank-of-louisville","name":"Old Bank of Louisville","title":"Old Bank of Louisville","city":"Louisville","county":"Jefferson","address":"322 W Main St, Louisville, KY 40202","history":"1830s Greek Revival bank building by Gideon Shryock (or attributed circle) on Louisville’s Main Street. National Historic Landmark exterior architecture pin on Whiskey Row’s historic corridor. Celebrates early commercial architecture of the Falls City.","description":"1830s Greek Revival bank building by Gideon Shryock (or attributed circle) on Louisville’s Main Street. National Historic Landmark exterior architecture pin on Whiskey Row’s historic corridor. Celebrates early commercial architecture of the Falls City.","website":"https://en.wikipedia.org/wiki/Bank_of_Louisville","designation":"nhl","layer":"national"}},{"type":"Feature","geometry":{"type":"Point","coordinates":[-85.7551429,38.2592607]},"properties":{"id":"mayor-andrew-broaddus","name":"Mayor Andrew Broaddus (Lifesaving Station)","title":"Mayor Andrew Broaddus (Lifesaving Station)","city":"Louisville","county":"Jefferson","address":"4th Street Wharf / riverfront, Louisville, KY 40202","history":"Floating lifesaving station vessel associated with Ohio River rescue service, named for a Louisville mayor. National Historic Landmark vessel/station interpreted at the Louisville waterfront. Reminds visitors of river commerce hazards and federal lifesaving work.","description":"Floating lifesaving station vessel associated with Ohio River rescue service, named for a Louisville mayor. National Historic Landmark vessel/station interpreted at the Louisville waterfront. Reminds visitors of river commerce hazards and federal lifesaving work.","website":"https://en.wikipedia.org/wiki/Mayor_Andrew_Broaddus","designation":"nhl","layer":"national"}},{"type":"Feature","geometry":{"type":"Point","coordinates":[-84.2905803,37.57203]},"properties":{"id":"lincoln-hall-berea","name":"Lincoln Hall, Berea College","title":"Lincoln Hall, Berea College","city":"Berea","county":"Madison","address":"Berea College campus, Berea, KY 40403","history":"Campus landmark at Berea College, founded on interracial education ideals in Appalachian Kentucky. National Historic Landmark building tied to the college’s abolitionist and educational mission. Public campus architecture near Madison County’s eastern edge.","description":"Campus landmark at Berea College, founded on interracial education ideals in Appalachian Kentucky. National Historic Landmark building tied to the college’s abolitionist and educational mission. Public campus architecture near Madison County’s eastern edge.","website":"https://www.berea.edu/","designation":"nhl","layer":"national"}},{"type":"Feature","geometry":{"type":"Point","coordinates":[-86.1012576,37.1868964]},"properties":{"id":"mammoth-cave-np","name":"Mammoth Cave National Park","title":"Mammoth Cave National Park","city":"Mammoth Cave","county":"Edmonson","address":"1 Mammoth Cave Pkwy, Mammoth Cave, KY 42259","history":"World’s longest known cave system and a UNESCO World Heritage Site managed as a National Park. Surface trails, cave tours, and Green River scenery make it Kentucky’s premier NPS day trip from the Hardin/Larue corridor. Interprets geology, cave life, and early tourism.","description":"World’s longest known cave system and a UNESCO World Heritage Site managed as a National Park. Surface trails, cave tours, and Green River scenery make it Kentucky’s premier NPS day trip from the Hardin/Larue corridor. Interprets geology, cave life, and early tourism.","website":"https://www.nps.gov/maca/","designation":"nps","layer":"national"}},{"type":"Feature","geometry":{"type":"Point","coordinates":[-84.7387473,37.0577113]},"properties":{"id":"mill-springs-battlefield-nm","name":"Mill Springs Battlefield National Monument","title":"Mill Springs Battlefield National Monument","city":"Nancy","county":"Pulaski","address":"9020 W Highway 80, Nancy, KY 42544","history":"January 19, 1862 Union victory where Confederate Gen. Felix Zollicoffer was killed—an early major Civil War clash in Kentucky. National Monument and NHL with visitor center, driving tour, and Zollicoffer Park trail. Stretch pin south of the Bagdad ring.","description":"January 19, 1862 Union victory where Confederate Gen. Felix Zollicoffer was killed—an early major Civil War clash in Kentucky. National Monument and NHL with visitor center, driving tour, and Zollicoffer Park trail. Stretch pin south of the Bagdad ring.","website":"https://www.nps.gov/misp/","designation":"nhl+nps","layer":"national"}},{"type":"Feature","geometry":{"type":"Point","coordinates":[-83.6953389,36.6027474]},"properties":{"id":"cumberland-gap-nhp","name":"Cumberland Gap National Historical Park","title":"Cumberland Gap National Historical Park","city":"Middlesboro","county":"Bell","address":"91 Bartlett Park Rd, Middlesboro, KY 40965","history":"Mountain pass used by Native peoples and Daniel Boone’s Wilderness Road settlers entering Kentucky. National Historical Park spanning Kentucky, Tennessee, and Virginia with Pinnacle Overlook and Gap Cave. Far southeastern stretch pin for iconic frontier geography.","description":"Mountain pass used by Native peoples and Daniel Boone’s Wilderness Road settlers entering Kentucky. National Historical Park spanning Kentucky, Tennessee, and Virginia with Pinnacle Overlook and Gap Cave. Far southeastern stretch pin for iconic frontier geography.","website":"https://www.nps.gov/cuga/","designation":"nps","layer":"national"}},{"type":"Feature","geometry":{"type":"Point","coordinates":[-82.8135374,37.6509083]},"properties":{"id":"middle-creek-battlefield-nhl","name":"Middle Creek Battlefield","title":"Middle Creek Battlefield","city":"Prestonsburg","county":"Floyd","address":"Middle Creek National Battlefield, Prestonsburg, KY 41653","history":"National Historic Landmark battlefield of the January 1862 Union victory led by future President James A. Garfield in the Big Sandy valley—eastern Kentucky's premier Civil War NHL.","description":"National Historic Landmark battlefield of the January 1862 Union victory led by future President James A. Garfield in the Big Sandy valley—eastern Kentucky's premier Civil War NHL.","website":"https://www.middlecreek.org/","designation":"nhl","layer":"national"}},{"type":"Feature","geometry":{"type":"Point","coordinates":[-83.183432,36.9483096]},"properties":{"id":"pine-mountain-settlement-school","name":"Pine Mountain Settlement School","title":"Pine Mountain Settlement School","city":"Bledsoe","county":"Harlan","address":"36 Highway 510, Bledsoe, KY 40810","history":"National Historic Landmark district—Appalachian settlement school that brought urban settlement-house ideals to rural Harlan County education, health, and culture.","description":"National Historic Landmark district—Appalachian settlement school that brought urban settlement-house ideals to rural Harlan County education, health, and culture.","website":"https://www.pinemountainsettlementschool.com/","designation":"nhl","layer":"national"}},{"type":"Feature","geometry":{"type":"Point","coordinates":[-83.3653,37.1275]},"properties":{"id":"wendover-frontier-nursing","name":"Wendover (Frontier Nursing Service Headquarters)","title":"Wendover (Frontier Nursing Service Headquarters)","city":"Hyden","county":"Leslie","address":"Wendover, Hyden, KY 41749","history":"National Historic Landmark headquarters of Mary Breckinridge's Frontier Nursing Service—the pioneering American effort to professionalize midwifery and rural nurse care in Appalachia.","description":"National Historic Landmark headquarters of Mary Breckinridge's Frontier Nursing Service—the pioneering American effort to professionalize midwifery and rural nurse care in Appalachia.","website":"https://frontiernursing.org/","designation":"nhl","layer":"national"}},{"type":"Feature","geometry":{"type":"Point","coordinates":[-85.6471599,38.2792244]},"properties":{"id":"zachary-taylor-house","name":"Zachary Taylor House","title":"Zachary Taylor House","city":"Louisville","county":"Jefferson","address":"5608 Apache Rd, Louisville, KY 40207","history":"National Historic Landmark boyhood home of President Zachary Taylor on Louisville's former Springfield farm. Private residence with limited public access—included for national designation completeness.","description":"National Historic Landmark boyhood home of President Zachary Taylor on Louisville's former Springfield farm. Private residence with limited public access—included for national designation completeness.","designation":"nhl","layer":"national"}},{"type":"Feature","geometry":{"type":"Point","coordinates":[-84.65,36.695]},"properties":{"id":"big-south-fork-nrra","name":"Big South Fork National River and Recreation Area","title":"Big South Fork National River and Recreation Area","city":"Stearns","county":"McCreary","address":"Big South Fork NRRA, Stearns, KY 42647","history":"National Park Service river and recreation area protecting the Big South Fork of the Cumberland River across Kentucky and Tennessee—gorges, trails, and historic coal-camp landscapes.","description":"National Park Service river and recreation area protecting the Big South Fork of the Cumberland River across Kentucky and Tennessee—gorges, trails, and historic coal-camp landscapes.","website":"https://www.nps.gov/biso/","designation":"nps","layer":"national"}},{"type":"Feature","geometry":{"type":"Point","coordinates":[-88.0555,36.5485]},"properties":{"id":"fort-heiman","name":"Fort Heiman (Fort Donelson National Battlefield)","title":"Fort Heiman (Fort Donelson National Battlefield)","city":"New Concord","county":"Calloway","address":"Fort Heiman unit, New Concord, KY 42076","history":"Kentucky unit of Fort Donelson National Battlefield interpreting the Confederate fort that guarded the Tennessee River approach—Grant's 1862 western campaign context on the KY side.","description":"Kentucky unit of Fort Donelson National Battlefield interpreting the Confederate fort that guarded the Tennessee River approach—Grant's 1862 western campaign context on the KY side.","website":"https://www.nps.gov/fodo/","designation":"nps","layer":"national"}}]}