{"type":"FeatureCollection","features":[{"type":"Feature","geometry":{"type":"Point","coordinates":[-86.06916667,36.86555556]},"properties":{"id":"barren-river-lake-state-resort-park","name":"Barren River Lake State Resort Park","title":"Barren River Lake State Resort Park","city":"Lucas","county":"Barren","history":"Resort park on the north shore of Barren River Lake in south-central Kentucky. The lodge, cottages, and marina anchor boating, fishing, and golf on one of the region’s major Corps lakes. Visitors use it as a base for lake recreation and nearby Mammoth Cave country drives.","description":"Resort park on the north shore of Barren River Lake in south-central Kentucky. The lodge, cottages, and marina anchor boating, fishing, and golf on one of the region’s major Corps lakes. Visitors use it as a base for lake recreation and nearby Mammoth Cave country drives.","website":"https://parks.ky.gov/lucas/parks/resort/barren-river-lake-state-resort-park","park_type":"state_resort_park","has_restaurant":true,"layer":"parks"}},{"type":"Feature","geometry":{"type":"Point","coordinates":[-84.74777778,38.88694444]},"properties":{"id":"big-bone-lick-state-historic-site","name":"Big Bone Lick State Historic Site","title":"Big Bone Lick State Historic Site","city":"Union","county":"Boone","history":"Called the birthplace of American vertebrate paleontology for Ice Age bones found at its salt lick. Trails, a museum, and outdoor bison herd interpret prehistoric and frontier natural history. Northern Kentucky visitors reach it about 30–40 minutes south of Cincinnati.","description":"Called the birthplace of American vertebrate paleontology for Ice Age bones found at its salt lick. Trails, a museum, and outdoor bison herd interpret prehistoric and frontier natural history. Northern Kentucky visitors reach it about 30–40 minutes south of Cincinnati.","website":"https://parks.ky.gov/union/parks/historic/big-bone-lick-state-historic-site","park_type":"state_historic_site","has_restaurant":false,"layer":"parks"}},{"type":"Feature","geometry":{"type":"Point","coordinates":[-83.99472222,38.42833333]},"properties":{"id":"blue-licks-battlefield-state-resort-park","name":"Blue Licks Battlefield State Resort Park","title":"Blue Licks Battlefield State Resort Park","city":"Mount Olivet","county":"Robertson","history":"Marks the August 1782 Battle of Blue Licks, often called the last major Revolutionary War battle in Kentucky. Salt springs once drew bison, Native hunters, and pioneers; today a museum, battlefield trail, and lodge interpret that frontier story. The park pairs history with camping and short nature walks.","description":"Marks the August 1782 Battle of Blue Licks, often called the last major Revolutionary War battle in Kentucky. Salt springs once drew bison, Native hunters, and pioneers; today a museum, battlefield trail, and lodge interpret that frontier story. The park pairs history with camping and short nature walks.","website":"https://parks.ky.gov/parks/find-a-park/blue-licks-battlefield-state-resort-park-7782","park_type":"state_resort_park","has_restaurant":true,"layer":"parks"}},{"type":"Feature","geometry":{"type":"Point","coordinates":[-82.29694444,37.29638889]},"properties":{"id":"breaks-interstate-park","name":"Breaks Interstate Park","title":"Breaks Interstate Park","city":"Elkhorn City","county":"Pike","history":"Joint Kentucky–Virginia park protecting the “Grand Canyon of the South,” a deep gorge of the Russell Fork. Lodge lodging, overlooks, and river trails draw visitors to the Pike County–Buchanan County border. Though administered under an interstate compact, it is commonly listed with Kentucky’s resort parks.","description":"Joint Kentucky–Virginia park protecting the “Grand Canyon of the South,” a deep gorge of the Russell Fork. Lodge lodging, overlooks, and river trails draw visitors to the Pike County–Buchanan County border. Though administered under an interstate compact, it is commonly listed with Kentucky’s resort parks.","website":"https://www.breakspark.com/","park_type":"state_resort_park","has_restaurant":true,"layer":"parks"}},{"type":"Feature","geometry":{"type":"Point","coordinates":[-83.43916667,37.30555556]},"properties":{"id":"buckhorn-lake-state-resort-park","name":"Buckhorn Lake State Resort Park","title":"Buckhorn Lake State Resort Park","city":"Buckhorn","county":"Perry","history":"Quiet mountain resort on Buckhorn Lake in the eastern Kentucky coalfields. Lodge rooms and cottages overlook a forested Corps reservoir popular for fishing and pontoon boating. The park is a low-key base for exploring Perry County and nearby Daniel Boone National Forest roads.","description":"Quiet mountain resort on Buckhorn Lake in the eastern Kentucky coalfields. Lodge rooms and cottages overlook a forested Corps reservoir popular for fishing and pontoon boating. The park is a low-key base for exploring Perry County and nearby Daniel Boone National Forest roads.","website":"https://parks.ky.gov/buckhorn/parks/resort/buckhorn-lake-state-resort-park","park_type":"state_resort_park","has_restaurant":true,"layer":"parks"}},{"type":"Feature","geometry":{"type":"Point","coordinates":[-83.00222222,37.23194444]},"properties":{"id":"carr-creek-state-park","name":"Carr Creek State Park","title":"Carr Creek State Park","city":"Sassafras","county":"Knott","history":"Recreation park on Carr Creek Lake in Knott County. Camping, a beach, and boat ramps serve eastern Kentucky lake weekends. The setting is classic Appalachian ridge-and-hollow country around a Corps reservoir.","description":"Recreation park on Carr Creek Lake in Knott County. Camping, a beach, and boat ramps serve eastern Kentucky lake weekends. The setting is classic Appalachian ridge-and-hollow country around a Corps reservoir.","website":"https://parks.ky.gov/sassafras/parks/recreation/carr-creek-state-park","park_type":"state_park","has_restaurant":false,"layer":"parks"}},{"type":"Feature","geometry":{"type":"Point","coordinates":[-83.12222222,38.37388889]},"properties":{"id":"carter-caves-state-resort-park","name":"Carter Caves State Resort Park","title":"Carter Caves State Resort Park","city":"Olive Hill","county":"Carter","history":"Cave-and-ridge park in northeastern Kentucky with guided tours of Cascade and X Cave and miles of surface trails. Lodge and cottages sit among wooded karst country near the Ohio River hills. Equestrian camping and a small lake round out a classic Kentucky resort-park stay.","description":"Cave-and-ridge park in northeastern Kentucky with guided tours of Cascade and X Cave and miles of surface trails. Lodge and cottages sit among wooded karst country near the Ohio River hills. Equestrian camping and a small lake round out a classic Kentucky resort-park stay.","website":"https://parks.ky.gov/olive-hill/parks/resort/carter-caves-state-resort-park","park_type":"state_resort_park","has_restaurant":true,"layer":"parks"}},{"type":"Feature","geometry":{"type":"Point","coordinates":[-89.106944,36.765556]},"properties":{"id":"columbus-belmont-state-park","name":"Columbus-Belmont State Park","title":"Columbus-Belmont State Park","city":"Columbus","county":"Hickman","history":"Civil War bluff park overlooking the Mississippi River at Columbus. Confederate fortifications, a massive anchor-and-chain display, and museum exhibits interpret the 1861–62 river war. Picnic areas and overlooks make it a western Kentucky history stop.","description":"Civil War bluff park overlooking the Mississippi River at Columbus. Confederate fortifications, a massive anchor-and-chain display, and museum exhibits interpret the 1861–62 river war. Picnic areas and overlooks make it a western Kentucky history stop.","website":"https://parks.ky.gov/columbus/parks/historic/columbus-belmont-state-park","park_type":"state_park","has_restaurant":false,"layer":"parks"}},{"type":"Feature","geometry":{"type":"Point","coordinates":[-84.33277778,36.84083333]},"properties":{"id":"cumberland-falls-state-resort-park","name":"Cumberland Falls State Resort Park","title":"Cumberland Falls State Resort Park","city":"Corbin","county":"Whitley","history":"Home of Cumberland Falls—the “Niagara of the South”—and one of the few places in the Western Hemisphere where a moonbow can appear under a full moon. Historic DuPont Lodge and Riverview Restaurant overlook the Cumberland River gorge (lodge dining closed for renovations as of late 2025–2026). Trails, cabins, and falls overlooks remain signature park experiences.","description":"Home of Cumberland Falls—the “Niagara of the South”—and one of the few places in the Western Hemisphere where a moonbow can appear under a full moon. Historic DuPont Lodge and Riverview Restaurant overlook the Cumberland River gorge (lodge dining closed for renovations as of late 2025–2026). Trails, cabins, and falls overlooks remain signature park experiences.","website":"https://parks.ky.gov/corbin/parks/resort/cumberland-falls-state-resort-park","park_type":"state_resort_park","has_restaurant":true,"layer":"parks"}},{"type":"Feature","geometry":{"type":"Point","coordinates":[-85.29805556,36.63861111]},"properties":{"id":"dale-hollow-lake-state-resort-park","name":"Dale Hollow Lake State Resort Park","title":"Dale Hollow Lake State Resort Park","city":"Burkesville","county":"Cumberland","history":"Kentucky’s resort foothold on vast Dale Hollow Lake along the Tennessee border. Clear water, smallmouth bass fishing, and marina access draw boaters to the lodge and cottages. Island View Restaurant’s glass walls look out over the lake and forested shoreline.","description":"Kentucky’s resort foothold on vast Dale Hollow Lake along the Tennessee border. Clear water, smallmouth bass fishing, and marina access draw boaters to the lodge and cottages. Island View Restaurant’s glass walls look out over the lake and forested shoreline.","website":"https://parks.ky.gov/burkesville/parks/resort/dale-hollow-lake-state-resort-park","park_type":"state_resort_park","has_restaurant":true,"layer":"parks"}},{"type":"Feature","geometry":{"type":"Point","coordinates":[-82.900059,37.73678]},"properties":{"id":"dawkins-line-rail-trail","name":"Dawkins Line Rail Trail","title":"Dawkins Line Rail Trail","city":"Hagerhill","county":"Johnson","history":"Multi-use rail-trail on the former Dawkins Line through Johnson and Magoffin counties in eastern Kentucky. Hikers, cyclists, and equestrians follow converted railroad grade through Appalachian countryside. Trailheads and segments remain part of the Kentucky State Parks recreation inventory.","description":"Multi-use rail-trail on the former Dawkins Line through Johnson and Magoffin counties in eastern Kentucky. Hikers, cyclists, and equestrians follow converted railroad grade through Appalachian countryside. Trailheads and segments remain part of the Kentucky State Parks recreation inventory.","website":"https://parks.ky.gov/parks/recreation-parks","park_type":"state_recreation_area","has_restaurant":false,"layer":"parks"}},{"type":"Feature","geometry":{"type":"Point","coordinates":[-83.91916667,36.83916667]},"properties":{"id":"dr-thomas-walker-state-historic-site","name":"Dr. Thomas Walker State Historic Site","title":"Dr. Thomas Walker State Historic Site","city":"Barbourville","county":"Knox","history":"Replica of the cabin associated with Dr. Thomas Walker, who explored Kentucky through Cumberland Gap in 1750. Picnic grounds and a short interpretive stop sit near Barbourville. The site honors one of the earliest documented English explorations of the region.","description":"Replica of the cabin associated with Dr. Thomas Walker, who explored Kentucky through Cumberland Gap in 1750. Picnic grounds and a short interpretive stop sit near Barbourville. The site honors one of the earliest documented English explorations of the region.","website":"https://parks.ky.gov/barbourville/parks/historic/dr-thomas-walker-state-historic-site","park_type":"state_historic_site","has_restaurant":false,"layer":"parks"}},{"type":"Feature","geometry":{"type":"Point","coordinates":[-85.55861111,38.2775]},"properties":{"id":"e-p-tom-sawyer-state-park","name":"E. P. \"Tom\" Sawyer State Park","title":"E. P. \"Tom\" Sawyer State Park","city":"Louisville","county":"Jefferson","history":"Urban state park in northeast Louisville with trails, sports fields, a model airplane field, and community programming. Named for Jefferson County judge/executive E. P. “Tom” Sawyer. It is the system’s primary metro Louisville day-use park.","description":"Urban state park in northeast Louisville with trails, sports fields, a model airplane field, and community programming. Named for Jefferson County judge/executive E. P. “Tom” Sawyer. It is the system’s primary metro Louisville day-use park.","website":"https://parks.ky.gov/parks/recreation-parks","park_type":"state_park","has_restaurant":false,"layer":"parks"}},{"type":"Feature","geometry":{"type":"Point","coordinates":[-84.26833333,37.90055556]},"properties":{"id":"fort-boonesborough-state-park","name":"Fort Boonesborough State Park","title":"Fort Boonesborough State Park","city":"Richmond","county":"Madison","history":"Living-history fort on the Kentucky River at the site of Daniel Boone’s 1775 settlement. Reconstructed blockhouses, artisan demos, and a museum interpret Transylvania Company frontier life. Campground and river access support overnight stays near Richmond.","description":"Living-history fort on the Kentucky River at the site of Daniel Boone’s 1775 settlement. Reconstructed blockhouses, artisan demos, and a museum interpret Transylvania Company frontier life. Campground and river access support overnight stays near Richmond.","website":"https://parks.ky.gov/richmond/parks/historic/fort-boonesborough-state-park","park_type":"state_park","has_restaurant":false,"layer":"parks"}},{"type":"Feature","geometry":{"type":"Point","coordinates":[-84.60222222,36.97583333]},"properties":{"id":"general-burnside-island-state-park","name":"General Burnside Island State Park","title":"General Burnside Island State Park","city":"Burnside","county":"Pulaski","history":"Island park in Lake Cumberland at Burnside, named for Civil War general Ambrose Burnside. Golf, camping, and lake access make it a southern Kentucky recreation hub. The island setting is unique among Kentucky state parks.","description":"Island park in Lake Cumberland at Burnside, named for Civil War general Ambrose Burnside. Golf, camping, and lake access make it a southern Kentucky recreation hub. The island setting is unique among Kentucky state parks.","website":"https://parks.ky.gov/burnside/parks/recreation/general-burnside-island-state-park","park_type":"state_park","has_restaurant":false,"layer":"parks"}},{"type":"Feature","geometry":{"type":"Point","coordinates":[-85.15416667,38.67055556]},"properties":{"id":"general-butler-state-resort-park","name":"General Butler State Resort Park","title":"General Butler State Resort Park","city":"Carrollton","county":"Carroll","history":"Hilltop resort where the Kentucky River meets the Ohio near Carrollton. Named for Gen. William Orlando Butler, the park mixes lodge lodging, a ski slope in season, and the Butler-Turpin historic house. Two Rivers Restaurant serves park guests overlooking the river confluence country.","description":"Hilltop resort where the Kentucky River meets the Ohio near Carrollton. Named for Gen. William Orlando Butler, the park mixes lodge lodging, a ski slope in season, and the Butler-Turpin historic house. Two Rivers Restaurant serves park guests overlooking the river confluence country.","website":"https://parks.ky.gov/parks/find-a-park/general-butler-state-resort-park-7789","park_type":"state_resort_park","has_restaurant":true,"layer":"parks"}},{"type":"Feature","geometry":{"type":"Point","coordinates":[-83.0175,38.21611111]},"properties":{"id":"grayson-lake-state-park","name":"Grayson Lake State Park","title":"Grayson Lake State Park","city":"Olive Hill","county":"Carter","history":"Camping and boating park on Grayson Lake in Carter County. Steep sandstone cliffs and clear water attract anglers and paddlers. The park is a quieter sister to nearby Carter Caves resort amenities.","description":"Camping and boating park on Grayson Lake in Carter County. Steep sandstone cliffs and clear water attract anglers and paddlers. The park is a quieter sister to nearby Carter Caves resort amenities.","website":"https://parks.ky.gov/olive-hill/parks/recreation/grayson-lake-state-park","park_type":"state_park","has_restaurant":false,"layer":"parks"}},{"type":"Feature","geometry":{"type":"Point","coordinates":[-85.335,37.27611111]},"properties":{"id":"green-river-lake-state-park","name":"Green River Lake State Park","title":"Green River Lake State Park","city":"Campbellsville","county":"Taylor","history":"Large recreation park on Green River Lake near Campbellsville. Campground, beach, and marina support one of central Kentucky’s major Corps lakes. It is a frequent stop for fishing tournaments and family lake weekends.","description":"Large recreation park on Green River Lake near Campbellsville. Campground, beach, and marina support one of central Kentucky’s major Corps lakes. It is a frequent stop for fishing tournaments and family lake weekends.","website":"https://parks.ky.gov/campbellsville/parks/recreation/green-river-lake-state-park","park_type":"state_park","has_restaurant":false,"layer":"parks"}},{"type":"Feature","geometry":{"type":"Point","coordinates":[-82.87333333,38.48083333]},"properties":{"id":"greenbo-lake-state-resort-park","name":"Greenbo Lake State Resort Park","title":"Greenbo Lake State Resort Park","city":"Greenup","county":"Greenup","history":"Wooded resort on Greenbo Lake in northeastern Kentucky near the Ohio River. Michael Tygart Lodge and Angler's Cove dining cater to anglers and hikers using the park’s trails and lake. The setting is a quiet contrast to the industrial Ohio River corridor nearby.","description":"Wooded resort on Greenbo Lake in northeastern Kentucky near the Ohio River. Michael Tygart Lodge and Angler's Cove dining cater to anglers and hikers using the park’s trails and lake. The setting is a quiet contrast to the industrial Ohio River corridor nearby.","website":"https://parks.ky.gov/parks/find-a-park/greenbo-lake-state-resort-park-7790","park_type":"state_resort_park","has_restaurant":true,"layer":"parks"}},{"type":"Feature","geometry":{"type":"Point","coordinates":[-84.77916667,37.57]},"properties":{"id":"isaac-shelby-cemetery-state-historic-site","name":"Isaac Shelby Cemetery State Historic Site","title":"Isaac Shelby Cemetery State Historic Site","city":"Junction City","county":"Lincoln","history":"Final resting place of Isaac Shelby, Kentucky’s first and fifth governor and a Revolutionary War leader. The small cemetery historic site near Junction City is a quiet stop on Bluegrass history routes. Interpretive markers place Shelby in the state’s founding story.","description":"Final resting place of Isaac Shelby, Kentucky’s first and fifth governor and a Revolutionary War leader. The small cemetery historic site near Junction City is a quiet stop on Bluegrass history routes. Interpretive markers place Shelby in the state’s founding story.","website":"https://parks.ky.gov/junction-city/parks/historic/isaac-shelby-cemetery-state-historic-site","park_type":"state_historic_site","has_restaurant":false,"layer":"parks"}},{"type":"Feature","geometry":{"type":"Point","coordinates":[-87.30055556,36.84194444]},"properties":{"id":"jefferson-davis-state-historic-site","name":"Jefferson Davis State Historic Site","title":"Jefferson Davis State Historic Site","city":"Fairview","county":"Todd","history":"Obelisk and visitor center at the birthplace of Jefferson Davis in Fairview. The 351-foot concrete monument dominates the Todd County landscape and interprets Davis’s Kentucky origins. The site is a major Civil War–era landmark on the western Kentucky driving circuit.","description":"Obelisk and visitor center at the birthplace of Jefferson Davis in Fairview. The 351-foot concrete monument dominates the Todd County landscape and interprets Davis’s Kentucky origins. The site is a major Civil War–era landmark on the western Kentucky driving circuit.","website":"https://parks.ky.gov/fairview/parks/historic/jefferson-davis-state-historic-site","park_type":"state_historic_site","has_restaurant":false,"layer":"parks"}},{"type":"Feature","geometry":{"type":"Point","coordinates":[-82.725,37.6975]},"properties":{"id":"jenny-wiley-state-resort-park","name":"Jenny Wiley State Resort Park","title":"Jenny Wiley State Resort Park","city":"Prestonsburg","county":"Floyd","history":"Mountain resort on Dewey Lake named for frontier captive Jenny Wiley. May Lodge overlooks pines and water; Music Highway Grill and Dewey’s Lounge serve lodge guests and day visitors. Elk-viewing tours, amphitheater shows, and hiking make it a flagship eastern Kentucky park.","description":"Mountain resort on Dewey Lake named for frontier captive Jenny Wiley. May Lodge overlooks pines and water; Music Highway Grill and Dewey’s Lounge serve lodge guests and day visitors. Elk-viewing tours, amphitheater shows, and hiking make it a flagship eastern Kentucky park.","website":"https://parks.ky.gov/prestonsburg/parks/resort/jenny-wiley-state-resort-park","park_type":"state_resort_park","has_restaurant":true,"layer":"parks"}},{"type":"Feature","geometry":{"type":"Point","coordinates":[-87.54805556,37.88222222]},"properties":{"id":"john-james-audubon-state-park","name":"John James Audubon State Park","title":"John James Audubon State Park","city":"Henderson","county":"Henderson","history":"Museum and nature park in Henderson honoring artist-naturalist John James Audubon, who lived and worked here. Trails circle woodland lakes; the museum holds significant Audubon art and bird specimens. Cottages and camping extend stays along the Ohio River corridor.","description":"Museum and nature park in Henderson honoring artist-naturalist John James Audubon, who lived and worked here. Trails circle woodland lakes; the museum holds significant Audubon art and bird specimens. Cottages and camping extend stays along the Ohio River corridor.","website":"https://parks.ky.gov/henderson/parks/historic/john-james-audubon-state-park","park_type":"state_park","has_restaurant":false,"layer":"parks"}},{"type":"Feature","geometry":{"type":"Point","coordinates":[-88.1425,36.76111111]},"properties":{"id":"kenlake-state-resort-park","name":"Kenlake State Resort Park","title":"Kenlake State Resort Park","city":"Hardin","county":"Marshall","history":"Western Kentucky resort on Kentucky Lake in the Land Between the Lakes region. Lodge rooms, cottages, tennis, and a beach support long lake weekends. Aurora Landing is the onsite restaurant for breakfast through dinner service.","description":"Western Kentucky resort on Kentucky Lake in the Land Between the Lakes region. Lodge rooms, cottages, tennis, and a beach support long lake weekends. Aurora Landing is the onsite restaurant for breakfast through dinner service.","website":"https://parks.ky.gov/hardin/parks/resort/kenlake-state-resort-park","park_type":"state_resort_park","has_restaurant":true,"layer":"parks"}},{"type":"Feature","geometry":{"type":"Point","coordinates":[-88.29472222,37.00638889]},"properties":{"id":"kentucky-dam-village-state-resort-park","name":"Kentucky Dam Village State Resort Park","title":"Kentucky Dam Village State Resort Park","city":"Gilbertsville","county":"Marshall","history":"Large resort village at the head of Kentucky Lake near Kentucky Dam. Golf, marina slips, lodge rooms, and cottages make it one of the system’s busiest western parks. Harbor Lights restaurant serves lodge and day visitors overlooking the lake corridor.","description":"Large resort village at the head of Kentucky Lake near Kentucky Dam. Golf, marina slips, lodge rooms, and cottages make it one of the system’s busiest western parks. Harbor Lights restaurant serves lodge and day visitors overlooking the lake corridor.","website":"https://parks.ky.gov/gilbertsville/parks/resort/kentucky-dam-village-state-resort-park","park_type":"state_resort_park","has_restaurant":true,"layer":"parks"}},{"type":"Feature","geometry":{"type":"Point","coordinates":[-84.28055556,38.72]},"properties":{"id":"kincaid-lake-state-park","name":"Kincaid Lake State Park","title":"Kincaid Lake State Park","city":"Falmouth","county":"Pendleton","history":"Northern Kentucky lake park near Falmouth with camping, a beach, and boat rentals. Wooded hills surround a quiet reservoir popular with Cincinnati-area day-trippers. Trails and picnic areas fill out a classic recreation-park visit.","description":"Northern Kentucky lake park near Falmouth with camping, a beach, and boat rentals. Wooded hills surround a quiet reservoir popular with Cincinnati-area day-trippers. Trails and picnic areas fill out a classic recreation-park visit.","website":"https://parks.ky.gov/falmouth/parks/recreation/kincaid-lake-state-park","park_type":"state_park","has_restaurant":false,"layer":"parks"}},{"type":"Feature","geometry":{"type":"Point","coordinates":[-82.97888889,36.99666667]},"properties":{"id":"kingdom-come-state-park","name":"Kingdom Come State Park","title":"Kingdom Come State Park","city":"Cumberland","county":"Harlan","history":"Kentucky’s highest state park, atop Pine Mountain near Cumberland in Harlan County. Raven Rock and Log Rock overlooks, a tiny lake, and hiking define the highland experience. The name nods to John Fox Jr.’s novel The Little Shepherd of Kingdom Come.","description":"Kentucky’s highest state park, atop Pine Mountain near Cumberland in Harlan County. Raven Rock and Log Rock overlooks, a tiny lake, and hiking define the highland experience. The name nods to John Fox Jr.’s novel The Little Shepherd of Kingdom Come.","website":"https://parks.ky.gov/cumberland/parks/recreation/kingdom-come-state-park","park_type":"state_park","has_restaurant":false,"layer":"parks"}},{"type":"Feature","geometry":{"type":"Point","coordinates":[-87.91888889,36.83361111]},"properties":{"id":"lake-barkley-state-resort-park","name":"Lake Barkley State Resort Park","title":"Lake Barkley State Resort Park","city":"Cadiz","county":"Trigg","history":"Lodge resort on Lake Barkley opposite the Land Between the Lakes National Recreation Area. Floor-to-ceiling windows at Windows on the Water frame pine shoreline and open water. Marina, trails, and cottages support multi-day lake trips in western Kentucky.","description":"Lodge resort on Lake Barkley opposite the Land Between the Lakes National Recreation Area. Floor-to-ceiling windows at Windows on the Water frame pine shoreline and open water. Marina, trails, and cottages support multi-day lake trips in western Kentucky.","website":"https://parks.ky.gov/cadiz/parks/resort/lake-barkley-state-resort-park","park_type":"state_resort_park","has_restaurant":true,"layer":"parks"}},{"type":"Feature","geometry":{"type":"Point","coordinates":[-85.06388889,36.91083333]},"properties":{"id":"lake-cumberland-state-resort-park","name":"Lake Cumberland State Resort Park","title":"Lake Cumberland State Resort Park","city":"Jamestown","county":"Russell","history":"Resort on sprawling Lake Cumberland, famous for houseboats and deep fishing holes. Lure Lodge and Rowena Landing restaurant sit above the water with marina access nearby. The park is a primary public gateway to one of Kentucky’s largest reservoirs.","description":"Resort on sprawling Lake Cumberland, famous for houseboats and deep fishing holes. Lure Lodge and Rowena Landing restaurant sit above the water with marina access nearby. The park is a primary public gateway to one of Kentucky’s largest reservoirs.","website":"https://parks.ky.gov/jamestown/parks/resort/lake-cumberland-state-resort-park","park_type":"state_resort_park","has_restaurant":true,"layer":"parks"}},{"type":"Feature","geometry":{"type":"Point","coordinates":[-87.04027778,37.07472222]},"properties":{"id":"lake-malone-state-park","name":"Lake Malone State Park","title":"Lake Malone State Park","city":"Dunmor","county":"Muhlenberg","history":"Small recreation park on Lake Malone in Muhlenberg County. Sandstone cliffs, a beach, and camping draw western Kentucky weekenders. The lake is known for clear water and quiet fishing coves.","description":"Small recreation park on Lake Malone in Muhlenberg County. Sandstone cliffs, a beach, and camping draw western Kentucky weekenders. The lake is known for clear water and quiet fishing coves.","website":"https://parks.ky.gov/dunmor/parks/recreation/lake-malone-state-park","park_type":"state_park","has_restaurant":false,"layer":"parks"}},{"type":"Feature","geometry":{"type":"Point","coordinates":[-85.20972222,37.74833333]},"properties":{"id":"lincoln-homestead-state-park","name":"Lincoln Homestead State Park","title":"Lincoln Homestead State Park","city":"Springfield","county":"Washington","history":"Interprets the Lincoln family’s Kentucky roots near Springfield, including replicas of Thomas Lincoln’s workshop and Mordecai Lincoln’s house. A museum and 18-hole golf course share the grounds. It complements nearby Hodgenville’s national Lincoln birthplace sites.","description":"Interprets the Lincoln family’s Kentucky roots near Springfield, including replicas of Thomas Lincoln’s workshop and Mordecai Lincoln’s house. A museum and 18-hole golf course share the grounds. It complements nearby Hodgenville’s national Lincoln birthplace sites.","website":"https://parks.ky.gov/springfield/parks/historic/lincoln-homestead-state-park","park_type":"state_park","has_restaurant":false,"layer":"parks"}},{"type":"Feature","geometry":{"type":"Point","coordinates":[-88.07888889,37.06666667]},"properties":{"id":"mineral-mound-state-park","name":"Mineral Mound State Park","title":"Mineral Mound State Park","city":"Eddyville","county":"Lyon","history":"Golf-and-lake park on a bluff above Lake Barkley near Eddyville. The site recalls the former mansion of Kentucky governor Willis D. Green’s era mineral-mound estate. Fairways and lake views are the main visitor draw.","description":"Golf-and-lake park on a bluff above Lake Barkley near Eddyville. The site recalls the former mansion of Kentucky governor Willis D. Green’s era mineral-mound estate. Fairways and lake views are the main visitor draw.","website":"https://parks.ky.gov/eddyville/parks/recreation/mineral-mound-state-park","park_type":"state_park","has_restaurant":false,"layer":"parks"}},{"type":"Feature","geometry":{"type":"Point","coordinates":[-85.45694444,37.80638889]},"properties":{"id":"my-old-kentucky-home-state-park","name":"My Old Kentucky Home State Park","title":"My Old Kentucky Home State Park","city":"Bardstown","county":"Nelson","history":"Preserves Federal Hill, the Rowan family mansion that inspired Stephen Foster’s “My Old Kentucky Home.” Guided mansion tours, gardens, and the outdoor Stephen Foster Story amphitheater anchor Bardstown visits. The park is one of Kentucky’s most visited historic recreation sites.","description":"Preserves Federal Hill, the Rowan family mansion that inspired Stephen Foster’s “My Old Kentucky Home.” Guided mansion tours, gardens, and the outdoor Stephen Foster Story amphitheater anchor Bardstown visits. The park is one of Kentucky’s most visited historic recreation sites.","website":"https://parks.ky.gov/bardstown/parks/historic/my-old-kentucky-home-state-park","park_type":"state_park","has_restaurant":false,"layer":"parks"}},{"type":"Feature","geometry":{"type":"Point","coordinates":[-83.69361111,37.7775]},"properties":{"id":"natural-bridge-state-resort-park","name":"Natural Bridge State Resort Park","title":"Natural Bridge State Resort Park","city":"Slade","county":"Powell","history":"Centered on a 65-foot-high sandstone arch and trail network at the edge of the Red River Gorge. Hemlock Lodge and Sandstone Arches Restaurant overlook wooded cliffs; a seasonal skylift shortens the climb to the bridge. The park is a classic gateway for gorge hiking, rock formations, and fall color drives in Powell and Estill county country.","description":"Centered on a 65-foot-high sandstone arch and trail network at the edge of the Red River Gorge. Hemlock Lodge and Sandstone Arches Restaurant overlook wooded cliffs; a seasonal skylift shortens the climb to the bridge. The park is a classic gateway for gorge hiking, rock formations, and fall color drives in Powell and Estill county country.","website":"https://parks.ky.gov/parks/find-a-park/natural-bridge-state-resort-park-7796","park_type":"state_resort_park","has_restaurant":true,"layer":"parks"}},{"type":"Feature","geometry":{"type":"Point","coordinates":[-86.21361111,37.30472222]},"properties":{"id":"nolin-lake-state-park","name":"Nolin Lake State Park","title":"Nolin Lake State Park","city":"Mammoth Cave","county":"Edmonson","history":"Camping park on Nolin Lake just north of Mammoth Cave National Park. Boat ramps and a beach serve a large Corps reservoir in the karst region. Many visitors pair lake time with cave tours a short drive south.","description":"Camping park on Nolin Lake just north of Mammoth Cave National Park. Boat ramps and a beach serve a large Corps reservoir in the karst region. Many visitors pair lake time with cave tours a short drive south.","website":"https://parks.ky.gov/mammoth-cave/parks/recreation/nolin-lake-state-park","park_type":"state_park","has_restaurant":false,"layer":"parks"}},{"type":"Feature","geometry":{"type":"Point","coordinates":[-84.84888889,37.76194444]},"properties":{"id":"old-fort-harrod-state-park","name":"Old Fort Harrod State Park","title":"Old Fort Harrod State Park","city":"Harrodsburg","county":"Mercer","history":"Full-scale reconstruction of Kentucky’s first permanent settlement (1774) in Harrodsburg. Cabin exhibits, the Mansion Museum, and pioneer cemetery interpret early Bluegrass frontier life. The park is a cornerstone stop on central Kentucky history drives.","description":"Full-scale reconstruction of Kentucky’s first permanent settlement (1774) in Harrodsburg. Cabin exhibits, the Mansion Museum, and pioneer cemetery interpret early Bluegrass frontier life. The park is a cornerstone stop on central Kentucky history drives.","website":"https://parks.ky.gov/harrodsburg/parks/historic/old-fort-harrod-state-park","park_type":"state_park","has_restaurant":false,"layer":"parks"}},{"type":"Feature","geometry":{"type":"Point","coordinates":[-85.7075,36.67777778]},"properties":{"id":"old-mulkey-meetinghouse-state-historic-site","name":"Old Mulkey Meetinghouse State Historic Site","title":"Old Mulkey Meetinghouse State Historic Site","city":"Tompkinsville","county":"Monroe","history":"Preserves a 1804 log meetinghouse, among Kentucky’s oldest, near Tompkinsville. Pioneer graves and the simple sanctuary recall early Baptist frontier worship. The site is a short stop in southern Kentucky near the Tennessee line.","description":"Preserves a 1804 log meetinghouse, among Kentucky’s oldest, near Tompkinsville. Pioneer graves and the simple sanctuary recall early Baptist frontier worship. The site is a short stop in southern Kentucky near the Tennessee line.","website":"https://parks.ky.gov/tompkinsville/parks/historic/old-mulkey-meetinghouse-state-historic-site","park_type":"state_historic_site","has_restaurant":false,"layer":"parks"}},{"type":"Feature","geometry":{"type":"Point","coordinates":[-82.87098889,37.83981667]},"properties":{"id":"paintsville-lake-state-park","name":"Paintsville Lake State Park","title":"Paintsville Lake State Park","city":"Staffordsville","county":"Johnson","history":"Marina and camping park on Paintsville Lake in Johnson County. Steep forested shores and clear water attract eastern Kentucky boaters. The park pairs well with nearby Jenny Wiley resort amenities and Mountain Parkway drives.","description":"Marina and camping park on Paintsville Lake in Johnson County. Steep forested shores and clear water attract eastern Kentucky boaters. The park pairs well with nearby Jenny Wiley resort amenities and Mountain Parkway drives.","website":"https://parks.ky.gov/staffordsville/parks/recreation/paintsville-lake-state-park","park_type":"state_park","has_restaurant":false,"layer":"parks"}},{"type":"Feature","geometry":{"type":"Point","coordinates":[-87.66333333,37.07305556]},"properties":{"id":"pennyrile-forest-state-resort-park","name":"Pennyrile Forest State Resort Park","title":"Pennyrile Forest State Resort Park","city":"Dawson Springs","county":"Hopkins","history":"Resort tucked inside Pennyrile State Forest in western Kentucky. A small lake, lodge, cottages, and Clifty Creek Restaurant support hiking and quiet lake days. The surrounding forest is one of the Commonwealth’s larger state forest tracts.","description":"Resort tucked inside Pennyrile State Forest in western Kentucky. A small lake, lodge, cottages, and Clifty Creek Restaurant support hiking and quiet lake days. The surrounding forest is one of the Commonwealth’s larger state forest tracts.","website":"https://parks.ky.gov/dawson-springs/parks/resort/pennyrile-forest-state-resort-park","park_type":"state_resort_park","has_restaurant":true,"layer":"parks"}},{"type":"Feature","geometry":{"type":"Point","coordinates":[-84.96972222,37.67527778]},"properties":{"id":"perryville-battlefield-state-historic-site","name":"Perryville Battlefield State Historic Site","title":"Perryville Battlefield State Historic Site","city":"Perryville","county":"Boyle","history":"Preserves the core of Kentucky’s largest Civil War battle (October 8, 1862). Museum exhibits, monuments, and walking trails interpret the Confederate heartland offensive’s climax. Annual reenactments and quiet fields make it essential Bluegrass Civil War terrain.","description":"Preserves the core of Kentucky’s largest Civil War battle (October 8, 1862). Museum exhibits, monuments, and walking trails interpret the Confederate heartland offensive’s climax. Annual reenactments and quiet fields make it essential Bluegrass Civil War terrain.","website":"https://parks.ky.gov/perryville/parks/historic/perryville-battlefield-state-historic-site","park_type":"state_historic_site","has_restaurant":false,"layer":"parks"}},{"type":"Feature","geometry":{"type":"Point","coordinates":[-83.70916667,36.75111111]},"properties":{"id":"pine-mountain-state-resort-park","name":"Pine Mountain State Resort Park","title":"Pine Mountain State Resort Park","city":"Pineville","county":"Bell","history":"Kentucky’s first state park (1924), perched on Pine Mountain above Pineville. Herndon J. Evans Lodge and Mountain View Restaurant face long Appalachian valley views. Chained Rock, hiking trails, and mountain cottages define the historic mountain-resort experience.","description":"Kentucky’s first state park (1924), perched on Pine Mountain above Pineville. Herndon J. Evans Lodge and Mountain View Restaurant face long Appalachian valley views. Chained Rock, hiking trails, and mountain cottages define the historic mountain-resort experience.","website":"https://parks.ky.gov/pineville/parks/resort/pine-mountain-state-resort-park","park_type":"state_resort_park","has_restaurant":true,"layer":"parks"}},{"type":"Feature","geometry":{"type":"Point","coordinates":[-86.50472222,37.61083333]},"properties":{"id":"rough-river-dam-state-resort-park","name":"Rough River Dam State Resort Park","title":"Rough River Dam State Resort Park","city":"Falls of Rough","county":"Grayson","history":"Resort on Rough River Lake spanning the Breckinridge–Grayson–Hardin border region. Lodge lodging and Grayson's Landing dining serve boaters and golfers on a popular western Kentucky reservoir. The dam and lake are Corps of Engineers projects wrapped by state park amenities.","description":"Resort on Rough River Lake spanning the Breckinridge–Grayson–Hardin border region. Lodge lodging and Grayson's Landing dining serve boaters and golfers on a popular western Kentucky reservoir. The dam and lake are Corps of Engineers projects wrapped by state park amenities.","website":"https://parks.ky.gov/parks/find-a-park/rough-river-dam-state-resort-park-7800","park_type":"state_resort_park","has_restaurant":true,"layer":"parks"}},{"type":"Feature","geometry":{"type":"Point","coordinates":[-85.25555556,38.03055556]},"properties":{"id":"taylorsville-lake-state-park","name":"Taylorsville Lake State Park","title":"Taylorsville Lake State Park","city":"Taylorsville","county":"Spencer","history":"Large recreation park on Taylorsville Lake southeast of Louisville. Horse trails, camping, and boat ramps serve Spencer County’s Corps lake. It is a primary weekend escape for Louisville metro visitors.","description":"Large recreation park on Taylorsville Lake southeast of Louisville. Horse trails, camping, and boat ramps serve Spencer County’s Corps lake. It is a primary weekend escape for Louisville metro visitors.","website":"https://parks.ky.gov/parks/recreation-parks","park_type":"state_park","has_restaurant":false,"layer":"parks"}},{"type":"Feature","geometry":{"type":"Point","coordinates":[-84.53722222,37.97138889]},"properties":{"id":"waveland-state-historic-site","name":"Waveland State Historic Site","title":"Waveland State Historic Site","city":"Lexington","county":"Fayette","history":"Greek Revival plantation house museum on Lexington’s south side, built by the Bryan family tied to Daniel Boone’s kin. Tours interpret antebellum Bluegrass plantation life and architecture. The landscaped grounds are a compact urban historic stop.","description":"Greek Revival plantation house museum on Lexington’s south side, built by the Bryan family tied to Daniel Boone’s kin. Tours interpret antebellum Bluegrass plantation life and architecture. The landscaped grounds are a compact urban historic stop.","website":"https://parks.ky.gov/lexington/parks/historic/waveland-state-historic-site","park_type":"state_historic_site","has_restaurant":false,"layer":"parks"}},{"type":"Feature","geometry":{"type":"Point","coordinates":[-89.0917492,36.9712176]},"properties":{"id":"wickliffe-mounds-state-historic-site","name":"Wickliffe Mounds State Historic Site","title":"Wickliffe Mounds State Historic Site","city":"Wickliffe","county":"Ballard","history":"Mississippian culture mound center on the Mississippi River bluffs at Wickliffe. Museum galleries and preserved mounds interpret a Native town occupied roughly A.D. 1100–1350. It is a key prehistoric archaeology stop in far western Kentucky.","description":"Mississippian culture mound center on the Mississippi River bluffs at Wickliffe. Museum galleries and preserved mounds interpret a Native town occupied roughly A.D. 1100–1350. It is a key prehistoric archaeology stop in far western Kentucky.","website":"https://parks.ky.gov/wickliffe/parks/historic/wickliffe-mounds-state-historic-site","park_type":"state_historic_site","has_restaurant":false,"layer":"parks"}},{"type":"Feature","geometry":{"type":"Point","coordinates":[-82.68638889,38.085]},"properties":{"id":"yatesville-lake-state-park","name":"Yatesville Lake State Park","title":"Yatesville Lake State Park","city":"Louisa","county":"Lawrence","history":"Boating and camping park on Yatesville Lake near Louisa in northeastern Kentucky. Open water and forested shoreline support fishing and marina use. The park anchors Lawrence County outdoor recreation along the Big Sandy region.","description":"Boating and camping park on Yatesville Lake near Louisa in northeastern Kentucky. Open water and forested shoreline support fishing and marina use. The park anchors Lawrence County outdoor recreation along the Big Sandy region.","website":"https://parks.ky.gov/louisa/parks/recreation/yatesville-lake-state-park","park_type":"state_park","has_restaurant":false,"layer":"parks"}}]}