{"type":"FeatureCollection","features":[{"type":"Feature","geometry":{"type":"Point","coordinates":[-86.9,37.4]},"properties":{"id":"chiggerville-15oh1","name":"Chiggerville (15Oh1)","title":"Chiggerville (15Oh1)","layer":"stories","era":"prehistoric","yearStart":-3000,"yearEnd":1000,"summary":"On the Green River floodplain in Ohio County, the Late Archaic Chiggerville shell midden (roughly 3000–1000 BC) sits beside an old mussel shoal and runs more than four feet…","description":"On the Green River floodplain in Ohio County, the Late Archaic Chiggerville shell midden (roughly 3000–1000 BC) sits beside an old mussel shoal and runs more than four feet…","slug":"chiggerville-15oh1","mapConfidence":"override","matchedPlace":"Chiggerville (15Oh1)","website":null}},{"type":"Feature","geometry":{"type":"Point","coordinates":[-86.79083,37.2425]},"properties":{"id":"read-shell-midden-15bt10-butler-county","name":"Read Shell Midden (15Bt10), Butler County","title":"Read Shell Midden (15Bt10), Butler County","layer":"stories","era":"prehistoric","yearStart":-3000,"yearEnd":1000,"summary":"On the Green River west of Morgantown, the Read Shell Midden is another Late Archaic (roughly 3000–1000 BCE) camp-and-cemetery in the same mussel-shoal world as Indian Knoll,…","description":"On the Green River west of Morgantown, the Read Shell Midden is another Late Archaic (roughly 3000–1000 BCE) camp-and-cemetery in the same mussel-shoal world as Indian Knoll,…","slug":"read-shell-midden-15bt10-butler-county","mapConfidence":"fuzzy","matchedPlace":"Read Shell Midden (15Bt10)","website":null}},{"type":"Feature","geometry":{"type":"Point","coordinates":[-83.01908889,38.72371944]},"properties":{"id":"hansen-site-15gp14","name":"Hansen Site (15GP14)","title":"Hansen Site (15GP14)","layer":"stories","era":"prehistoric","yearStart":-2000,"yearEnd":-2000,"summary":"Near South Portsmouth in Greenup County, the Hansen Site sits on an Ohio River terrace just upstream from Lower Shawneetown and across from the Scioto mouth. Excavations…","description":"Near South Portsmouth in Greenup County, the Hansen Site sits on an Ohio River terrace just upstream from Lower Shawneetown and across from the Scioto mouth. Excavations…","slug":"hansen-site-15gp14","mapConfidence":"override","matchedPlace":"Hansen Site (15GP14)","website":null}},{"type":"Feature","geometry":{"type":"Point","coordinates":[-86.7683398,37.2849569]},"properties":{"id":"carlston-annis-shell-mound","name":"Carlston Annis Shell Mound","title":"Carlston Annis Shell Mound","layer":"stories","era":"prehistoric","yearStart":-1000,"yearEnd":1000,"summary":"On the Green River floodplain in Butler County, Carlston Annis (15Bt5) is a Late Archaic shell midden about 300 by 350 feet and more than six feet thick, piled up beside a…","description":"On the Green River floodplain in Butler County, Carlston Annis (15Bt5) is a Late Archaic shell midden about 300 by 350 feet and more than six feet thick, piled up beside a…","slug":"carlston-annis-shell-mound","mapConfidence":"exact","matchedPlace":"Carlston Annis Shell Mound","website":null}},{"type":"Feature","geometry":{"type":"Point","coordinates":[-86.101,37.187]},"properties":{"id":"salts-cave-15ht4","name":"Salts Cave (15Ht4)","title":"Salts Cave (15Ht4)","layer":"stories","era":"prehistoric","yearStart":-1000,"yearEnd":1000,"summary":"Inside Mammoth Cave National Park, Salts Cave was one of several passages Early Woodland people used most intensively about 1000–200 BC. They mined wall sulfates—gypsum for…","description":"Inside Mammoth Cave National Park, Salts Cave was one of several passages Early Woodland people used most intensively about 1000–200 BC. They mined wall sulfates—gypsum for…","slug":"salts-cave-15ht4","mapConfidence":"override","matchedPlace":"Salts Cave (15Ht4)","website":null}},{"type":"Feature","geometry":{"type":"Point","coordinates":[-83.9511,38.0733]},"properties":{"id":"gaitskill-mounds-engraved-tablets","name":"Gaitskill Mound's engraved tablets","title":"Gaitskill Mound's engraved tablets","layer":"stories","era":"prehistoric","yearStart":-800,"yearEnd":700,"summary":"On Mount Sterling's northern bypass, Gaitskill Mound is an Adena earthwork (roughly 800 B.C.–A.D. 700) listed on the National Register in 1975. Unlike many looted mounds, it…","description":"On Mount Sterling's northern bypass, Gaitskill Mound is an Adena earthwork (roughly 800 B.C.–A.D. 700) listed on the National Register in 1975. Unlike many looted mounds, it…","slug":"gaitskill-mounds-engraved-tablets","mapConfidence":"fuzzy","matchedPlace":"Gaitskill Mound","website":null}},{"type":"Feature","geometry":{"type":"Point","coordinates":[-84.4960297,38.0459102]},"properties":{"id":"peter-village-enclosure-15fa166","name":"Peter Village enclosure (15Fa166)","title":"Peter Village enclosure (15Fa166)","layer":"stories","era":"prehistoric","yearStart":-300,"yearEnd":-200,"summary":"Just north of Lexington along the Mount Horeb complex, Peter Village is a huge, non-geometric ditch-and-embankment earthwork Rafinesque paced as a roughly twenty-sided polygon…","description":"Just north of Lexington along the Mount Horeb complex, Peter Village is a huge, non-geometric ditch-and-embankment earthwork Rafinesque paced as a roughly twenty-sided polygon…","slug":"peter-village-enclosure-15fa166","mapConfidence":"exact","matchedPlace":"Peter Village enclosure (15Fa166)","website":null}},{"type":"Feature","geometry":{"type":"Point","coordinates":[-84.6228,37.8967]},"properties":{"id":"muir-site-15js86","name":"Muir Site (15Js86)","title":"Muir Site (15Js86)","layer":"stories","era":"prehistoric","yearStart":1000,"yearEnd":1200,"summary":"West of Nicholasville on a Jessamine County ridge, Muir is an early Fort Ancient (Osborne phase) hamlet dated roughly A.D. 1000–1200. UK crews dug it in 1985 ahead of the…","description":"West of Nicholasville on a Jessamine County ridge, Muir is an early Fort Ancient (Osborne phase) hamlet dated roughly A.D. 1000–1200. UK crews dug it in 1985 ahead of the…","slug":"muir-site-15js86","mapConfidence":"override","matchedPlace":"Muir Site (15Js86)","website":null}},{"type":"Feature","geometry":{"type":"Point","coordinates":[-86.84895,36.82461]},"properties":{"id":"page-site-lost-city-15lo1","name":"Page Site / “Lost City” (15LO1)","title":"Page Site / “Lost City” (15LO1)","layer":"stories","era":"prehistoric","yearStart":1000,"yearEnd":1600,"summary":"Above the Mud River east of Lewisburg in Logan County sits the Page Site, a major Mississippian mound-and-ossuary complex (roughly A.D. 1000–1600) excavated by William S. Webb…","description":"Above the Mud River east of Lewisburg in Logan County sits the Page Site, a major Mississippian mound-and-ossuary complex (roughly A.D. 1000–1600) excavated by William S. Webb…","slug":"page-site-lost-city-15lo1","mapConfidence":"county","matchedPlace":"Logan County (centroid)","website":null}},{"type":"Feature","geometry":{"type":"Point","coordinates":[-89.186,36.552]},"properties":{"id":"adams-site-15fu4","name":"Adams Site (15Fu4)","title":"Adams Site (15Fu4)","layer":"stories","era":"prehistoric","yearStart":1100,"yearEnd":1500,"summary":"Near Hickman in Fulton County, on Bayou de Chien toward the Mississippi, the Adams Site is a Mississippian town built over an earlier Late Woodland village. Platform mounds…","description":"Near Hickman in Fulton County, on Bayou de Chien toward the Mississippi, the Adams Site is a Mississippian town built over an earlier Late Woodland village. Platform mounds…","slug":"adams-site-15fu4","mapConfidence":"override","matchedPlace":"Adams Site (15Fu4)","website":null}},{"type":"Feature","geometry":{"type":"Point","coordinates":[-89.186,36.552]},"properties":{"id":"adams-site-mississippian-town-near-hickman","name":"Adams Site Mississippian town near Hickman","title":"Adams Site Mississippian town near Hickman","layer":"stories","era":"prehistoric","yearStart":1100,"yearEnd":1500,"summary":"Adams (15Fu4) on Bayou de Chien in Fulton County is a roughly 7-hectare Mississippian center with platform mounds and plazas built over an earlier Late Woodland village.…","description":"Adams (15Fu4) on Bayou de Chien in Fulton County is a roughly 7-hectare Mississippian center with platform mounds and plazas built over an earlier Late Woodland village.…","slug":"adams-site-mississippian-town-near-hickman","mapConfidence":"fuzzy","matchedPlace":"Adams Site (15Fu4)","website":null}},{"type":"Feature","geometry":{"type":"Point","coordinates":[-89.08521944,36.89476944]},"properties":{"id":"turk-site-carlisle-county","name":"Turk Site, Carlisle County","title":"Turk Site, Carlisle County","layer":"stories","era":"prehistoric","yearStart":1100,"yearEnd":1300,"summary":"On a bluff spur near Bardwell overlooking the Mississippi floodplain, the Turk Site (15Ce6) was a small Mississippian regional center of about 2.5 hectares. Occupied mainly in…","description":"On a bluff spur near Bardwell overlooking the Mississippi floodplain, the Turk Site (15Ce6) was a small Mississippian regional center of about 2.5 hectares. Occupied mainly in…","slug":"turk-site-carlisle-county","mapConfidence":"override","matchedPlace":"Turk Site (15Ce6)","website":null}},{"type":"Feature","geometry":{"type":"Point","coordinates":[-84.2492072,38.2132087]},"properties":{"id":"buckner-site-fort-ancient-villages-on-strodes-creek","name":"Buckner Site — Fort Ancient villages on Strodes Creek","title":"Buckner Site — Fort Ancient villages on Strodes Creek","layer":"stories","era":"prehistoric","yearStart":1200,"yearEnd":1550,"summary":"Near Paris in Bourbon County, the Buckner Site (15Bb12) holds two circular Fort Ancient villages around central plazas, occupied mainly about A.D. 1200–1400 and into the early…","description":"Near Paris in Bourbon County, the Buckner Site (15Bb12) holds two circular Fort Ancient villages around central plazas, occupied mainly about A.D. 1200–1400 and into the early…","slug":"buckner-site-fort-ancient-villages-on-strodes-creek","mapConfidence":"override","matchedPlace":"Buckner Site (15Bb12)","website":null}},{"type":"Feature","geometry":{"type":"Point","coordinates":[-88.32188,36.86767]},"properties":{"id":"jonathan-creek-mississippian-center","name":"Jonathan Creek Mississippian center","title":"Jonathan Creek Mississippian center","layer":"stories","era":"prehistoric","yearStart":1200,"yearEnd":1300,"summary":"On the west bank of the Tennessee River in Marshall County (site 15Ml4), Jonathan Creek was a fortified Mississippian town occupied roughly A.D. 1200–1300. CCC crews working…","description":"On the west bank of the Tennessee River in Marshall County (site 15Ml4), Jonathan Creek was a fortified Mississippian town occupied roughly A.D. 1200–1300. CCC crews working…","slug":"jonathan-creek-mississippian-center","mapConfidence":"county","matchedPlace":"Marshall County (centroid)","website":null}},{"type":"Feature","geometry":{"type":"Point","coordinates":[-88.25166667,37.43722222]},"properties":{"id":"tolu-site-mississippian-mounds-on-the-lower-ohio","name":"Tolu Site — Mississippian mounds on the lower Ohio","title":"Tolu Site — Mississippian mounds on the lower Ohio","layer":"stories","era":"prehistoric","yearStart":1200,"yearEnd":1300,"summary":"Near Tolu in Crittenden County, the Tolu Site (15Cn1) was a Mississippian town occupied mainly about 1200–1300 CE (pottery styles; occupation into the 1400s). It once held…","description":"Near Tolu in Crittenden County, the Tolu Site (15Cn1) was a Mississippian town occupied mainly about 1200–1300 CE (pottery styles; occupation into the 1400s). It once held…","slug":"tolu-site-mississippian-mounds-on-the-lower-ohio","mapConfidence":"fuzzy","matchedPlace":"Tolu Site (15Cn1)","website":null}},{"type":"Feature","geometry":{"type":"Point","coordinates":[-83.8418974,38.5175801]},"properties":{"id":"fox-farm-mason-county","name":"Fox Farm (Mason County)","title":"Fox Farm (Mason County)","layer":"stories","era":"prehistoric","yearStart":1300,"yearEnd":1300,"summary":"On a broad ridgetop near Mays Lick, Fort Ancient farmers lived at Fox Farm (15Ms1) from about 1300 into the mid-1600s—one of the longest-lived villages of its kind in the Ohio…","description":"On a broad ridgetop near Mays Lick, Fort Ancient farmers lived at Fox Farm (15Ms1) from about 1300 into the mid-1600s—one of the longest-lived villages of its kind in the Ohio…","slug":"fox-farm-mason-county","mapConfidence":"fuzzy","matchedPlace":"Fox Farm Fort Ancient","website":null}},{"type":"Feature","geometry":{"type":"Point","coordinates":[-84.2876618,37.6661229]},"properties":{"id":"howard-site-late-fort-ancient-above-harts-fork","name":"Howard Site — Late Fort Ancient above Harts Fork","title":"Howard Site — Late Fort Ancient above Harts Fork","layer":"stories","era":"prehistoric","yearStart":1400,"yearEnd":1750,"summary":"In Madison County, the Howard site (15Ma427 / 15Ma127) holds a Late Fort Ancient farming village (roughly A.D. 1400–1750) on a low ridge above Harts Fork: house clusters,…","description":"In Madison County, the Howard site (15Ma427 / 15Ma127) holds a Late Fort Ancient farming village (roughly A.D. 1400–1750) on a low ridge above Harts Fork: house clusters,…","slug":"howard-site-late-fort-ancient-above-harts-fork","mapConfidence":"fuzzy","matchedPlace":"Howard Site (15Ma427) Late Fort Ancient","website":null}},{"type":"Feature","geometry":{"type":"Point","coordinates":[-84.2666,37.8909]},"properties":{"id":"col-richard-callaway-of-boonesborough","name":"Col. Richard Callaway of Boonesborough","title":"Col. Richard Callaway of Boonesborough","layer":"stories","era":"native","yearStart":1717,"yearEnd":1780,"summary":"Virginia-born Richard Callaway (1717–1780) helped blaze the path into central Kentucky with Boone in 1775 and co-founded Boonesborough for Henderson’s Transylvania venture. He…","description":"Virginia-born Richard Callaway (1717–1780) helped blaze the path into central Kentucky with Boone in 1775 and co-founded Boonesborough for Henderson’s Transylvania venture. He…","slug":"col-richard-callaway-of-boonesborough","mapConfidence":"override","matchedPlace":"Boonesborough","website":null}},{"type":"Feature","geometry":{"type":"Point","coordinates":[-86.96,40.40083]},"properties":{"id":"wea-waayaahtanwa-on-the-wabash","name":"Wea (Waayaahtanwa) on the Wabash","title":"Wea (Waayaahtanwa) on the Wabash","layer":"stories","era":"native","yearStart":1717,"yearEnd":1818,"summary":"The Wea—“people of the whirlpool”—were a Miami–Illinois-speaking people whose main towns clustered on the middle Wabash (Ouiatenon near today’s Lafayette, and villages toward…","description":"The Wea—“people of the whirlpool”—were a Miami–Illinois-speaking people whose main towns clustered on the middle Wabash (Ouiatenon near today’s Lafayette, and villages toward…","slug":"wea-waayaahtanwa-on-the-wabash","mapConfidence":"fuzzy","matchedPlace":"Wea (Waayaahtanwa) / Ouiatenon","website":null}},{"type":"Feature","geometry":{"type":"Point","coordinates":[-85.92479,37.03703]},"properties":{"id":"henry-skaggs-green-river-long-hunter","name":"Henry Skaggs, Green River long hunter","title":"Henry Skaggs, Green River long hunter","layer":"stories","era":"native","yearStart":1724,"yearEnd":1810,"summary":"Maryland-born Henry Skaggs (1724–1810) was among the earliest long hunters through Cumberland Gap—out by 1761 with Elisha Walden, then deeper into the Cumberland and, by 1764,…","description":"Maryland-born Henry Skaggs (1724–1810) was among the earliest long hunters through Cumberland Gap—out by 1761 with Elisha Walden, then deeper into the Cumberland and, by 1764,…","slug":"henry-skaggs-green-river-long-hunter","mapConfidence":"county","matchedPlace":"Barren County (centroid)","website":null}},{"type":"Feature","geometry":{"type":"Point","coordinates":[-84.26686666666667,37.895633333333336]},"properties":{"id":"capt-nathaniel-hart","name":"Capt. Nathaniel Hart","title":"Capt. Nathaniel Hart","layer":"stories","era":"native","yearStart":1734,"yearEnd":1782,"summary":"Capt. Nathaniel Hart (1734–1782), a Transylvania Company proprietor and chief negotiator with the Cherokee, came to Boonesborough in 1775 and in 1779 settled White Oak Springs…","description":"Capt. Nathaniel Hart (1734–1782), a Transylvania Company proprietor and chief negotiator with the Cherokee, came to Boonesborough in 1775 and in 1779 settled White Oak Springs…","slug":"capt-nathaniel-hart","mapConfidence":"override","matchedPlace":"Capt. Nathaniel Hart / White Oak Springs","website":null}},{"type":"Feature","geometry":{"type":"Point","coordinates":[-85.4313603,38.2363772]},"properties":{"id":"capt-abraham-lincoln-on-long-run","name":"Capt. Abraham Lincoln on Long Run","title":"Capt. Abraham Lincoln on Long Run","layer":"stories","era":"native","yearStart":1744,"yearEnd":1786,"summary":"The president’s grandfather—Capt. Abraham Lincoln (1744–1786), Augusta/Rockingham militia officer and tanner—bought rich Jefferson County land near Hughes’ Station on Floyd’s…","description":"The president’s grandfather—Capt. Abraham Lincoln (1744–1786), Augusta/Rockingham militia officer and tanner—bought rich Jefferson County land near Hughes’ Station on Floyd’s…","slug":"capt-abraham-lincoln-on-long-run","mapConfidence":"override","matchedPlace":"Squire Boone / Painted Stone / Long Run","website":null}},{"type":"Feature","geometry":{"type":"Point","coordinates":[-84.67985,37.52019]},"properties":{"id":"col-stephen-trigg-of-viney-grove","name":"Col. Stephen Trigg of Viney Grove","title":"Col. Stephen Trigg of Viney Grove","layer":"stories","era":"native","yearStart":1744,"yearEnd":1820,"summary":"Virginia-born Stephen Trigg (c. 1744–1782) signed the Fincastle Resolutions, sat on Virginia’s land court that sorted Kentucky claims in 1779–80, then settled Trigg’s Station…","description":"Virginia-born Stephen Trigg (c. 1744–1782) signed the Fincastle Resolutions, sat on Virginia’s land court that sorted Kentucky claims in 1779–80, then settled Trigg’s Station…","slug":"col-stephen-trigg-of-viney-grove","mapConfidence":"county","matchedPlace":"Lincoln County (centroid)","website":null}},{"type":"Feature","geometry":{"type":"Point","coordinates":[-84.83079,37.778]},"properties":{"id":"hugh-mcgary-the-hothead-major","name":"Hugh McGary, the hothead major","title":"Hugh McGary, the hothead major","layer":"stories","era":"native","yearStart":1744,"yearEnd":1806,"summary":"Irish-born Hugh McGary (1744–1806) came through the Gap with early Kentucky families, settled near Harrodsburg, and built McGary’s Station at Shawnee Springs in Mercer County…","description":"Irish-born Hugh McGary (1744–1806) came through the Gap with early Kentucky families, settled near Harrodsburg, and built McGary’s Station at Shawnee Springs in Mercer County…","slug":"hugh-mcgary-the-hothead-major","mapConfidence":"county","matchedPlace":"Mercer County (centroid)","website":null}},{"type":"Feature","geometry":{"type":"Point","coordinates":[-84.2666,37.8909]},"properties":{"id":"michael-stoner-german-long-hunter","name":"Michael Stoner, German long hunter","title":"Michael Stoner, German long hunter","layer":"stories","era":"native","yearStart":1748,"yearEnd":1814,"summary":"Born Michael Holsteiner near Philadelphia in 1748, Stoner grew up speaking German and drifted to Virginia’s New River frontier as a teen. In June 1774, Capt. William Russell…","description":"Born Michael Holsteiner near Philadelphia in 1748, Stoner grew up speaking German and drifted to Virginia’s New River frontier as a teen. In June 1774, Capt. William Russell…","slug":"michael-stoner-german-long-hunter","mapConfidence":"override","matchedPlace":"Boonesborough","website":null}},{"type":"Feature","geometry":{"type":"Point","coordinates":[-84.4906036,38.0464087]},"properties":{"id":"christopher-gist-1750-51","name":"Christopher Gist, 1750–51","title":"Christopher Gist, 1750–51","layer":"stories","era":"native","yearStart":1750,"yearEnd":1750,"summary":"Fifteen-plus years before Boone's fame, the Ohio Company hired surveyor Christopher Gist to probe the Ohio Valley down toward the Falls. Crossing into Kentucky from the Scioto…","description":"Fifteen-plus years before Boone's fame, the Ohio Company hired surveyor Christopher Gist to probe the Ohio Valley down toward the Falls. Crossing into Kentucky from the Scioto…","slug":"christopher-gist-1750-51","mapConfidence":"fuzzy","matchedPlace":"Christopher Gist / Ohio Company","website":null}},{"type":"Feature","geometry":{"type":"Point","coordinates":[-84.5037,38.0406]},"properties":{"id":"col-john-todd-of-lexington","name":"Col. John Todd of Lexington","title":"Col. John Todd of Lexington","layer":"stories","era":"frontier","yearStart":1750,"yearEnd":1819,"summary":"Pennsylvania-born lawyer John Todd (1750–1782) reached Kentucky around 1775, sat in Virginia’s legislature for Kentucky County, rode with George Rogers Clark to Kaskaskia and…","description":"Pennsylvania-born lawyer John Todd (1750–1782) reached Kentucky around 1775, sat in Virginia’s legislature for Kentucky County, rode with George Rogers Clark to Kaskaskia and…","slug":"col-john-todd-of-lexington","mapConfidence":"override","matchedPlace":"Col. John Todd of Lexington","website":null}},{"type":"Feature","geometry":{"type":"Point","coordinates":[-83.70171666666667,36.60686666666667]},"properties":{"id":"thomas-walker-and-cumberland-gap","name":"Thomas Walker and Cumberland Gap","title":"Thomas Walker and Cumberland Gap","layer":"stories","era":"frontier","yearStart":1750,"yearEnd":1750,"summary":"In March 1750 Dr. Thomas Walker led a Loyal Land Company party through the Appalachians and on April 13 recorded Cave Gap: a plain Indian road, a spring pouring from a cave,…","description":"In March 1750 Dr. Thomas Walker led a Loyal Land Company party through the Appalachians and on April 13 recorded Cave Gap: a plain Indian road, a spring pouring from a cave,…","slug":"thomas-walker-and-cumberland-gap","mapConfidence":"fuzzy","matchedPlace":"Cumberland Gap / Thomas Walker","website":null}},{"type":"Feature","geometry":{"type":"Point","coordinates":[-83.0141361,38.7250509]},"properties":{"id":"lower-shawneetown-at-the-scioto-mouth","name":"Lower Shawneetown at the Scioto mouth","title":"Lower Shawneetown at the Scioto mouth","layer":"stories","era":"native","yearStart":1751,"yearEnd":1758,"summary":"Long before stations dotted the Bluegrass, a major Shawnee town straddled the Ohio at the Scioto's mouth (near today's South Portsmouth, KY). English maps called it Lower…","description":"Long before stations dotted the Bluegrass, a major Shawnee town straddled the Ohio at the Scioto's mouth (near today's South Portsmouth, KY). English maps called it Lower…","slug":"lower-shawneetown-at-the-scioto-mouth","mapConfidence":"fuzzy","matchedPlace":"Lower Shawneetown","website":null}},{"type":"Feature","geometry":{"type":"Point","coordinates":[-83.9975333,37.93955]},"properties":{"id":"john-finley-the-trader-who-put-kentucky-on-boones-map","name":"John Finley, the Trader Who Put Kentucky on Boone’s Map","title":"John Finley, the Trader Who Put Kentucky on Boone’s Map","layer":"stories","era":"native","yearStart":1752,"yearEnd":1769,"summary":"Long before Wilderness Road fame, Pennsylvania-born trader John Finley (also Findley) was crossing the Alleghenies for furs. Around 1752 he reached Eskippakithiki, the Shawnee…","description":"Long before Wilderness Road fame, Pennsylvania-born trader John Finley (also Findley) was crossing the Alleghenies for furs. Around 1752 he reached Eskippakithiki, the Shawnee…","slug":"john-finley-the-trader-who-put-kentucky-on-boones-map","mapConfidence":"fuzzy","matchedPlace":"John Finley","website":null}},{"type":"Feature","geometry":{"type":"Point","coordinates":[-84.83,37.66]},"properties":{"id":"maj-silas-harlan","name":"Maj. Silas Harlan","title":"Maj. Silas Harlan","layer":"stories","era":"frontier","yearStart":1752,"yearEnd":1819,"summary":"Virginia-born Major Silas Harlan (c. 1752–1782) came to Kentucky in 1774, built Harlan's Station on the Salt River about seven miles south of Harrodsburg in 1778, and commanded…","description":"Virginia-born Major Silas Harlan (c. 1752–1782) came to Kentucky in 1774, built Harlan's Station on the Salt River about seven miles south of Harrodsburg in 1778, and commanded…","slug":"maj-silas-harlan","mapConfidence":"override","matchedPlace":"Maj. Silas Harlan / Harlan's Station","website":null}},{"type":"Feature","geometry":{"type":"Point","coordinates":[-83.9975333,37.93955]},"properties":{"id":"odawa-raid-at-eskippakithiki-1753","name":"Odawa raid at Eskippakithiki, 1753","title":"Odawa raid at Eskippakithiki, 1753","layer":"stories","era":"native","yearStart":1752,"yearEnd":1754,"summary":"At the Shawnee town of Eskippakithiki (Indian Old Fields, Clark County)—Kentucky’s last major Native town of the 1700s—Pennsylvania trader John Finley kept a store and stockade…","description":"At the Shawnee town of Eskippakithiki (Indian Old Fields, Clark County)—Kentucky’s last major Native town of the 1700s—Pennsylvania trader John Finley kept a store and stockade…","slug":"odawa-raid-at-eskippakithiki-1753","mapConfidence":"fuzzy","matchedPlace":"John Finley","website":null}},{"type":"Feature","geometry":{"type":"Point","coordinates":[-85.7628814,38.2753405]},"properties":{"id":"evan-williams-on-the-louisville-wharf","name":"Evan Williams on the Louisville wharf","title":"Evan Williams on the Louisville wharf","layer":"stories","era":"frontier","yearStart":1755,"yearEnd":1810,"summary":"Welsh immigrant Evan Williams (1755–1810) distilled corn whiskey on Louisville’s Ohio bank and by 1801 held a federal license for three stills (141, 130, and 93 gallons),…","description":"Welsh immigrant Evan Williams (1755–1810) distilled corn whiskey on Louisville’s Ohio bank and by 1801 held a federal license for three stills (141, 130, and 93 gallons),…","slug":"evan-williams-on-the-louisville-wharf","mapConfidence":"override","matchedPlace":"Falls of the Ohio","website":null}},{"type":"Feature","geometry":{"type":"Point","coordinates":[-85.71646666666666,37.98791666666666]},"properties":{"id":"shepherdsville-on-salt-river","name":"Shepherdsville on Salt River","title":"Shepherdsville on Salt River","layer":"stories","era":"frontier","yearStart":1757,"yearEnd":1796,"summary":"On December 11, 1793, the young Kentucky General Assembly established a town on fifty acres of Adam Shepherd's land on the north side of Salt River, at the falls where the…","description":"On December 11, 1793, the young Kentucky General Assembly established a town on fifty acres of Adam Shepherd's land on the north side of Salt River, at the falls where the…","slug":"shepherdsville-on-salt-river","mapConfidence":"override","matchedPlace":"Shepherdsville / Salt River falls","website":null}},{"type":"Feature","geometry":{"type":"Point","coordinates":[-84.5037,38.0406]},"properties":{"id":"col-william-russell-iii","name":"Col. William Russell III","title":"Col. William Russell III","layer":"stories","era":"frontier","yearStart":1758,"yearEnd":1783,"summary":"Born in Culpeper County, Virginia, in 1758, William Russell III rode west as a teenager on his father’s 1773 attempt to settle Kentucky—the same trek that ended when James…","description":"Born in Culpeper County, Virginia, in 1758, William Russell III rode west as a teenager on his father’s 1773 attempt to settle Kentucky—the same trek that ended when James…","slug":"col-william-russell-iii","mapConfidence":"override","matchedPlace":"Col. William Russell III / Fayette","website":null}},{"type":"Feature","geometry":{"type":"Point","coordinates":[-85.2361795,38.2143528]},"properties":{"id":"bland-w-ballard-of-tick-creek","name":"Bland W. Ballard of Tick Creek","title":"Bland W. Ballard of Tick Creek","layer":"stories","era":"native","yearStart":1761,"yearEnd":1853,"summary":"Born Spotsylvania County, Va., October 16, 1761, Bland Williams Ballard came to Kentucky in 1779 and scouted for George Rogers Clark on the 1780 Ohio campaign and the 1786…","description":"Born Spotsylvania County, Va., October 16, 1761, Bland Williams Ballard came to Kentucky in 1779 and scouted for George Rogers Clark on the 1780 Ohio campaign and the 1786…","slug":"bland-w-ballard-of-tick-creek","mapConfidence":"override","matchedPlace":"Bland W. Ballard / Tyler Station","website":null}},{"type":"Feature","geometry":{"type":"Point","coordinates":[-86.4425,36.992466666666665]},"properties":{"id":"capt-will-the-hunting-ground","name":"Capt. Will & the hunting ground","title":"Capt. Will & the hunting ground","layer":"stories","era":"native","yearStart":1769,"yearEnd":1769,"summary":"Shawnee held the larger northern and central Kentucky hunting grounds; Cherokee worked closer to Cumberland Gap. When long hunters stacked pelts for eastern markets, Native…","description":"Shawnee held the larger northern and central Kentucky hunting grounds; Cherokee worked closer to Cumberland Gap. When long hunters stacked pelts for eastern markets, Native…","slug":"capt-will-the-hunting-ground","mapConfidence":"fuzzy","matchedPlace":"Capt. Will Emery / Long Hunters","website":null}},{"type":"Feature","geometry":{"type":"Point","coordinates":[-84.314117,37.72168]},"properties":{"id":"hancock-taylor-fincastle-surveyor","name":"Hancock Taylor, Fincastle surveyor","title":"Hancock Taylor, Fincastle surveyor","layer":"stories","era":"native","yearStart":1769,"yearEnd":1774,"summary":"Virginia deputy surveyor Hancock Taylor worked under Col. William Preston mapping Kentucky bounty land in the early 1770s. He had already been at the Falls of the Ohio in 1769…","description":"Virginia deputy surveyor Hancock Taylor worked under Col. William Preston mapping Kentucky bounty land in the early 1770s. He had already been at the Falls of the Ohio in 1769…","slug":"hancock-taylor-fincastle-surveyor","mapConfidence":"fuzzy","matchedPlace":"Hancock Taylor / Taylor's Fork burial","website":null}},{"type":"Feature","geometry":{"type":"Point","coordinates":[-85.7640065,38.000782]},"properties":{"id":"bullitts-lick-kentuckys-first-industry","name":"Bullitt's Lick: Kentucky's first industry","title":"Bullitt's Lick: Kentucky's first industry","layer":"stories","era":"frontier","yearStart":1773,"yearEnd":1830,"summary":"Salt was frontier \"white gold,\" and the only large commercial saltworks west of the Alleghenies during the Revolution sat about three miles west of present-day Shepherdsville.…","description":"Salt was frontier \"white gold,\" and the only large commercial saltworks west of the Alleghenies during the Revolution sat about three miles west of present-day Shepherdsville.…","slug":"bullitts-lick-kentuckys-first-industry","mapConfidence":"fuzzy","matchedPlace":"Bullitt's Lick","website":null}},{"type":"Feature","geometry":{"type":"Point","coordinates":[-85.1692443,38.4400769]},"properties":{"id":"drennon-springs-salt-works","name":"Drennon Springs Salt Works","title":"Drennon Springs Salt Works","layer":"stories","era":"frontier","yearStart":1773,"yearEnd":1785,"summary":"In Henry County — a short drive from Shelby/Bagdad — Jacob Drennon and Matthew Bracken claimed the big salt lick on July 26, 1773; Nicholas Cresswell in 1775 described some…","description":"In Henry County — a short drive from Shelby/Bagdad — Jacob Drennon and Matthew Bracken claimed the big salt lick on July 26, 1773; Nicholas Cresswell in 1775 described some…","slug":"drennon-springs-salt-works","mapConfidence":"override","matchedPlace":"Drennon Springs","website":null}},{"type":"Feature","geometry":{"type":"Point","coordinates":[-84.8677266,38.2137751]},"properties":{"id":"leestown","name":"Leestown","title":"Leestown","layer":"stories","era":"frontier","yearStart":1773,"yearEnd":1827,"summary":"In 1773 the McAfee company and Hancock Taylor surveyed a buffalo crossing on the Kentucky River about a mile north of today's Frankfort. Hancock and Willis Lee planted a…","description":"In 1773 the McAfee company and Hancock Taylor surveyed a buffalo crossing on the Kentucky River about a mile north of today's Frankfort. Hancock and Willis Lee planted a…","slug":"leestown","mapConfidence":"exact","matchedPlace":"Leestown","website":null}},{"type":"Feature","geometry":{"type":"Point","coordinates":[-84.5614948,38.2100364]},"properties":{"id":"georgetown-and-royal-spring","name":"Georgetown and Royal Spring","title":"Georgetown and Royal Spring","layer":"stories","era":"frontier","yearStart":1774,"yearEnd":1790,"summary":"In July 1774 Floyd claimed a thousand acres around a big Bluegrass spring. John McClelland of Westmoreland County, Pennsylvania, built a cabin above it in 1775 and threw up a…","description":"In July 1774 Floyd claimed a thousand acres around a big Bluegrass spring. John McClelland of Westmoreland County, Pennsylvania, built a cabin above it in 1775 and threw up a…","slug":"georgetown-and-royal-spring","mapConfidence":"fuzzy","matchedPlace":"Georgetown / Royal Spring","website":null}},{"type":"Feature","geometry":{"type":"Point","coordinates":[-85.64503333333333,38.24001666666667]},"properties":{"id":"john-floyd","name":"John Floyd","title":"John Floyd","layer":"stories","era":"frontier","yearStart":1774,"yearEnd":1783,"summary":"Virginia surveyor John Floyd led a 1774 Fincastle party into Kentucky, staked 2,000 acres on Beargrass Creek, and came back in 1779 to stockade Floyd's Station near today's St.…","description":"Virginia surveyor John Floyd led a 1774 Fincastle party into Kentucky, staked 2,000 acres on Beargrass Creek, and came back in 1779 to stockade Floyd's Station near today's St.…","slug":"john-floyd","mapConfidence":"fuzzy","matchedPlace":"John Floyd / Floyd's Station","website":null}},{"type":"Feature","geometry":{"type":"Point","coordinates":[-84.8485383,37.7619646]},"properties":{"id":"ann-mcginty-and-kentuckys-first-spinning-wheel","name":"Ann McGinty and Kentucky's first spinning wheel","title":"Ann McGinty and Kentucky's first spinning wheel","layer":"stories","era":"frontier","yearStart":1775,"yearEnd":1815,"summary":"Anne Kennedy (later Poage, Lindsay, and McGinty) crossed into Kentucky in September 1775 with a spinning wheel—the first brought over Cumberland Gap—and soon helped her husband…","description":"Anne Kennedy (later Poage, Lindsay, and McGinty) crossed into Kentucky in September 1775 with a spinning wheel—the first brought over Cumberland Gap—and soon helped her husband…","slug":"ann-mcginty-and-kentuckys-first-spinning-wheel","mapConfidence":"override","matchedPlace":"Ann McGinty / Fort Harrod","website":null}},{"type":"Feature","geometry":{"type":"Point","coordinates":[-84.6676739,37.5302888]},"properties":{"id":"benjamin-logan","name":"Benjamin Logan","title":"Benjamin Logan","layer":"stories","era":"frontier","yearStart":1775,"yearEnd":1802,"summary":"In 1775 Benjamin Logan left Boone's party and built Logan's Station (St. Asaph) near present-day Stanford — a stockade by Buffalo Spring that held through a roughly…","description":"In 1775 Benjamin Logan left Boone's party and built Logan's Station (St. Asaph) near present-day Stanford — a stockade by Buffalo Spring that held through a roughly…","slug":"benjamin-logan","mapConfidence":"fuzzy","matchedPlace":"Benjamin Logan / Logan's Station","website":null}},{"type":"Feature","geometry":{"type":"Point","coordinates":[-84.8433,37.7623]},"properties":{"id":"maj-joseph-bowman","name":"Maj. Joseph Bowman","title":"Maj. Joseph Bowman","layer":"stories","era":"frontier","yearStart":1775,"yearEnd":1779,"summary":"Virginia-born Joseph Bowman came to Kentucky by 1775, signed the 1776 Harrodsburg county petition, and in 1778 raised a company for George Rogers Clark. As Clark’s…","description":"Virginia-born Joseph Bowman came to Kentucky by 1775, signed the 1776 Harrodsburg county petition, and in 1778 raised a company for George Rogers Clark. As Clark’s…","slug":"maj-joseph-bowman","mapConfidence":"override","matchedPlace":"Maj. Joseph Bowman","website":null}},{"type":"Feature","geometry":{"type":"Point","coordinates":[-87.5691084,37.8310805]},"properties":{"id":"richard-henderson","name":"Richard Henderson","title":"Richard Henderson","layer":"stories","era":"native","yearStart":1775,"yearEnd":1775,"summary":"North Carolina judge and land speculator Richard Henderson reorganized his investors as the Transylvania Company in early 1775, then bargained at Sycamore Shoals (today’s…","description":"North Carolina judge and land speculator Richard Henderson reorganized his investors as the Transylvania Company in early 1775, then bargained at Sycamore Shoals (today’s…","slug":"richard-henderson","mapConfidence":"fuzzy","matchedPlace":"Richard Henderson / Transylvania","website":null}},{"type":"Feature","geometry":{"type":"Point","coordinates":[-84.66123333333333,37.529666666666664]},"properties":{"id":"stanford-from-st-asaph","name":"Stanford from St. Asaph","title":"Stanford from St. Asaph","layer":"stories","era":"frontier","yearStart":1775,"yearEnd":1786,"summary":"In spring 1775 Benjamin Logan and John Floyd’s survey party camped at Buffalo Spring and planted St. Asaph; Logan’s stockade (Logan’s Fort) rose there by early 1777 and never…","description":"In spring 1775 Benjamin Logan and John Floyd’s survey party camped at Buffalo Spring and planted St. Asaph; Logan’s stockade (Logan’s Fort) rose there by early 1777 and never…","slug":"stanford-from-st-asaph","mapConfidence":"override","matchedPlace":"Stanford / St. Asaph (Logan's Fort)","website":null}},{"type":"Feature","geometry":{"type":"Point","coordinates":[-84.2147,38.0089]},"properties":{"id":"capt-john-strode-of-strodes-station","name":"Capt. John Strode of Strode's Station","title":"Capt. John Strode of Strode's Station","layer":"stories","era":"frontier","yearStart":1776,"yearEnd":1805,"summary":"Virginia militia veteran John Strode reached Boonesborough in 1776 and by 1779 had raised Strode's Station on Strode's Creek—the largest fortified settlement in what became…","description":"Virginia militia veteran John Strode reached Boonesborough in 1776 and by 1779 had raised Strode's Station on Strode's Creek—the largest fortified settlement in what became…","slug":"capt-john-strode-of-strodes-station","mapConfidence":"fuzzy","matchedPlace":"Capt. John Strode / Strode's Station 1779 Clark County","website":null}},{"type":"Feature","geometry":{"type":"Point","coordinates":[-84.24981666666666,38.21273333333333]},"properties":{"id":"paris-from-hopewell","name":"Paris from Hopewell","title":"Paris from Hopewell","layer":"stories","era":"prehistoric","yearStart":1776,"yearEnd":1790,"summary":"Joseph Houston's 1776 station sat near Doyle Spring. Lawrence Protzman later platted 250 acres and in 1789 got Virginia to charter the town as Hopewell (for his New Jersey…","description":"Joseph Houston's 1776 station sat near Doyle Spring. Lawrence Protzman later platted 250 acres and in 1789 got Virginia to charter the town as Hopewell (for his New Jersey…","slug":"paris-from-hopewell","mapConfidence":"override","matchedPlace":"Paris Founding","website":null}},{"type":"Feature","geometry":{"type":"Point","coordinates":[-85.2221819,37.6853413]},"properties":{"id":"springfield-founding-and-washington-county-seat","name":"Springfield Founding and Washington County Seat","title":"Springfield Founding and Washington County Seat","layer":"stories","era":"frontier","yearStart":1776,"yearEnd":1793,"summary":"Washington County was the first county the new Kentucky legislature created after 1792 statehood, named for George Washington. In 1793 a site near the old Wilderness Trace was…","description":"Washington County was the first county the new Kentucky legislature created after 1792 statehood, named for George Washington. In 1793 a site near the old Wilderness Trace was…","slug":"springfield-founding-and-washington-county-seat","mapConfidence":"override","matchedPlace":"Springfield / Washington County seat","website":null}},{"type":"Feature","geometry":{"type":"Point","coordinates":[-85.2222,37.6853]},"properties":{"id":"springfield-first-county-seat-after-statehood","name":"Springfield, first county seat after statehood","title":"Springfield, first county seat after statehood","layer":"stories","era":"frontier","yearStart":1776,"yearEnd":1816,"summary":"Washington County was the first county the new Kentucky Assembly created (June 1792), carved wholly from Nelson and named for George Washington. Gen. Matthew Walton—Virginia…","description":"Washington County was the first county the new Kentucky Assembly created (June 1792), carved wholly from Nelson and named for George Washington. Gen. Matthew Walton—Virginia…","slug":"springfield-first-county-seat-after-statehood","mapConfidence":"override","matchedPlace":"Springfield","website":null}},{"type":"Feature","geometry":{"type":"Point","coordinates":[-85.7628814,38.2753405]},"properties":{"id":"falls-of-the-ohio","name":"Falls of the Ohio","title":"Falls of the Ohio","layer":"stories","era":"frontier","yearStart":1778,"yearEnd":1778,"summary":"About 390 million years ago a shallow Devonian sea laid down the Jeffersonville Limestone — coral banks and stromatoporoid sponges now exposed at the Falls of the Ohio. Those…","description":"About 390 million years ago a shallow Devonian sea laid down the Jeffersonville Limestone — coral banks and stromatoporoid sponges now exposed at the Falls of the Ohio. Those…","slug":"falls-of-the-ohio","mapConfidence":"exact","matchedPlace":"Falls of the Ohio","website":null}},{"type":"Feature","geometry":{"type":"Point","coordinates":[-85.7173,38.2434]},"properties":{"id":"george-rogers-clark","name":"George Rogers Clark","title":"George Rogers Clark","layer":"stories","era":"frontier","yearStart":1778,"yearEnd":1780,"summary":"Virginia surveyor-turned-militia leader George Rogers Clark staged at Corn Island in the Falls of the Ohio in 1778, then launched the Illinois Campaign that took Kaskaskia and…","description":"Virginia surveyor-turned-militia leader George Rogers Clark staged at Corn Island in the Falls of the Ohio in 1778, then launched the Illinois Campaign that took Kaskaskia and…","slug":"george-rogers-clark","mapConfidence":"fuzzy","matchedPlace":"George Rogers Clark / Corn Island","website":null}},{"type":"Feature","geometry":{"type":"Point","coordinates":[-84.5037,38.0406]},"properties":{"id":"col-john-bowman-at-old-chillicothe","name":"Col. John Bowman at Old Chillicothe","title":"Col. John Bowman at Old Chillicothe","layer":"stories","era":"native","yearStart":1779,"yearEnd":1779,"summary":"In late May 1779, Col. John Bowman—Kentucky County’s first county-lieutenant—led roughly 160–300 mounted militia (with Benjamin Logan and Levi Todd) against the Shawnee town of…","description":"In late May 1779, Col. John Bowman—Kentucky County’s first county-lieutenant—led roughly 160–300 mounted militia (with Benjamin Logan and Levi Todd) against the Shawnee town of…","slug":"col-john-bowman-at-old-chillicothe","mapConfidence":"fuzzy","matchedPlace":"Col. John Todd of Lexington","website":null}},{"type":"Feature","geometry":{"type":"Point","coordinates":[-84.5037,38.0406]},"properties":{"id":"col-robert-patterson-builds-lexington","name":"Col. Robert Patterson builds Lexington","title":"Col. Robert Patterson builds Lexington","layer":"stories","era":"frontier","yearStart":1779,"yearEnd":1790,"summary":"In April 1779 Ensign Robert Patterson led about twenty-five men north from Harrodsburg and began a fort on the site that became Lexington, naming the place for the…","description":"In April 1779 Ensign Robert Patterson led about twenty-five men north from Harrodsburg and began a fort on the site that became Lexington, naming the place for the…","slug":"col-robert-patterson-builds-lexington","mapConfidence":"override","matchedPlace":"Lexington","website":null}},{"type":"Feature","geometry":{"type":"Point","coordinates":[-84.2749,38.3351]},"properties":{"id":"isaac-ruddell-and-the-guns-at-ruddells-station","name":"Isaac Ruddell and the Guns at Ruddell’s Station","title":"Isaac Ruddell and the Guns at Ruddell’s Station","layer":"stories","era":"native","yearStart":1779,"yearEnd":1780,"summary":"In spring 1779 Capt. Isaac Ruddell rebuilt a fort on the South Fork of Licking (Harrison County) on the old Hinkson site—Ruddell’s Station, or Fort Liberty—soon joined by many…","description":"In spring 1779 Capt. Isaac Ruddell rebuilt a fort on the South Fork of Licking (Harrison County) on the old Hinkson site—Ruddell’s Station, or Fort Liberty—soon joined by many…","slug":"isaac-ruddell-and-the-guns-at-ruddells-station","mapConfidence":"fuzzy","matchedPlace":"Ruddell's Station","website":null}},{"type":"Feature","geometry":{"type":"Point","coordinates":[-85.60747586447548,38.24890948935559]},"properties":{"id":"william-christian-of-beargrass","name":"William Christian of Beargrass","title":"William Christian of Beargrass","layer":"stories","era":"frontier","yearStart":1779,"yearEnd":1786,"summary":"Virginia militia colonel, Patrick Henry’s brother-in-law, and signer of the Fincastle Resolutions, Christian moved his family to Jefferson County in 1785 and directed defense…","description":"Virginia militia colonel, Patrick Henry’s brother-in-law, and signer of the Fincastle Resolutions, Christian moved his family to Jefferson County in 1785 and directed defense…","slug":"william-christian-of-beargrass","mapConfidence":"fuzzy","matchedPlace":"William Christian / Fort William","website":null}},{"type":"Feature","geometry":{"type":"Point","coordinates":[-85.4665,37.8089]},"properties":{"id":"bardstown","name":"Bardstown","title":"Bardstown","layer":"stories","era":"frontier","yearStart":1780,"yearEnd":1788,"summary":"The Bardstown area was explored in the mid-1770s and briefly called Salem. In 1780 William Bard arrived as agent for his brother David and John Cockey Owings, surveyed a town…","description":"The Bardstown area was explored in the mid-1770s and briefly called Salem. In 1780 William Bard arrived as agent for his brother David and John Cockey Owings, surveyed a town…","slug":"bardstown","mapConfidence":"fuzzy","matchedPlace":"Bardstown Founding","website":null}},{"type":"Feature","geometry":{"type":"Point","coordinates":[-85.9118928,37.6828019]},"properties":{"id":"elizabethtown-from-severns-valley","name":"Elizabethtown from Severns Valley","title":"Elizabethtown from Severns Valley","layer":"stories","era":"frontier","yearStart":1780,"yearEnd":1797,"summary":"Severns Valley took its name from early explorer John Severns. Permanent settlement began in spring 1780 when Capt. Thomas Helm, Col. Andrew Hynes, and Samuel Haycraft built…","description":"Severns Valley took its name from early explorer John Severns. Permanent settlement began in spring 1780 when Capt. Thomas Helm, Col. Andrew Hynes, and Samuel Haycraft built…","slug":"elizabethtown-from-severns-valley","mapConfidence":"override","matchedPlace":"Elizabethtown founding / Severns Valley","website":null}},{"type":"Feature","geometry":{"type":"Point","coordinates":[-84.8655544,38.1980678]},"properties":{"id":"frankfort-franks-ford-becomes-the-capital","name":"Frankfort: Frank's Ford becomes the capital","title":"Frankfort: Frank's Ford becomes the capital","layer":"stories","era":"frontier","yearStart":1780,"yearEnd":1830,"summary":"Before it was the capital, the site was a buffalo-trail ford on the Kentucky River. In 1780 pioneer Stephen Frank was killed in a skirmish there; settlers called the crossing…","description":"Before it was the capital, the site was a buffalo-trail ford on the Kentucky River. In 1780 pioneer Stephen Frank was killed in a skirmish there; settlers called the crossing…","slug":"frankfort-franks-ford-becomes-the-capital","mapConfidence":"override","matchedPlace":"Frankfort Founding","website":null}},{"type":"Feature","geometry":{"type":"Point","coordinates":[-84.7919732,37.5753439]},"properties":{"id":"isaac-shelby-old-kings-mountain","name":"Isaac Shelby, \"Old Kings Mountain\"","title":"Isaac Shelby, \"Old Kings Mountain\"","layer":"stories","era":"frontier","yearStart":1780,"yearEnd":1812,"summary":"Shelby County's namesake was already a frontier celebrity before Kentucky was a state. Maryland-born Isaac Shelby fought at Point Pleasant in Lord Dunmore's War, then helped…","description":"Shelby County's namesake was already a frontier celebrity before Kentucky was a state. Maryland-born Isaac Shelby fought at Point Pleasant in Lord Dunmore's War, then helped…","slug":"isaac-shelby-old-kings-mountain","mapConfidence":"fuzzy","matchedPlace":"Isaac Shelby","website":null}},{"type":"Feature","geometry":{"type":"Point","coordinates":[-84.89316,38.02186]},"properties":{"id":"lawrenceburg-from-kaufmans-station","name":"Lawrenceburg from Kaufman’s Station","title":"Lawrenceburg from Kaufman’s Station","layer":"stories","era":"frontier","yearStart":1780,"yearEnd":1827,"summary":"German immigrant Jacob Kaufman planted a frontier outpost about 1780 that locals called Kaufman’s or Coffman’s Station, a few miles west of the Kentucky River in what is now…","description":"German immigrant Jacob Kaufman planted a frontier outpost about 1780 that locals called Kaufman’s or Coffman’s Station, a few miles west of the Kentucky River in what is now…","slug":"lawrenceburg-from-kaufmans-station","mapConfidence":"county","matchedPlace":"Anderson County (centroid)","website":null}},{"type":"Feature","geometry":{"type":"Point","coordinates":[-84.8769101,38.1741739]},"properties":{"id":"lawrenceburg-from-kaufmans-station-to-anderson-county-seat","name":"Lawrenceburg: from Kaufman's Station to Anderson County seat","title":"Lawrenceburg: from Kaufman's Station to Anderson County seat","layer":"stories","era":"frontier","yearStart":1780,"yearEnd":1827,"summary":"German immigrant Jacob Kaufman settled the site about 1780 as Kaufman's (Coffman's) Station. A post office opened in 1817 for tavern-keeper William Lawrence; Franklin County…","description":"German immigrant Jacob Kaufman settled the site about 1780 as Kaufman's (Coffman's) Station. A post office opened in 1817 for tavern-keeper William Lawrence; Franklin County…","slug":"lawrenceburg-from-kaufmans-station-to-anderson-county-seat","mapConfidence":"override","matchedPlace":"Lawrenceburg / Kaufman's Station","website":null}},{"type":"Feature","geometry":{"type":"Point","coordinates":[-85.21585,38.211083333333335]},"properties":{"id":"shelbyville","name":"Shelbyville","title":"Shelbyville","layer":"stories","era":"frontier","yearStart":1780,"yearEnd":1800,"summary":"Shelby County was carved from Jefferson County in 1792 and named for first governor Isaac Shelby. That October, at the first county court, Revolutionary veteran William Shannon…","description":"Shelby County was carved from Jefferson County in 1792 and named for first governor Isaac Shelby. That October, at the first county court, Revolutionary veteran William Shannon…","slug":"shelbyville","mapConfidence":"fuzzy","matchedPlace":"Shelbyville Founding","website":null}},{"type":"Feature","geometry":{"type":"Point","coordinates":[-85.4313603,38.2363772]},"properties":{"id":"squire-boones-painted-stone","name":"Squire Boone's Painted Stone","title":"Squire Boone's Painted Stone","layer":"stories","era":"frontier","yearStart":1780,"yearEnd":1781,"summary":"Daniel's younger brother Squire Maugridge Boone Jr. carved his name into a Clear Creek rock, painted the letters red, and by spring 1780 planted Shelby County's first large…","description":"Daniel's younger brother Squire Maugridge Boone Jr. carved his name into a Clear Creek rock, painted the letters red, and by spring 1780 planted Shelby County's first large…","slug":"squire-boones-painted-stone","mapConfidence":"fuzzy","matchedPlace":"Squire Boone / Painted Stone / Long Run","website":null}},{"type":"Feature","geometry":{"type":"Point","coordinates":[-84.7708839,37.9827487]},"properties":{"id":"capt-jack-jouett","name":"Capt. Jack Jouett","title":"Capt. Jack Jouett","layer":"stories","era":"frontier","yearStart":1781,"yearEnd":1822,"summary":"On the night of June 3–4, 1781, Virginia militia captain John \"Jack\" Jouett Jr. spotted Banastre Tarleton's British cavalry near Cuckoo Tavern and rode about forty miles of…","description":"On the night of June 3–4, 1781, Virginia militia captain John \"Jack\" Jouett Jr. spotted Banastre Tarleton's British cavalry near Cuckoo Tavern and rode about forty miles of…","slug":"capt-jack-jouett","mapConfidence":"override","matchedPlace":"Capt. Jack Jouett / Craig’s Creek","website":null}},{"type":"Feature","geometry":{"type":"Point","coordinates":[-84.7708839,37.9827487]},"properties":{"id":"jack-jouett-kentuckys-midnight-rider","name":"Jack Jouett, Kentucky’s midnight rider","title":"Jack Jouett, Kentucky’s midnight rider","layer":"stories","era":"frontier","yearStart":1781,"yearEnd":1797,"summary":"On the night of June 3–4, 1781, Capt. John “Jack” Jouett spotted Banastre Tarleton’s British cavalry near Cuckoo Tavern in Virginia and rode roughly forty miles over back roads…","description":"On the night of June 3–4, 1781, Capt. John “Jack” Jouett spotted Banastre Tarleton’s British cavalry near Cuckoo Tavern in Virginia and rode roughly forty miles over back roads…","slug":"jack-jouett-kentuckys-midnight-rider","mapConfidence":"fuzzy","matchedPlace":"Capt. Jack Jouett / Craig’s Creek","website":null}},{"type":"Feature","geometry":{"type":"Point","coordinates":[-83.99151666666667,38.43443333333333]},"properties":{"id":"battle-of-blue-licks","name":"Battle of Blue Licks","title":"Battle of Blue Licks","layer":"stories","era":"native","yearStart":1782,"yearEnd":1782,"summary":"On August 19, 1782, about 182 Kentucky militia chasing Captain William Caldwell’s raiders walked into an ambush on a Licking River ridge in today’s Robertson County. Roughly 50…","description":"On August 19, 1782, about 182 Kentucky militia chasing Captain William Caldwell’s raiders walked into an ambush on a Licking River ridge in today’s Robertson County. Roughly 50…","slug":"battle-of-blue-licks","mapConfidence":"exact","matchedPlace":"Battle of Blue Licks","website":null}},{"type":"Feature","geometry":{"type":"Point","coordinates":[-83.9431961,38.0561079]},"properties":{"id":"capt-james-estill-estills-defeat","name":"Capt. James Estill / Estill's Defeat","title":"Capt. James Estill / Estill's Defeat","layer":"stories","era":"frontier","yearStart":1782,"yearEnd":1782,"summary":"On March 22, 1782, Capt. James Estill and about 25 Lincoln County militiamen overtook a Wyandot raiding party at Little Mountain Creek, near today's Mount Sterling. After…","description":"On March 22, 1782, Capt. James Estill and about 25 Lincoln County militiamen overtook a Wyandot raiding party at Little Mountain Creek, near today's Mount Sterling. After…","slug":"capt-james-estill-estills-defeat","mapConfidence":"fuzzy","matchedPlace":"Estill's Defeat","website":null}},{"type":"Feature","geometry":{"type":"Point","coordinates":[-85.75941874666854,38.2323905798604]},"properties":{"id":"john-filson-kentucke-1784","name":"John Filson / Kentucke 1784","title":"John Filson / Kentucke 1784","layer":"stories","era":"native","yearStart":1783,"yearEnd":1788,"summary":"Pennsylvania schoolteacher and surveyor John Filson reached Lexington around 1783 with land warrants for more than 12,000 acres. In 1784 he published The Discovery, Settlement…","description":"Pennsylvania schoolteacher and surveyor John Filson reached Lexington around 1783 with land warrants for more than 12,000 acres. In 1784 he published The Discovery, Settlement…","slug":"john-filson-kentucke-1784","mapConfidence":"fuzzy","matchedPlace":"John Filson","website":null}},{"type":"Feature","geometry":{"type":"Point","coordinates":[-84.7721823,37.6456488]},"properties":{"id":"danville-and-constitution-square","name":"Danville and Constitution Square","title":"Danville and Constitution Square","layer":"stories","era":"frontier","yearStart":1784,"yearEnd":1792,"summary":"After the Kentucky District court moved from Harrodsburg to Crow’s Station, Danville’s public square (laid out 1785) hosted ten conventions from 1784 to 1792. Delegates there…","description":"After the Kentucky District court moved from Harrodsburg to Crow’s Station, Danville’s public square (laid out 1785) hosted ten conventions from 1784 to 1792. Delegates there…","slug":"danville-and-constitution-square","mapConfidence":"fuzzy","matchedPlace":"Danville Constitution Square","website":null}},{"type":"Feature","geometry":{"type":"Point","coordinates":[-85.4480029,37.6730101]},"properties":{"id":"basil-haydens-high-rye-trail","name":"Basil Hayden’s High-Rye Trail","title":"Basil Hayden’s High-Rye Trail","layer":"stories","era":"frontier","yearStart":1785,"yearEnd":1785,"summary":"In 1785 Maryland Catholic Basil Hayden Sr. led about twenty-five families to Pottinger’s Creek in what became Nelson County. He distilled with a heavier rye share than many…","description":"In 1785 Maryland Catholic Basil Hayden Sr. led about twenty-five families to Pottinger’s Creek in what became Nelson County. He distilled with a heavier rye share than many…","slug":"basil-haydens-high-rye-trail","mapConfidence":"fuzzy","matchedPlace":"Basil Hayden Sr. / Holy Cross (Pottinger's Creek)","website":null}},{"type":"Feature","geometry":{"type":"Point","coordinates":[-87.5898562,37.8479021]},"properties":{"id":"henderson-at-red-banks","name":"Henderson at Red Banks","title":"Henderson at Red Banks","layer":"stories","era":"frontier","yearStart":1785,"yearEnd":1798,"summary":"The Ohio River bluff known as Red Banks sat on the Virginia grant later confirmed to Richard Henderson & Company. On April 6, 1797, Gen. Samuel Hopkins and surveyor Thomas…","description":"The Ohio River bluff known as Red Banks sat on the Virginia grant later confirmed to Richard Henderson & Company. On April 6, 1797, Gen. Samuel Hopkins and surveyor Thomas…","slug":"henderson-at-red-banks","mapConfidence":"override","matchedPlace":"Henderson / Red Banks","website":null}},{"type":"Feature","geometry":{"type":"Point","coordinates":[-84.54252,37.4761695]},"properties":{"id":"william-whitley-sportsmans-hill","name":"William Whitley / Sportsman's Hill","title":"William Whitley / Sportsman's Hill","layer":"stories","era":"frontier","yearStart":1787,"yearEnd":1794,"summary":"Near Crab Orchard, William Whitley finished Sportsman's Hill (1787–1794), often called Kentucky's first brick house — thick walls, elevated windows, and hiding places against…","description":"Near Crab Orchard, William Whitley finished Sportsman's Hill (1787–1794), often called Kentucky's first brick house — thick walls, elevated windows, and hiding places against…","slug":"william-whitley-sportsmans-hill","mapConfidence":"exact","matchedPlace":"William Whitley / Sportsman's Hill","website":null}},{"type":"Feature","geometry":{"type":"Point","coordinates":[-82.7466926,37.7033685]},"properties":{"id":"jenny-wileys-captivity-and-escape","name":"Jenny Wiley’s captivity and escape","title":"Jenny Wiley’s captivity and escape","layer":"stories","era":"native","yearStart":1789,"yearEnd":1800,"summary":"On October 1, 1789, at Walker’s Creek in present-day Bland County, Virginia, a Cherokee–Shawnee party seeking revenge on Matthias Harman mistakenly hit Thomas Wiley’s cabin.…","description":"On October 1, 1789, at Walker’s Creek in present-day Bland County, Virginia, a Cherokee–Shawnee party seeking revenge on Matthias Harman mistakenly hit Thomas Wiley’s cabin.…","slug":"jenny-wileys-captivity-and-escape","mapConfidence":"override","matchedPlace":"Jenny Wiley / Big Sandy","website":null}},{"type":"Feature","geometry":{"type":"Point","coordinates":[-84.29951666666666,38.27406666666667]},"properties":{"id":"jacob-spears-early-bourbon-whiskey","name":"Jacob Spears & early \"Bourbon\" whiskey","title":"Jacob Spears & early \"Bourbon\" whiskey","layer":"stories","era":"frontier","yearStart":1790,"yearEnd":1790,"summary":"Pennsylvania-born Revolutionary veteran Jacob Spears settled near Paris in Bourbon County and was distilling by the 1790s. Thomas Metcalfe built his stone house (\"Stone…","description":"Pennsylvania-born Revolutionary veteran Jacob Spears settled near Paris in Bourbon County and was distilling by the 1790s. Thomas Metcalfe built his stone house (\"Stone…","slug":"jacob-spears-early-bourbon-whiskey","mapConfidence":"fuzzy","matchedPlace":"Jacob Spears","website":null}},{"type":"Feature","geometry":{"type":"Point","coordinates":[-83.9431961,38.0561079]},"properties":{"id":"mount-sterling-little-mountain-town","name":"Mount Sterling / Little Mountain Town","title":"Mount Sterling / Little Mountain Town","layer":"stories","era":"prehistoric","yearStart":1790,"yearEnd":1845,"summary":"Explorers out of Boonesborough called a tree-covered Adena burial mound \"the Little Mountain.\" Scotsman Hugh Forbes began selling lots beside it around 1790; in 1792 the…","description":"Explorers out of Boonesborough called a tree-covered Adena burial mound \"the Little Mountain.\" Scotsman Hugh Forbes began selling lots beside it around 1790; in 1792 the…","slug":"mount-sterling-little-mountain-town","mapConfidence":"fuzzy","matchedPlace":"Mount Sterling Founding","website":null}},{"type":"Feature","geometry":{"type":"Point","coordinates":[-86.96,40.40083]},"properties":{"id":"wea-towns-at-ouiatenon-and-scotts-1791-kentucky-raid","name":"Wea towns at Ouiatenon and Scott's 1791 Kentucky raid","title":"Wea towns at Ouiatenon and Scott's 1791 Kentucky raid","layer":"stories","era":"native","yearStart":1791,"yearEnd":1791,"summary":"The Wea (Waayaahtanwa), Miami–Illinois speakers, made Ouiatenon on the Wabash their principal town and a French fur-trade hub after Beaver Wars displacements. In June 1791,…","description":"The Wea (Waayaahtanwa), Miami–Illinois speakers, made Ouiatenon on the Wabash their principal town and a French fur-trade hub after Beaver Wars displacements. In June 1791,…","slug":"wea-towns-at-ouiatenon-and-scotts-1791-kentucky-raid","mapConfidence":"override","matchedPlace":"Wea (Waayaahtanwa) / Ouiatenon","website":null}},{"type":"Feature","geometry":{"type":"Point","coordinates":[-84.57311666666666,37.88055]},"properties":{"id":"nicholasville-takes-shape","name":"Nicholasville Takes Shape","title":"Nicholasville Takes Shape","layer":"stories","era":"early-commonwealth","yearStart":1792,"yearEnd":1799,"summary":"After Jessamine County split from Fayette in December 1798, Methodist minister Rev. John Metcalf surveyed a town site on September 16 around four never-failing springs and the…","description":"After Jessamine County split from Fayette in December 1798, Methodist minister Rev. John Metcalf surveyed a town site on September 16 around four never-failing springs and the…","slug":"nicholasville-takes-shape","mapConfidence":"override","matchedPlace":"Nicholasville founding / Rev. John Metcalf 1798","website":null}},{"type":"Feature","geometry":{"type":"Point","coordinates":[-84.7139251,38.052276]},"properties":{"id":"versailles-takes-shape","name":"Versailles Takes Shape","title":"Versailles Takes Shape","layer":"stories","era":"early-commonwealth","yearStart":1792,"yearEnd":1792,"summary":"On June 23, 1792—weeks after Kentucky’s statehood—the legislature seated Woodford County’s courts on about 80–100 acres owned by the infant Hezekiah Briscoe. His guardian,…","description":"On June 23, 1792—weeks after Kentucky’s statehood—the legislature seated Woodford County’s courts on about 80–100 acres owned by the infant Hezekiah Briscoe. His guardian,…","slug":"versailles-takes-shape","mapConfidence":"override","matchedPlace":"Versailles founding / Hezekiah Briscoe","website":null}},{"type":"Feature","geometry":{"type":"Point","coordinates":[-84.1776735,37.9929112]},"properties":{"id":"winchester-clark-county-seat","name":"Winchester / Clark County seat","title":"Winchester / Clark County seat","layer":"stories","era":"early-commonwealth","yearStart":1792,"yearEnd":1794,"summary":"Clark County was carved from Fayette and Bourbon on December 6, 1792, and named for George Rogers Clark. Justices first met at John Strode's station, then voted to put the…","description":"Clark County was carved from Fayette and Bourbon on December 6, 1792, and named for George Rogers Clark. Justices first met at John Strode's station, then voted to put the…","slug":"winchester-clark-county-seat","mapConfidence":"override","matchedPlace":"Winchester Founding","website":null}},{"type":"Feature","geometry":{"type":"Point","coordinates":[-84.2941,38.3903]},"properties":{"id":"cynthiana-cynthia-anna-on-the-licking","name":"Cynthiana — Cynthia & Anna on the Licking","title":"Cynthiana — Cynthia & Anna on the Licking","layer":"stories","era":"early-commonwealth","yearStart":1793,"yearEnd":1793,"summary":"Harrison County was carved from Bourbon and Scott in 1793 and named for Col. Benjamin Harrison, a Ruddle’s Station settler and early Kentucky convention man. The same December…","description":"Harrison County was carved from Bourbon and Scott in 1793 and named for Col. Benjamin Harrison, a Ruddle’s Station settler and early Kentucky convention man. The same December…","slug":"cynthiana-cynthia-anna-on-the-licking","mapConfidence":"override","matchedPlace":"Cynthiana founding / Robert Harrison","website":null}},{"type":"Feature","geometry":{"type":"Point","coordinates":[-84.50191666666667,39.09213333333334]},"properties":{"id":"newport-at-the-licking-mouth","name":"Newport at the Licking Mouth","title":"Newport at the Licking Mouth","layer":"stories","era":"early-commonwealth","yearStart":1793,"yearEnd":1803,"summary":"Hubbard Taylor platted the Ohio–Licking point for the family; James Taylor Jr. settled in 1793, pushed Campbell County through in 1794, and on December 14, 1795 the General…","description":"Hubbard Taylor platted the Ohio–Licking point for the family; James Taylor Jr. settled in 1793, pushed Campbell County through in 1794, and on December 14, 1795 the General…","slug":"newport-at-the-licking-mouth","mapConfidence":"override","matchedPlace":"Newport Barracks","website":null}},{"type":"Feature","geometry":{"type":"Point","coordinates":[-85.3464,38.2219833]},"properties":{"id":"simpsonville-takes-shape-on-the-louisville-road","name":"Simpsonville takes shape on the Louisville road","title":"Simpsonville takes shape on the Louisville road","layer":"stories","era":"early-commonwealth","yearStart":1794,"yearEnd":1833,"summary":"In Shelby County, Isaac Watkins petitioned to lay out Simpsonville in 1816 as a waystation on the Louisville–Shelbyville road. A post office opened in 1821; the town…","description":"In Shelby County, Isaac Watkins petitioned to lay out Simpsonville in 1816 as a waystation on the Louisville–Shelbyville road. A post office opened in 1821; the town…","slug":"simpsonville-takes-shape-on-the-louisville-road","mapConfidence":"fuzzy","matchedPlace":"Simpsonville","website":null}},{"type":"Feature","geometry":{"type":"Point","coordinates":[-85.3364,37.76176666666667]},"properties":{"id":"jacob-beam-on-hardin-creek","name":"Jacob Beam on Hardin Creek","title":"Jacob Beam on Hardin Creek","layer":"stories","era":"frontier","yearStart":1795,"yearEnd":1795,"summary":"After 1790, Johannes Jacob Beam (Boehm) settled a farm and grist mill on Hardins Creek in Washington County (Outer Bluegrass / Knobs, feeding the Rolling Fork). Around 1795 he…","description":"After 1790, Johannes Jacob Beam (Boehm) settled a farm and grist mill on Hardins Creek in Washington County (Outer Bluegrass / Knobs, feeding the Rolling Fork). Around 1795 he…","slug":"jacob-beam-on-hardin-creek","mapConfidence":"fuzzy","matchedPlace":"Jacob Beam / Hardin's Creek","website":null}},{"type":"Feature","geometry":{"type":"Point","coordinates":[-85.3364,37.76176666666667]},"properties":{"id":"jacob-beam-sells-old-jakes-first-barrel","name":"Jacob Beam sells Old Jake’s first barrel","title":"Jacob Beam sells Old Jake’s first barrel","layer":"stories","era":"early-commonwealth","yearStart":1795,"yearEnd":1795,"summary":"In 1795 Jacob Beam (born Johannes Jacob Boehm) sold his first barrel of “Old Jake Beam” sour-mash whiskey from a corn farm and mill on Hardin’s Creek in what was then…","description":"In 1795 Jacob Beam (born Johannes Jacob Boehm) sold his first barrel of “Old Jake Beam” sour-mash whiskey from a corn farm and mill on Hardin’s Creek in what was then…","slug":"jacob-beam-sells-old-jakes-first-barrel","mapConfidence":"override","matchedPlace":"Jacob Beam / Hardin's Creek","website":null}},{"type":"Feature","geometry":{"type":"Point","coordinates":[-84.56799,37.62829]},"properties":{"id":"lancaster-at-wallaces-crossroads","name":"Lancaster at Wallace’s Crossroads","title":"Lancaster at Wallace’s Crossroads","layer":"stories","era":"early-commonwealth","yearStart":1796,"yearEnd":1799,"summary":"When Garrard County was carved in December 1796 (Kentucky’s 25th county, named for Gov. James Garrard), commissioners needed a seat where water and roads already met. Capt.…","description":"When Garrard County was carved in December 1796 (Kentucky’s 25th county, named for Gov. James Garrard), commissioners needed a seat where water and roads already met. Capt.…","slug":"lancaster-at-wallaces-crossroads","mapConfidence":"county","matchedPlace":"Garrard County (centroid)","website":null}},{"type":"Feature","geometry":{"type":"Point","coordinates":[-87.0614257,37.7549958]},"properties":{"id":"owensboro-yellow-banks","name":"Owensboro / Yellow Banks","title":"Owensboro / Yellow Banks","layer":"stories","era":"early-commonwealth","yearStart":1797,"yearEnd":1817,"summary":"Frontiersman William Smeathers (Bill Smothers) built a cabin on the Ohio’s yellow clay banks about 1797–98, and travelers already called the landing Yellow Banks. Van Cleve’s…","description":"Frontiersman William Smeathers (Bill Smothers) built a cabin on the Ohio’s yellow clay banks about 1797–98, and travelers already called the landing Yellow Banks. Van Cleve’s…","slug":"owensboro-yellow-banks","mapConfidence":"override","matchedPlace":"Owensboro / Yellow Banks","website":null}},{"type":"Feature","geometry":{"type":"Point","coordinates":[-87.1152649,37.7759614]},"properties":{"id":"yellow-banks-becomes-owensboro","name":"Yellow Banks becomes Owensboro","title":"Yellow Banks becomes Owensboro","layer":"stories","era":"early-commonwealth","yearStart":1797,"yearEnd":1817,"summary":"Frontiersman William Smeathers (Bill Smothers) built a cabin on the south bank of the Ohio in 1797 at a landing flatboat men already called Yellow Banks for its clay bluffs.…","description":"Frontiersman William Smeathers (Bill Smothers) built a cabin on the south bank of the Ohio in 1797 at a landing flatboat men already called Yellow Banks for its clay bluffs.…","slug":"yellow-banks-becomes-owensboro","mapConfidence":"override","matchedPlace":"Owensboro / Yellow Banks","website":null}},{"type":"Feature","geometry":{"type":"Point","coordinates":[-85.9145954,36.9818833]},"properties":{"id":"glasgow-the-barrens","name":"Glasgow & the Barrens","title":"Glasgow & the Barrens","layer":"stories","era":"early-commonwealth","yearStart":1798,"yearEnd":1809,"summary":"Barren County was authorized December 20, 1798, from Green and Warren, named for the open \"barrens\" prairie. In 1799 settlers chose John Gorin's Big Spring site over Richard…","description":"Barren County was authorized December 20, 1798, from Green and Warren, named for the open \"barrens\" prairie. In 1799 settlers chose John Gorin's Big Spring site over Richard…","slug":"glasgow-the-barrens","mapConfidence":"override","matchedPlace":"Glasgow / Barren County seat","website":null}},{"type":"Feature","geometry":{"type":"Point","coordinates":[-84.2943662,37.747975]},"properties":{"id":"richmond-from-millers-barn","name":"Richmond from Miller's Barn","title":"Richmond from Miller's Barn","layer":"stories","era":"early-commonwealth","yearStart":1798,"yearEnd":1809,"summary":"Madison County's first seat sat at hillside Milford with thin water. In 1798 the legislature let the court move onto Revolutionary War veteran Col. John Miller's land along…","description":"Madison County's first seat sat at hillside Milford with thin water. In 1798 the legislature let the court move onto Revolutionary War veteran Col. John Miller's land along…","slug":"richmond-from-millers-barn","mapConfidence":"override","matchedPlace":"Richmond Founding","website":null}},{"type":"Feature","geometry":{"type":"Point","coordinates":[-85.3441,38.0317]},"properties":{"id":"taylorsville-on-brashears-creek","name":"Taylorsville on Brashears Creek","title":"Taylorsville on Brashears Creek","layer":"stories","era":"early-commonwealth","yearStart":1799,"yearEnd":1829,"summary":"In 1799, while the forks of Brashears Creek and the Salt River still sat in Shelby County, miller Richard Taylor asked the Shelby County Court to carve about sixty acres from…","description":"In 1799, while the forks of Brashears Creek and the Salt River still sat in Shelby County, miller Richard Taylor asked the Shelby County Court to carve about sixty acres from…","slug":"taylorsville-on-brashears-creek","mapConfidence":"override","matchedPlace":"Taylorsville","website":null}},{"type":"Feature","geometry":{"type":"Point","coordinates":[-85.7628814,38.2753405]},"properties":{"id":"piankashaw-claims-on-the-ohio-wabash","name":"Piankashaw Claims on the Ohio–Wabash","title":"Piankashaw Claims on the Ohio–Wabash","layer":"stories","era":"early-commonwealth","yearStart":1804,"yearEnd":1804,"summary":"The Piankashaw (Peeyankihšiaki), a Miami-Illinois people of the lower Wabash, were among the nations that still asserted hunting and occupancy rights along the Ohio when…","description":"The Piankashaw (Peeyankihšiaki), a Miami-Illinois people of the lower Wabash, were among the nations that still asserted hunting and occupancy rights along the Ohio when…","slug":"piankashaw-claims-on-the-ohio-wabash","mapConfidence":"fuzzy","matchedPlace":"Falls of the Ohio","website":null}},{"type":"Feature","geometry":{"type":"Point","coordinates":[-84.2036474,37.3677334]},"properties":{"id":"great-saltpetre-cave","name":"Great Saltpetre Cave","title":"Great Saltpetre Cave","layer":"stories","era":"early-commonwealth","yearStart":1812,"yearEnd":1815,"summary":"South of Mount Vernon in Rockcastle County, Great Saltpetre Cave was mined hard for calcium nitrate during the War of 1812, when British blockades cut off imported saltpeter…","description":"South of Mount Vernon in Rockcastle County, Great Saltpetre Cave was mined hard for calcium nitrate during the War of 1812, when British blockades cut off imported saltpeter…","slug":"great-saltpetre-cave","mapConfidence":"exact","matchedPlace":"Great Saltpetre Cave","website":null}},{"type":"Feature","geometry":{"type":"Point","coordinates":[-83.1233,38.3767]},"properties":{"id":"saltpeter-cave-at-carter-caves","name":"Saltpeter Cave at Carter Caves","title":"Saltpeter Cave at Carter Caves","layer":"stories","era":"early-commonwealth","yearStart":1812,"yearEnd":1812,"summary":"In Carter County’s Carter Caves State Resort Park, Saltpeter Cave (15Cr99) was mined for potassium nitrate during the War of 1812, when British blockades forced Americans to…","description":"In Carter County’s Carter Caves State Resort Park, Saltpeter Cave (15Cr99) was mined for potassium nitrate during the War of 1812, when British blockades forced Americans to…","slug":"saltpeter-cave-at-carter-caves","mapConfidence":"fuzzy","matchedPlace":"Saltpeter Cave (Carter Caves)","website":null}},{"type":"Feature","geometry":{"type":"Point","coordinates":[-84.9393979,37.3184064]},"properties":{"id":"catherine-spears-carpenter-1818-casey-county-sweet-mash-and-sour-mash-recipes","name":"Catherine Spears Carpenter 1818 Casey County sweet-mash and sour-mash recipes","title":"Catherine Spears Carpenter 1818 Casey County sweet-mash and sour-mash recipes","layer":"stories","era":"early-commonwealth","yearStart":1818,"yearEnd":1818,"summary":"Stub topic from the Aug 27 brief rotation: Catherine Spears Carpenter’s 1818 Casey County sweet-mash and sour-mash recipes — among the earliest written whiskey formulas in…","description":"Stub topic from the Aug 27 brief rotation: Catherine Spears Carpenter’s 1818 Casey County sweet-mash and sour-mash recipes — among the earliest written whiskey formulas in…","slug":"catherine-spears-carpenter-1818-casey-county-sweet-mash-and-sour-mash-recipes","mapConfidence":"fuzzy","matchedPlace":"Catherine Spears Carpenter","website":null}},{"type":"Feature","geometry":{"type":"Point","coordinates":[-88.63255,37.10445]},"properties":{"id":"chickasaw-hunting-grounds","name":"Chickasaw hunting grounds","title":"Chickasaw hunting grounds","layer":"stories","era":"early-commonwealth","yearStart":1818,"yearEnd":1818,"summary":"West of the Tennessee River, Chickasaw hunting grounds stayed off Kentucky's settled map until October 19, 1818. Andrew Jackson and Isaac Shelby negotiated what became the…","description":"West of the Tennessee River, Chickasaw hunting grounds stayed off Kentucky's settled map until October 19, 1818. Andrew Jackson and Isaac Shelby negotiated what became the…","slug":"chickasaw-hunting-grounds","mapConfidence":"override","matchedPlace":"Chickasaw / Jackson Purchase","website":null}},{"type":"Feature","geometry":{"type":"Point","coordinates":[-84.81528333333333,38.1884]},"properties":{"id":"lexington-ohio-railroad","name":"Lexington & Ohio Railroad","title":"Lexington & Ohio Railroad","layer":"stories","era":"other","yearStart":1830,"yearEnd":1835,"summary":"On January 27, 1830, Kentucky chartered the Lexington & Ohio—the commonwealth's first railroad, and among the first west of the Alleghenies—to tie Lexington to the Ohio River.…","description":"On January 27, 1830, Kentucky chartered the Lexington & Ohio—the commonwealth's first railroad, and among the first west of the Alleghenies—to tie Lexington to the Ohio River.…","slug":"lexington-ohio-railroad","mapConfidence":"exact","matchedPlace":"Lexington & Ohio Railroad","website":null}},{"type":"Feature","geometry":{"type":"Point","coordinates":[-84.78761913468118,38.13698933835563]},"properties":{"id":"james-crow-on-glenns-creek","name":"James Crow on Glenn's Creek","title":"James Crow on Glenn's Creek","layer":"stories","era":"other","yearStart":1833,"yearEnd":1840,"summary":"Scottish physician-chemist James C. Crow began advising Oscar Pepper's Woodford County farm still on Glenn's Creek by 1833. After Pepper rebuilt in stone (1837–38), Crow…","description":"Scottish physician-chemist James C. Crow began advising Oscar Pepper's Woodford County farm still on Glenn's Creek by 1833. After Pepper rebuilt in stone (1837–38), Crow…","slug":"james-crow-on-glenns-creek","mapConfidence":"override","matchedPlace":"James C. Crow / Oscar Pepper","website":null}},{"type":"Feature","geometry":{"type":"Point","coordinates":[-85.3838837,37.932222]},"properties":{"id":"henry-mckennas-fairfield-sour-mash","name":"Henry McKenna's Fairfield sour mash","title":"Henry McKenna's Fairfield sour mash","layer":"stories","era":"other","yearStart":1855,"yearEnd":1855,"summary":"Irish immigrant Henry McKenna of County Derry settled at Fairfield in Nelson County, began distilling in a mill shed by 1855 (under a barrel a day), and built a brick…","description":"Irish immigrant Henry McKenna of County Derry settled at Fairfield in Nelson County, began distilling in a mill shed by 1855 (under a barrel a day), and built a brick…","slug":"henry-mckennas-fairfield-sour-mash","mapConfidence":"override","matchedPlace":"Henry McKenna / Fairfield","website":null}},{"type":"Feature","geometry":{"type":"Point","coordinates":[-86.0626,37.1161]},"properties":{"id":"diamond-caverns-decorated-limestone","name":"Diamond Caverns' Decorated Limestone","title":"Diamond Caverns' Decorated Limestone","layer":"stories","era":"prehistoric","yearStart":1859,"yearEnd":1859,"summary":"Discovered July 14, 1859, near Park City and opened as a show cave within a month, Diamond Caverns cuts Mississippian Ste. Genevieve limestone in the same karst country as…","description":"Discovered July 14, 1859, near Park City and opened as a show cave within a month, Diamond Caverns cuts Mississippian Ste. Genevieve limestone in the same karst country as…","slug":"diamond-caverns-decorated-limestone","mapConfidence":"override","matchedPlace":"Diamond Caverns Park City / Ste. Genevieve limestone","website":null}},{"type":"Feature","geometry":{"type":"Point","coordinates":[-83.6833147,37.776836]},"properties":{"id":"natural-bridge-sandstone-arch","name":"Natural Bridge sandstone arch","title":"Natural Bridge sandstone arch","layer":"stories","era":"prehistoric","yearStart":1926,"yearEnd":1926,"summary":"In Powell and Wolfe counties, a 78-foot-long, 65-foot-high arch of Corbin Sandstone (Breathitt Formation, Middle Pennsylvanian) spans a gorge on the Middle Fork of the Red…","description":"In Powell and Wolfe counties, a 78-foot-long, 65-foot-high arch of Corbin Sandstone (Breathitt Formation, Middle Pennsylvanian) spans a gorge on the Middle Fork of the Red…","slug":"natural-bridge-sandstone-arch","mapConfidence":"override","matchedPlace":"Natural Bridge","website":null}},{"type":"Feature","geometry":{"type":"Point","coordinates":[-84.33956666666667,36.84008333333333]},"properties":{"id":"cumberland-falls","name":"Cumberland Falls","title":"Cumberland Falls","layer":"stories","era":"other","yearStart":1931,"yearEnd":1931,"summary":"Where the Cumberland crosses the hard Lower Pennsylvanian Rockcastle conglomerate, softer rock below erodes faster and keeps a ~68-foot, 125-foot-wide drop—the “Niagara of the…","description":"Where the Cumberland crosses the hard Lower Pennsylvanian Rockcastle conglomerate, softer rock below erodes faster and keeps a ~68-foot, 125-foot-wide drop—the “Niagara of the…","slug":"cumberland-falls","mapConfidence":"override","matchedPlace":"Cumberland Falls","website":null}},{"type":"Feature","geometry":{"type":"Point","coordinates":[-82.63752,38.4730716]},"properties":{"id":"ashlands-adena-mounds","name":"Ashland's Adena mounds","title":"Ashland's Adena mounds","layer":"stories","era":"prehistoric","yearStart":1932,"yearEnd":1974,"summary":"Six conical Adena burial mounds still sit in Ashland's Central Park, roughly 15–20 feet across and 4–6 feet high in a slight curve. UK archaeologists Webb and Funkhouser…","description":"Six conical Adena burial mounds still sit in Ashland's Central Park, roughly 15–20 feet across and 4–6 feet high in a slight curve. UK archaeologists Webb and Funkhouser…","slug":"ashlands-adena-mounds","mapConfidence":"override","matchedPlace":"Ashland Central Park Adena Mounds","website":null}},{"type":"Feature","geometry":{"type":"Point","coordinates":[-83.94437,38.05699]},"properties":{"id":"wright-mounds-montgomery-county","name":"Wright Mounds, Montgomery County","title":"Wright Mounds, Montgomery County","layer":"stories","era":"prehistoric","yearStart":1937,"yearEnd":1937,"summary":"Three conical Adena mounds (15Mm6–8) once crowned a Bluegrass ridgetop. University of Kentucky crews excavated two in 1937: the larger stood about 30 feet high and 180 feet…","description":"Three conical Adena mounds (15Mm6–8) once crowned a Bluegrass ridgetop. University of Kentucky crews excavated two in 1937: the larger stood about 30 feet high and 180 feet…","slug":"wright-mounds-montgomery-county","mapConfidence":"override","matchedPlace":"Wright Mounds (Montgomery County Adena)","website":null}},{"type":"Feature","geometry":{"type":"Point","coordinates":[-88.3096434,36.6621891]},"properties":{"id":"ward-site-15mcl11-mclean-county","name":"Ward Site (15McL11), McLean County","title":"Ward Site (15McL11), McLean County","layer":"stories","era":"native","yearStart":1938,"yearEnd":1938,"summary":"On the Godfrey Ward farm along the Green River, WPA crews under John B. Elliott dug about 16,000 square feet in 1938 and catalogued 433 human burials plus dog burials and…","description":"On the Godfrey Ward farm along the Green River, WPA crews under John B. Elliott dug about 16,000 square feet in 1938 and catalogued 433 human burials plus dog burials and…","slug":"ward-site-15mcl11-mclean-county","mapConfidence":"fuzzy","matchedPlace":"Ward Site (15McL11) Late Archaic","website":null}},{"type":"Feature","geometry":{"type":"Point","coordinates":[-86.752889,37.2898389]},"properties":{"id":"annis-mound-village","name":"Annis Mound & Village","title":"Annis Mound & Village","layer":"stories","era":"prehistoric","yearStart":1939,"yearEnd":2002,"summary":"On the Green River’s Big Bend in Butler County, Annis (15Bt2 / 15Bt20) was a Middle Mississippian mound center of the early–mid 1300s. UK’s WPA crew (1939–40) and Penn State…","description":"On the Green River’s Big Bend in Butler County, Annis (15Bt2 / 15Bt20) was a Middle Mississippian mound center of the early–mid 1300s. UK’s WPA crew (1939–40) and Penn State…","slug":"annis-mound-village","mapConfidence":"override","matchedPlace":"Annis Mound & Village (15Bt2)","website":null}},{"type":"Feature","geometry":{"type":"Point","coordinates":[-82.9633675,38.7194548]},"properties":{"id":"hardin-village-15gp22","name":"Hardin Village (15Gp22)","title":"Hardin Village (15Gp22)","layer":"stories","era":"native","yearStart":1939,"yearEnd":1939,"summary":"On the Ohio floodplain in Greenup County near South Shore, Hardin Village was a late Fort Ancient town occupied from the late 1500s into the early 1600s and covering more than…","description":"On the Ohio floodplain in Greenup County near South Shore, Hardin Village was a late Fort Ancient town occupied from the late 1500s into the early 1600s and covering more than…","slug":"hardin-village-15gp22","mapConfidence":"fuzzy","matchedPlace":"Hardin Village Fort Ancient","website":null}},{"type":"Feature","geometry":{"type":"Point","coordinates":[-84.4652044,38.1588727]},"properties":{"id":"mount-horeb-earthworks","name":"Mount Horeb Earthworks","title":"Mount Horeb Earthworks","layer":"stories","era":"prehistoric","yearStart":1939,"yearEnd":1939,"summary":"Above Elkhorn Creek near Lexington, Adena people built a circular ditch-and-embankment enclosure more than 2,000 years ago for periodic ritual gatherings. WPA digs under…","description":"Above Elkhorn Creek near Lexington, Adena people built a circular ditch-and-embankment enclosure more than 2,000 years ago for periodic ritual gatherings. WPA digs under…","slug":"mount-horeb-earthworks","mapConfidence":"fuzzy","matchedPlace":"Mount Horeb Adena / Adena Park","website":null}},{"type":"Feature","geometry":{"type":"Point","coordinates":[-84.7133552,39.0933727]},"properties":{"id":"robbins-mounds-boone-county","name":"Robbins Mounds, Boone County","title":"Robbins Mounds, Boone County","layer":"stories","era":"prehistoric","yearStart":1939,"yearEnd":1939,"summary":"Two Middle Woodland Adena burial mounds (15Be3 and 15Be14) once crowned an upland ridge near the Ohio. University of Kentucky crews excavated them in 1939: the larger stood…","description":"Two Middle Woodland Adena burial mounds (15Be3 and 15Be14) once crowned an upland ridge near the Ohio. University of Kentucky crews excavated them in 1939: the larger stood…","slug":"robbins-mounds-boone-county","mapConfidence":"fuzzy","matchedPlace":"Robbins Mounds (Boone County Adena)","website":null}},{"type":"Feature","geometry":{"type":"Point","coordinates":[-83.1233,38.3767]},"properties":{"id":"carter-caves-cascade-falls","name":"Carter Caves & Cascade Falls","title":"Carter Caves & Cascade Falls","layer":"stories","era":"prehistoric","yearStart":1946,"yearEnd":1959,"summary":"In north-central Carter County, more than twenty caverns honeycomb Mississippian limestone along Tygarts Creek. Cascade Cave—added to the state park in 1959 after private tours…","description":"In north-central Carter County, more than twenty caverns honeycomb Mississippian limestone along Tygarts Creek. Cascade Cave—added to the state park in 1959 after private tours…","slug":"carter-caves-cascade-falls","mapConfidence":"fuzzy","matchedPlace":"Saltpeter Cave (Carter Caves)","website":null}},{"type":"Feature","geometry":{"type":"Point","coordinates":[-84.2328837,37.5675476]},"properties":{"id":"indian-fort-mountain","name":"Indian Fort Mountain","title":"Indian Fort Mountain","layer":"stories","era":"prehistoric","yearStart":1980,"yearEnd":1983,"summary":"On a knobby ridge south of Berea, dry-laid stone walls ring Indian Fort Mountain (15Ma25) in the Berea College Forest. Hopewell-era Middle Woodland people built them about…","description":"On a knobby ridge south of Berea, dry-laid stone walls ring Indian Fort Mountain (15Ma25) in the Berea College Forest. Hopewell-era Middle Woodland people built them about…","slug":"indian-fort-mountain","mapConfidence":"exact","matchedPlace":"Indian Fort Mountain","website":null}},{"type":"Feature","geometry":{"type":"Point","coordinates":[-84.775606,38.8580137]},"properties":{"id":"big-bone-lick-older-cycle","name":"Big Bone Lick (older cycle)","title":"Big Bone Lick (older cycle)","layer":"stories","era":"native","yearStart":null,"yearEnd":null,"summary":"Stub topic: Big Bone Lick in Boone County — Pleistocene fossils and a long Native and colonial salt-and-curiosity site (older brief cycle).","description":"Stub topic: Big Bone Lick in Boone County — Pleistocene fossils and a long Native and colonial salt-and-curiosity site (older brief cycle).","slug":"big-bone-lick-older-cycle","mapConfidence":"fuzzy","matchedPlace":"Big Bone Lick","website":null}},{"type":"Feature","geometry":{"type":"Point","coordinates":[-84.00880725804063,38.772860422898226]},"properties":{"id":"cleek-mccabe-fort-ancient-village","name":"Cleek-McCabe Fort Ancient village","title":"Cleek-McCabe Fort Ancient village","layer":"stories","era":"prehistoric","yearStart":null,"yearEnd":null,"summary":"On Mud Lick Creek’s floodplain in Boone County (near Walton), Cleek-McCabe was a thirteenth-century Fort Ancient farming town: a ~100-foot midden ring around a ~200-foot plaza,…","description":"On Mud Lick Creek’s floodplain in Boone County (near Walton), Cleek-McCabe was a thirteenth-century Fort Ancient farming town: a ~100-foot midden ring around a ~200-foot plaza,…","slug":"cleek-mccabe-fort-ancient-village","mapConfidence":"exact","matchedPlace":"Cleek-McCabe Fort Ancient Village","website":null}},{"type":"Feature","geometry":{"type":"Point","coordinates":[-86.890631,37.303551]},"properties":{"id":"indian-knoll-on-the-green-river","name":"Indian Knoll on the Green River","title":"Indian Knoll on the Green River","layer":"stories","era":"prehistoric","yearStart":null,"yearEnd":null,"summary":"Five thousand years before the first stations, Late Archaic hunter-gatherers kept returning to a shell midden on the Green River in Ohio County. Indian Knoll (15OH2) yielded…","description":"Five thousand years before the first stations, Late Archaic hunter-gatherers kept returning to a shell midden on the Green River in Ohio County. Indian Knoll (15OH2) yielded…","slug":"indian-knoll-on-the-green-river","mapConfidence":"fuzzy","matchedPlace":"Indian Knoll","website":null}},{"type":"Feature","geometry":{"type":"Point","coordinates":[-84.71933333333334,37.81891666666667]},"properties":{"id":"kentucky-river-palisades","name":"Kentucky River Palisades","title":"Kentucky River Palisades","layer":"stories","era":"frontier","yearStart":null,"yearEnd":null,"summary":"For roughly a hundred miles through the Inner Bluegrass, the Kentucky River cuts entrenched meanders into Middle Ordovician High Bridge Group limestone and dolostone—Camp…","description":"For roughly a hundred miles through the Inner Bluegrass, the Kentucky River cuts entrenched meanders into Middle Ordovician High Bridge Group limestone and dolostone—Camp…","slug":"kentucky-river-palisades","mapConfidence":"exact","matchedPlace":"Kentucky River Palisades","website":null}},{"type":"Feature","geometry":{"type":"Point","coordinates":[-84.52875,38.057833333333335]},"properties":{"id":"lexington-named","name":"Lexington named","title":"Lexington named","layer":"stories","era":"other","yearStart":null,"yearEnd":null,"summary":"Stub topic: Lexington named / Harrod’s Town pairing (cross-reference briefs 08-13 and 08-15).","description":"Stub topic: Lexington named / Harrod’s Town pairing (cross-reference briefs 08-13 and 08-15).","slug":"lexington-named","mapConfidence":"exact","matchedPlace":"Lexington Named","website":null}},{"type":"Feature","geometry":{"type":"Point","coordinates":[-86.47166389,36.95283333]},"properties":{"id":"lost-river-cave","name":"Lost River Cave","title":"Lost River Cave","layer":"stories","era":"prehistoric","yearStart":null,"yearEnd":null,"summary":"Under Bowling Green, Lost River Cave is a Pennyroyal karst system cut in Mississippian St. Louis and Ste. Genevieve limestones: a surface stream sinks into roughly seven miles…","description":"Under Bowling Green, Lost River Cave is a Pennyroyal karst system cut in Mississippian St. Louis and Ste. Genevieve limestones: a surface stream sinks into roughly seven miles…","slug":"lost-river-cave","mapConfidence":"override","matchedPlace":"Lost River Cave","website":null}},{"type":"Feature","geometry":{"type":"Point","coordinates":[-83.6258167,37.9510333]},"properties":{"id":"newt-kash-hollow-15mf1","name":"Newt Kash Hollow (15Mf1)","title":"Newt Kash Hollow (15Mf1)","layer":"stories","era":"other","yearStart":null,"yearEnd":null,"summary":"In Menifee County’s Red River country, Newt Kash rockshelter preserved Early Woodland plant beds that reshaped how archaeologists talk about eastern agriculture. Webb and…","description":"In Menifee County’s Red River country, Newt Kash rockshelter preserved Early Woodland plant beds that reshaped how archaeologists talk about eastern agriculture. Webb and…","slug":"newt-kash-hollow-15mf1","mapConfidence":"override","matchedPlace":"Newt Kash Hollow (15Mf1)","website":null}},{"type":"Feature","geometry":{"type":"Point","coordinates":[-84.4960297,38.0459102]},"properties":{"id":"peter-village-early-woodland-enclosure-near-lexington","name":"Peter Village: Early Woodland Enclosure Near Lexington","title":"Peter Village: Early Woodland Enclosure Near Lexington","layer":"stories","era":"prehistoric","yearStart":null,"yearEnd":null,"summary":"North of Lexington in Fayette County, Peter Village (15Fa166) is a huge Early Woodland ditch-and-embankment enclosure—about 9.2 hectares, irregular rather than a neat geometric…","description":"North of Lexington in Fayette County, Peter Village (15Fa166) is a huge Early Woodland ditch-and-embankment enclosure—about 9.2 hectares, irregular rather than a neat geometric…","slug":"peter-village-early-woodland-enclosure-near-lexington","mapConfidence":"override","matchedPlace":"Peter Village enclosure (15Fa166)","website":null}},{"type":"Feature","geometry":{"type":"Point","coordinates":[-89.0917492,36.9712176]},"properties":{"id":"wickliffe-mounds-mississippian-village-ballard-county","name":"Wickliffe Mounds Mississippian village Ballard County","title":"Wickliffe Mounds Mississippian village Ballard County","layer":"stories","era":"prehistoric","yearStart":null,"yearEnd":null,"summary":"Stub topic: Wickliffe Mounds, a Mississippian village and mound center in Ballard County near the Mississippi–Ohio confluence.","description":"Stub topic: Wickliffe Mounds, a Mississippian village and mound center in Ballard County near the Mississippi–Ohio confluence.","slug":"wickliffe-mounds-mississippian-village-ballard-county","mapConfidence":"fuzzy","matchedPlace":"Wickliffe Mounds","website":null}}]}