{"type":"FeatureCollection","features":[{"type":"Feature","properties":{"name":"Kentucky"},"geometry":{"type":"MultiPolygon","coordinates":[[[[-89.253314,36.56912],[-89.226312,36.580522],[-89.205389,36.607572],[-89.180682,36.665312],[-89.140619,36.73455],[-89.132904,36.760917],[-89.13454,36.783329],[-89.149677,36.818412],[-89.153387,36.839433],[-89.149359,36.851176],[-89.140253,36.861625],[-89.130756,36.870365],[-89.125433,36.876982],[-89.124017,36.886747],[-89.125433,36.918559],[-89.11889,36.961918],[-89.1237,36.979643],[-89.158075,37.011528],[-89.176263,37.035942],[-89.178705,37.062284],[-89.156805,37.092973],[-89.12265,37.124174],[-89.088495,37.174711],[-89.07829,37.185453],[-89.04372,37.208573],[-89.001898,37.223295],[-88.955487,37.227812],[-88.906976,37.220219],[-88.633002,37.114897],[-88.561078,37.076908],[-88.521454,37.067558],[-88.484296,37.072465],[-88.454462,37.096073],[-88.433417,37.136552],[-88.434003,37.168534],[-88.451654,37.198759],[-88.481805,37.233842],[-88.503412,37.266996],[-88.512445,37.303349],[-88.507855,37.34268],[-88.488617,37.384696],[-88.478192,37.398295],[-88.465009,37.408891],[-88.448261,37.415776],[-88.427484,37.418241],[-88.382538,37.417729],[-88.365643,37.421488],[-88.307098,37.448149],[-88.123065,37.474613],[-88.090985,37.491313],[-88.082977,37.519706],[-88.105023,37.562821],[-88.134662,37.587992],[-88.139813,37.593559],[-88.156561,37.620854],[-88.163348,37.640043],[-88.156659,37.663896],[-88.143866,37.685868],[-88.132343,37.699418],[-88.075775,37.737699],[-88.060321,37.751225],[-88.049945,37.773637],[-88.049677,37.79351],[-88.045282,37.806742],[-88.022479,37.809281],[-88.005048,37.803837],[-87.969305,37.785795],[-87.9508,37.781938],[-87.945819,37.788578],[-87.899579,37.82974],[-87.929755,37.88892],[-87.93371,37.902348],[-87.926532,37.92332],[-87.9091,37.931596],[-87.887665,37.928617],[-87.868573,37.915702],[-87.853876,37.901054],[-87.838007,37.889555],[-87.819574,37.881669],[-87.797162,37.878154],[-87.777362,37.880375],[-87.737665,37.891117],[-87.72829,37.891801],[-87.718964,37.899125],[-87.703485,37.905619],[-87.686737,37.906864],[-87.673651,37.898612],[-87.671796,37.884916],[-87.682196,37.852372],[-87.679852,37.837162],[-87.65705,37.825199],[-87.627094,37.834526],[-87.601386,37.856962],[-87.591107,37.884355],[-87.596063,37.904985],[-87.614374,37.934013],[-87.618427,37.956352],[-87.615204,37.968852],[-87.607587,37.975151],[-87.598602,37.976445],[-87.591107,37.973735],[-87.585687,37.966215],[-87.586786,37.949491],[-87.583661,37.939604],[-87.548895,37.913383],[-87.509979,37.919804],[-87.468695,37.937821],[-87.42663,37.946415],[-87.405194,37.94207],[-87.381586,37.933232],[-87.359076,37.921659],[-87.340961,37.909184],[-87.323016,37.899491],[-87.255316,37.878154],[-87.219818,37.859062],[-87.209296,37.854936],[-87.195184,37.851908],[-87.176801,37.850834],[-87.164887,37.847099],[-87.160321,37.838041],[-87.158051,37.826689],[-87.152899,37.816093],[-87.137616,37.800444],[-87.12912,37.794364],[-87.118134,37.788749],[-87.086713,37.805448],[-87.070477,37.828862],[-87.043036,37.891801],[-87.031342,37.908134],[-87.019501,37.919145],[-87.005609,37.926615],[-86.987787,37.932768],[-86.929608,37.937699],[-86.916107,37.943022],[-86.893231,37.960795],[-86.854852,37.983988],[-86.818817,37.995219],[-86.80285,37.977153],[-86.794574,37.950737],[-86.772846,37.923783],[-86.742206,37.903862],[-86.707245,37.898612],[-86.662982,37.905546],[-86.643866,37.901371],[-86.655389,37.881254],[-86.662958,37.863847],[-86.648456,37.854106],[-86.624432,37.853764],[-86.603583,37.864506],[-86.595477,37.884745],[-86.595624,37.904447],[-86.589667,37.919389],[-86.535858,37.928642],[-86.523236,37.938285],[-86.520282,37.953495],[-86.523456,38.019194],[-86.518597,38.040483],[-86.505194,38.049467],[-86.483759,38.050859],[-86.460834,38.056547],[-86.443744,38.068974],[-86.43974,38.090434],[-86.44538,38.101493],[-86.463226,38.117314],[-86.467035,38.127958],[-86.461786,38.137309],[-86.450262,38.136698],[-86.438739,38.131742],[-86.433514,38.127958],[-86.42829,38.118339],[-86.416132,38.115238],[-86.392548,38.117094],[-86.35036,38.131401],[-86.332782,38.147123],[-86.340936,38.154423],[-86.361615,38.159623],[-86.381708,38.169242],[-86.393915,38.187846],[-86.382855,38.194633],[-86.361688,38.192924],[-86.343524,38.186015],[-86.291718,38.153617],[-86.282684,38.141947],[-86.286102,38.099858],[-86.284442,38.084379],[-86.275238,38.069926],[-86.259393,38.059013],[-86.219696,38.042192],[-86.203534,38.032084],[-86.183734,38.022929],[-86.13327,38.020048],[-86.110761,38.015312],[-86.072919,37.983232],[-86.051337,37.969633],[-86.04184,37.977153],[-86.031976,37.993998],[-86.008661,38.000956],[-85.95993,38.007865],[-85.948358,38.013871],[-85.938812,38.020903],[-85.930951,38.028959],[-85.924701,38.037797],[-85.914569,38.063627],[-85.905316,38.15933],[-85.900604,38.179936],[-85.891327,38.202104],[-85.877875,38.219755],[-85.860956,38.226957],[-85.851117,38.235966],[-85.829437,38.277201],[-85.815912,38.289018],[-85.805731,38.289018],[-85.792059,38.286454],[-85.780096,38.282597],[-85.77497,38.278813],[-85.769867,38.270048],[-85.758295,38.269755],[-85.720502,38.27891],[-85.700531,38.287651],[-85.665106,38.309526],[-85.643353,38.343559],[-85.619696,38.431913],[-85.589984,38.460966],[-85.569452,38.465287],[-85.526581,38.468656],[-85.511176,38.477738],[-85.495844,38.49517],[-85.482123,38.507646],[-85.428876,38.538627],[-85.414789,38.553422],[-85.410223,38.572074],[-85.43122,38.611112],[-85.439789,38.672636],[-85.44704,38.686625],[-85.45517,38.707524],[-85.454657,38.72642],[-85.436078,38.734696],[-85.320868,38.743315],[-85.257294,38.740898],[-85.239838,38.734281],[-85.205536,38.703276],[-85.18598,38.69373],[-85.14538,38.700712],[-84.999457,38.771684],[-84.935858,38.792411],[-84.901337,38.796147],[-84.819403,38.789311],[-84.806195,38.794999],[-84.819794,38.828154],[-84.812616,38.84766],[-84.798602,38.861088],[-84.785321,38.878202],[-84.783954,38.892924],[-84.805756,38.899174],[-84.849213,38.9012],[-84.865228,38.907231],[-84.87746,38.919657],[-84.868475,38.929447],[-84.832929,38.957011],[-84.822821,38.974296],[-84.828143,38.99141],[-84.842694,39.006547],[-84.870624,39.029496],[-84.87309,39.06165],[-84.842792,39.088041],[-84.823529,39.097416],[-84.767596,39.124491],[-84.751434,39.137968],[-84.742181,39.143803],[-84.730048,39.14622],[-84.721112,39.142802],[-84.708392,39.127885],[-84.703046,39.124491],[-84.688251,39.117973],[-84.637225,39.077299],[-84.594745,39.074052],[-84.508612,39.104789],[-84.465936,39.111454],[-84.444159,39.101811],[-84.430096,39.083207],[-84.419501,39.06497],[-84.408197,39.05684],[-84.388617,39.053959],[-84.364081,39.046928],[-84.321942,39.029496],[-84.306903,39.016899],[-84.296454,38.99998],[-84.290375,38.981449],[-84.288422,38.964018],[-84.283319,38.94998],[-84.271503,38.938871],[-84.25788,38.929301],[-84.24743,38.919657],[-84.237885,38.903202],[-84.231537,38.885258],[-84.228046,38.86475],[-84.226971,38.840824],[-84.217572,38.823466],[-84.195575,38.810551],[-84.083978,38.777763],[-84.061859,38.775663],[-83.972479,38.789311],[-83.948944,38.786674],[-83.908441,38.771733],[-83.865863,38.762236],[-83.85036,38.747709],[-83.836981,38.729814],[-83.821674,38.713603],[-83.753925,38.65977],[-83.714276,38.638529],[-83.670819,38.631034],[-83.650702,38.636039],[-83.633221,38.647856],[-83.620868,38.664164],[-83.616205,38.682865],[-83.604852,38.68936],[-83.534296,38.707402],[-83.512274,38.705644],[-83.491473,38.699076],[-83.472528,38.688847],[-83.456073,38.676029],[-83.44682,38.67205],[-83.411395,38.672636],[-83.39726,38.669877],[-83.368695,38.65977],[-83.356146,38.652787],[-83.348993,38.64578],[-83.325116,38.614897],[-83.312738,38.604057],[-83.305072,38.601445],[-83.269061,38.608085],[-83.25683,38.616044],[-83.241815,38.623271],[-83.218353,38.624833],[-83.17265,38.618119],[-83.151532,38.618949],[-83.133637,38.627934],[-83.125678,38.637846],[-83.115228,38.658842],[-83.109735,38.666435],[-83.101923,38.67144],[-83.07497,38.679447],[-83.060761,38.690019],[-83.046918,38.703862],[-83.030975,38.715873],[-83.010419,38.721049],[-82.984979,38.724101],[-82.924164,38.748344],[-82.898212,38.751615],[-82.886322,38.744828],[-82.883075,38.730351],[-82.883173,38.710502],[-82.880023,38.691069],[-82.855878,38.624833],[-82.82663,38.586479],[-82.783124,38.56724],[-82.736615,38.554472],[-82.698212,38.535453],[-82.626215,38.477738],[-82.615936,38.463529],[-82.599481,38.431303],[-82.589447,38.419316],[-82.589667,38.413432],[-82.590009,38.40225],[-82.593817,38.376152],[-82.593939,38.372441],[-82.593573,38.369706],[-82.590106,38.362113],[-82.571991,38.330522],[-82.568817,38.318852],[-82.567743,38.309233],[-82.570282,38.296757],[-82.572626,38.274223],[-82.572284,38.263554],[-82.571552,38.258232],[-82.571381,38.252641],[-82.57182,38.247636],[-82.574359,38.244023],[-82.578583,38.241703],[-82.590741,38.239799],[-82.595746,38.238554],[-82.598846,38.235746],[-82.600409,38.231254],[-82.601019,38.22581],[-82.59975,38.20955],[-82.600555,38.204545],[-82.602167,38.200346],[-82.605267,38.196171],[-82.612616,38.189799],[-82.630707,38.179447],[-82.633856,38.176957],[-82.635663,38.174613],[-82.636981,38.171269],[-82.637372,38.166532],[-82.636835,38.161576],[-82.631195,38.152861],[-82.555975,38.068168],[-82.550482,38.059526],[-82.545209,38.045072],[-82.540643,38.035844],[-82.533685,38.028813],[-82.478973,37.990434],[-82.475189,37.986918],[-82.470087,37.980986],[-82.466522,37.973344],[-82.465375,37.967973],[-82.465936,37.964262],[-82.468475,37.960014],[-82.481024,37.944291],[-82.482831,37.941362],[-82.481928,37.936552],[-82.476679,37.931108],[-82.4362,37.908012],[-82.430634,37.903617],[-82.424823,37.897856],[-82.417401,37.887553],[-82.413934,37.880473],[-82.412128,37.873979],[-82.407343,37.841777],[-82.40412,37.831669],[-82.401923,37.827104],[-82.399237,37.823002],[-82.336298,37.771806],[-82.323773,37.757621],[-82.316815,37.747001],[-82.316596,37.741508],[-82.315326,37.736357],[-82.300897,37.703227],[-82.296454,37.688383],[-82.291693,37.682939],[-82.283075,37.678276],[-82.244305,37.666654],[-82.23642,37.66331],[-82.228925,37.659086],[-82.219354,37.651445],[-82.200946,37.630033],[-82.198138,37.628178],[-82.194061,37.630033],[-82.188788,37.631571],[-82.181097,37.63018],[-82.150018,37.607841],[-82.142133,37.600346],[-82.138837,37.596244],[-82.136493,37.591606],[-82.135394,37.586381],[-82.135516,37.580815],[-82.136249,37.575492],[-82.129364,37.569584],[-82.115936,37.563383],[-82.036835,37.54329],[-82.024677,37.542289],[-81.994891,37.547831],[-81.983881,37.546855],[-81.965228,37.538676],[-82.021429,37.500859],[-82.106976,37.443144],[-82.16872,37.401493],[-82.264716,37.336845],[-82.351386,37.278495],[-82.375702,37.265336],[-82.44787,37.23682],[-82.526727,37.205717],[-82.632587,37.16392],[-82.681537,37.137089],[-82.699725,37.122587],[-82.708148,37.113139],[-82.709027,37.106742],[-82.705389,37.091166],[-82.703803,37.068608],[-82.704633,37.062797],[-82.706512,37.057133],[-82.709247,37.051811],[-82.712494,37.047245],[-82.716571,37.043461],[-82.726874,37.037992],[-82.815375,37.003178],[-82.839471,36.988237],[-82.849042,36.979936],[-82.854559,36.971952],[-82.854901,36.955497],[-82.854144,36.950199],[-82.853632,36.93936],[-82.855438,36.924223],[-82.856928,36.919194],[-82.858807,36.914262],[-82.861517,36.909184],[-82.864935,36.90474],[-82.869061,36.901005],[-82.884296,36.89434],[-82.944696,36.875688],[-83.007294,36.856352],[-83.049823,36.856205],[-83.056268,36.854643],[-83.062396,36.851713],[-83.082416,36.834599],[-83.100653,36.80225],[-83.107709,36.793827],[-83.119574,36.783256],[-83.122089,36.779887],[-83.122601,36.7762],[-83.120721,36.76685],[-83.121039,36.761576],[-83.123065,36.757035],[-83.128534,36.753324],[-83.137201,36.749955],[-83.239569,36.737138],[-83.342304,36.70933],[-83.38183,36.691362],[-83.394696,36.682621],[-83.40246,36.679301],[-83.413202,36.676274],[-83.508978,36.668534],[-83.597137,36.642582],[-83.604071,36.642045],[-83.623309,36.634623],[-83.667474,36.604008],[-83.694745,36.593632],[-83.730341,36.585771],[-83.77868,36.587162],[-83.808856,36.587992],[-83.894061,36.590385],[-84.026483,36.594145],[-84.198261,36.598954],[-84.401483,36.604643],[-84.628363,36.61099],[-84.870941,36.617826],[-85.121356,36.624858],[-85.426508,36.618656],[-85.634027,36.622612],[-85.867206,36.628544],[-86.066815,36.634477],[-86.217011,36.642362],[-86.343475,36.65225],[-86.41264,36.658183],[-86.464032,36.662577],[-86.507538,36.663822],[-86.516107,36.663237],[-86.552167,36.656889],[-86.595404,36.656425],[-86.608807,36.656303],[-86.646845,36.655937],[-86.705878,36.655326],[-86.782489,36.654618],[-86.873041,36.653739],[-86.974164,36.65269],[-87.082343,36.651615],[-87.193964,36.650541],[-87.305634,36.649418],[-87.413788,36.648344],[-87.514911,36.647319],[-87.605487,36.646464],[-87.68205,36.645707],[-87.741132,36.645097],[-87.77912,36.644731],[-87.792548,36.644633],[-87.83327,36.644218],[-87.839105,36.642924],[-87.844428,36.646977],[-87.848529,36.652665],[-87.855829,36.666386],[-87.860712,36.67183],[-87.868671,36.674028],[-87.923505,36.678349],[-88.013129,36.685453],[-88.067108,36.689701],[-88.072064,36.689384],[-88.0737,36.68787],[-88.073773,36.682914],[-88.071356,36.6731],[-88.05351,36.625785],[-88.040277,36.574101],[-88.03869,36.558232],[-88.039789,36.521952],[-88.042743,36.498637],[-88.215448,36.49871],[-88.388202,36.498759],[-88.560907,36.498759],[-88.733588,36.498808],[-88.906293,36.498857],[-89.079022,36.498905],[-89.251727,36.49893],[-89.424457,36.498954],[-89.419061,36.510478],[-89.40329,36.557255],[-89.400409,36.572514],[-89.386151,36.610063],[-89.376337,36.627445],[-89.370136,36.633061],[-89.358832,36.638017],[-89.334833,36.620463],[-89.310883,36.597563],[-89.28454,36.577616],[-89.253314,36.56912]]],[[[-89.494379,36.50142],[-89.559882,36.500151],[-89.569061,36.508842],[-89.577948,36.521342],[-89.569696,36.556376],[-89.536932,36.567875],[-89.502679,36.554399],[-89.489813,36.514482],[-89.494379,36.50142]]]]}}]}